,School Name,BoroughCode,Geographical District,Project Description,Construction Award,Project type,Building ID,Building Address,City,Postcode,Borough,Location 1,Latitude,Longitude,Community Board,Community Council ,Census Tract,BIN,BBL,NTA
0,P.S. 101 - BROOKLYN,K,21,Addition,65999000.0,CAP,K101,2360 BENSON AVENUE,Brooklyn,11214.0,BROOKLYN ,"(40.597863, -73.991693)",40.597863,-73.991693,11.0,47.0,302.0,3185973.0,3068750032.0,Bensonhurst East                                                           
2,P.S./I.S. 338 - BROOKLYN,K,22,New,67683691.0,CAP,K338,510 CONEY ISLAND AVE,Brooklyn,11218.0,BROOKLYN ,"(40.645199, -73.97052)",40.645199,-73.97052,12.0,40.0,492.0,3124797.0,3053420006.0,Kensington-Ocean Parkway                                                   
3,PRE-K CENTER @ 369 93RD STREET - BROOKLYN,K,20,New,27637000.0,CAP,K613,369 93RD STREET,Brooklyn,11209.0,BROOKLYN ,"(40.618041, -74.031381)",40.618041,-74.031381,10.0,43.0,58.0,3155119.0,3061030042.0,Bay Ridge                                                                  
4,PRE-K CENTER @ 219 25TH STREET - BROOKLYN,K,15,Lease,8464400.0,CAP,K661,219 25TH STREET,Brooklyn,11232.0,BROOKLYN ,"(40.659882, -73.997016)",40.659882,-73.997016,7.0,38.0,101.0,3336859.0,3006520070.0,Sunset Park West                                                           
5,PRE-K CENTER @ 1223 CONEY ISLAND AVENUE - BROOKLYN,K,21,Lease,6584000.0,CAP,K672,1223 CONEY ISLAND AVENUE,Brooklyn,11230.0,BROOKLYN ,"(40.62782, -73.96574)",40.62782,-73.96574,14.0,45.0,530.0,3179195.0,3066950056.0,Midwood                                                                    
7,P.S. 677 - BROOKLYN,K,84,Lease,3165000.0,CAP,K677,139 MENAHAN STREET,Brooklyn,11221.0,BROOKLYN ,"(40.695717, -73.919473)",40.695717,-73.919473,4.0,37.0,419.0,3325706.0,3033060015.0,Bushwick South                                                             
8,PRE-K CENTER @ 1423 62ND STREET - BROOKLYN,K,20,Lease,24882000.0,CAP,K678,1423 62ND STREET,Brooklyn,11219.0,BROOKLYN ,"(40.625899, -73.996729)",40.625899,-73.996729,11.0,44.0,250.0,3141384.0,3057270010.0,Bensonhurst West                                                           
11,P.S. 884 - BROOKLYN,K,84,Lease,2162000.0,CAP,K884,15 SNYDER AVENUE,Brooklyn,11226.0,BROOKLYN ,"(40.648568, -73.957639)",40.648568,-73.957639,14.0,40.0,794.0,3117232.0,3051030101.0,Erasmus                                                                    
12,I.S. 323 - MANHATTAN,M,2,New,98820000.0,CAP,M323,75 MORTON STREET,Manhattan,10014.0,MANHATTAN,"(40.730999, -74.007191)",40.730999,-74.007191,2.0,3.0,69.0,1010407.0,1006030049.0,West Village                                                               
13,P.S. 342 (RIVERSIDE CENTER) - MANHATTAN,M,3,New,74425721.0,CAP,M342,21 WEST END AVENUE,Manhattan,10023.0,MANHATTAN,"(40.772463, -73.989844)",40.772463,-73.989844,7.0,6.0,151.0,1088870.0,1011717510.0,Lincoln Square                                                             
14,PRE-K CENTER @ 2 LAFAYETTE STREET - MANHATTAN,M,2,Interior,5144096.0,CAP,M453,2 LAFAYETTE STREET,Manhattan,10007.0,MANHATTAN,"(40.713723, -74.003586)",40.713723,-74.003586,1.0,1.0,31.0,1001672.0,1001550001.0,SoHo-TriBeCa-Civic Center-Little Italy                                     
17,ISHS @ M837,M,78,Lease,13694000.0,CAP,M837,227-243 WEST 61 STREET,Manhattan,10023.0,MANHATTAN,"(40.772007, -73.987479)",40.772007,-73.987479,7.0,6.0,151.0,1030328.0,1011540108.0,Lincoln Square                                                             
18,P.S. 303 - QUEENS,Q,28,Addition,65987000.0,CAP,Q003,108-55 69TH AVENUE,Queens,11375.0,QUEENS   ,"(40.725098, -73.845091)",40.725098,-73.845091,6.0,29.0,739.0,4052265.0,4022180021.0,Forest Hills                                                               
19,P.S. 303 - QUEENS,Q,28,Demo,5183000.0,CAP,Q003,108-55 69TH AVENUE,Queens,11375.0,QUEENS   ,"(40.725098, -73.845091)",40.725098,-73.845091,6.0,29.0,739.0,4052265.0,4022180021.0,Forest Hills                                                               
20,P.S. 11 - QUEENS,Q,30,Addition,91875000.0,CAP,Q011,54-25 SKILLMAN AVENUE,Queens,11377.0,QUEENS   ,"(40.745244, -73.90872)",40.745244,-73.90872,2.0,26.0,251.0,4552510.0,4012390001.0,Woodside                                                                   
21,P.S. 19 - QUEENS,Q,24,Addition,95491911.0,CAP,Q019,98-02 ROOSEVELT AVENUE,Queens,11368.0,QUEENS   ,"(40.749381, -73.867354)",40.749381,-73.867354,4.0,21.0,409.0,4437176.0,4016070001.0,North Corona                                                               
22,P.S. 24 - QUEENS,Q,25,Addition,82451000.0,CAP,Q024,141-11 HOLLY AVENUE,Queens,11355.0,QUEENS   ,"(40.75146, -73.817849)",40.75146,-73.817849,7.0,20.0,1205.0,4117403.0,4052010021.0,East Flushing                                                              
23,P.S. 24 - QUEENS,Q,25,Demo,2717000.0,CAP,Q024,141-11 HOLLY AVENUE,Queens,11355.0,QUEENS   ,"(40.75146, -73.817849)",40.75146,-73.817849,7.0,20.0,1205.0,4117403.0,4052010021.0,East Flushing                                                              
24,P.S. 35 - QUEENS,Q,29,Addition,42808000.0,CAP,Q035,191-02 90TH AVENUE,Queens,11423.0,QUEENS   ,"(40.713759, -73.769439)",40.713759,-73.769439,12.0,23.0,482.0,4222137.0,4104470007.0,Hollis                                                                     
25,P.S. 49 - QUEENS,Q,24,Addition,31534000.0,CAP,Q049,63-60 80TH STREET,Queens,11379.0,QUEENS   ,"(40.719867, -73.875093)",40.719867,-73.875093,5.0,30.0,663.0,4069253.0,4029900045.0,Middle Village                                                             
26,P.S. 50 - QUEENS,Q,28,Addition,55182000.0,CAP,Q050,143-26 101 AVENUE,Queens,11435.0,QUEENS   ,"(40.695238, -73.807364)",40.695238,-73.807364,12.0,28.0,206.0,4214461.0,4100240012.0,Jamaica                                                                    
27,I.S. 125 - QUEENS,Q,24,Addition,83800000.0,CAP,Q125,46-02 47 AVENUE,Queens,11377.0,QUEENS   ,"(40.741131, -73.918945)",40.741131,-73.918945,2.0,26.0,235.0,4052874.0,4022840006.0,Hunters Point-Sunnyside-West Maspeth                                       
28,P.S. 143 - QUEENS,Q,24,Demo,2688000.0,CAP,Q143,34-74 113 STREET,Queens,11368.0,QUEENS   ,"(40.755451, -73.855192)",40.755451,-73.855192,3.0,21.0,381.0,4043827.0,4017560025.0,North Corona                                                               
29,P.S. 163 - QUEENS,Q,25,Addition,43834000.0,CAP,Q163,159-01 59 AVENUE,Queens,11365.0,QUEENS   ,"(40.740565, -73.809131)",40.740565,-73.809131,7.0,20.0,1215.0,4146042.0,4067260070.0,Queensboro Hill                                                            
30,P.S. 176 - QUEENS,Q,29,Addition,50247000.0,CAP,Q176,120-45 235 STREET,Queens,11411.0,QUEENS   ,"(40.685492, -73.729982)",40.685492,-73.729982,13.0,27.0,614.0,4276382.0,4128200001.0,Cambria Heights                                                            
31,P.S. 92 - QUEENS,Q,30,Addition,42410002.0,CAP,Q292,99-01 34TH AVENUE,Queens,11368.0,QUEENS   ,"(40.755418, -73.869017)",40.755418,-73.869017,3.0,21.0,377.0,4042496.0,4017140018.0,North Corona                                                               
32,P.S. 298 - QUEENS,Q,24,New,76850000.0,CAP,Q298,50-51 98TH STREET,Queens,11368.0,QUEENS   ,"(40.742167, -73.864109)",40.742167,-73.864109,4.0,21.0,44302.0,4046832.0,4018910001.0,Corona                                                                     
33,PRE-K CENTER @ 70-24 47TH AVENUE - QUEENS,Q,24,Lease,2458500.0,CAP,Q321,70-24 47TH AVENUE,Queens,11377.0,QUEENS   ,"(40.739014, -73.893771)",40.739014,-73.893771,2.0,30.0,489.0,4441128.0,4024450001.0,Elmhurst-Maspeth                                                           
34,P.S. 332 - QUEENS,Q,26,New,66643000.0,CAP,Q332,210-07 48TH AVENUE,Queens,11364.0,QUEENS   ,"(40.754954, -73.770314)",40.754954,-73.770314,11.0,19.0,1447.0,4157240.0,4073270049.0,Bayside-Bayside Hills                                                      
35,P.S. 335 - QUEENS,Q,27,New,70885000.0,CAP,Q335,150-15 RALEIGH STREET,Queens,11418.0,QUEENS   ,"(40.668127, -73.837189)",40.668127,-73.837189,10.0,32.0,88.0,4000000.0,4115600001.0,Ozone Park                                                                 
36,IS/HS 336 - QUEENS,Q,78,Lease,19987000.0,CAP,Q336,124-06 14TH AVENUE,Queens,11356.0,QUEENS   ,"(40.785327, -73.843749)",40.785327,-73.843749,7.0,19.0,925.0,4098406.0,4040890045.0,College Point                                                              
37,PRE-K CENTER @ 32-52 37TH STREET - QUEENS,Q,30,Lease,6813171.0,CAP,Q397,32-52 37TH STREET,Queens,11103.0,QUEENS   ,"(40.759308, -73.920948)",40.759308,-73.920948,1.0,22.0,59.0,4436898.0,4006470016.0,Astoria                                                                    
38,P.S. 398 - QUEENS,Q,30,Demo,1708504.0,CAP,Q398,69-01 34TH AVENUE,Queens,11377.0,QUEENS   ,"(40.752493, -73.896922)",40.752493,-73.896922,3.0,25.0,291.0,4028492.0,4012420032.0,Jackson Heights                                                            
39,PRE-K CENTER @ JACKSON AVENUE - QUEENS,Q,30,Lease,8248692.0,CAP,Q972,27-35 JACKSON AVENUE,Queens,11101.0,QUEENS   ,"(40.747962, -73.940046)",40.747962,-73.940046,2.0,26.0,19.0,4005127.0,4004320008.0,Hunters Point-Sunnyside-West Maspeth                                       
40,P.S. 82 - STATEN ISLAND,R,31,Lease,9271638.0,CAP,R082,104 GORDON STREET,Staten Is,10304.0,STATEN IS,"(40.624263, -74.082667)",40.624263,-74.082667,1.0,49.0,21.0,5106870.0,5005430017.0,Stapleton-Rosebank                                                         
41,CURTIS HIGH SCHOOL ANNEX - STATEN ISLAND,R,78,Addition,69360558.0,CAP,R453,105B HAMILTON AVENUE,Staten Is,10301.0,STATEN IS,"(40.644735, -74.081222)",40.644735,-74.081222,1.0,49.0,7.0,,,West New Brighton-New Brighton-St. George                                  
42,SUSAN E. WAGNER HS ANNEX - STATEN ISLAND,R,78,Addition,24981900.0,CAP,R462,1220 MANOR ROAD,Staten Is,10314.0,STATEN IS,"(40.596624, -74.124334)",40.596624,-74.124334,2.0,50.0,181.0,5164530.0,5009550100.0,Todt Hill-Emerson Hill-Heartland Village-Lighthouse Hill                   
43,P.S. 14 - BRONX,X,8,Addition,50850000.0,CAP,X014,3041 BRUCKNER BLVD,Bronx,10461.0,BRONX    ,"(40.835779, -73.825735)",40.835779,-73.825735,10.0,13.0,184.0,2072754.0,2053130092.0,Schuylerville-Throgs Neck-Edgewater Park                                   
44,P.S. 46 - BRONX,X,10,Addition,84478000.0,CAP,X046,279 EAST 196 STREET,Bronx,10458.0,BRONX    ,"(40.866827, -73.890725)",40.866827,-73.890725,7.0,15.0,40501.0,2094729.0,2032950001.0,Bedford Park-Fordham North                                                 
45,P.S. 46 - BRONX,X,10,Demo,2775000.0,CAP,X046,279 EAST 196 STREET,Bronx,10458.0,BRONX    ,"(40.866827, -73.890725)",40.866827,-73.890725,7.0,15.0,40501.0,2094729.0,2032950001.0,Bedford Park-Fordham North                                                 
46,P.S. 56 - BRONX,X,10,Addition,49723000.0,CAP,X056,341 EAST 207 STREET,Bronx,10467.0,BRONX    ,"(40.875156, -73.875217)",40.875156,-73.875217,7.0,11.0,42902.0,2018457.0,2033510001.0,Norwood                                                                    
47,P.S. 317 - BRONX,X,8,New,49393937.0,CAP,X317,1028 WHITE PLAINS ROAD,Bronx,10472.0,BRONX    ,"(40.827029, -73.860034)",40.827029,-73.860034,9.0,18.0,4001.0,2000000.0,2037330005.0,Soundview-Bruckner                                                         
48,PRE-K CENTER 2 @ 2490-2500 WEBSTER AVENUE - BRONX,X,10,Lease,11645000.0,CAP,X432,2490-2500 WEBSTER AVE,Bronx,10458.0,BRONX    ,"(40.860848, -73.892224)",40.860848,-73.892224,6.0,15.0,38302.0,2094608.0,2030330004.0,Fordham South                                                              
49,PRE-K CENTER @ 2510 MARION AVENUE - BRONX,X,10,Lease,9167000.0,CAP,X444,2510 MARION AVENUE,Bronx,10458.0,BRONX    ,"(40.861286, -73.893258)",40.861286,-73.893258,5.0,15.0,39902.0,2011069.0,2030260014.0,Bedford Park-Fordham North                                                 
50,P.S. 315 - BRONX,X,10,Lease,14400000.0,CAP,X779,2865 CLAFLIN AVENUE,Bronx,10468.0,BRONX    ,"(40.873239, -73.899722)",40.873239,-73.899722,8.0,14.0,26702.0,2086833.0,2032500073.0,Van Cortlandt Village                                                      
51,P.S. 3 - BROOKLYN,K,13,PLANYC BOILER CNVRSN/PLANYC CLIMATE CTRL,5811800.0,CIP,K003,50 JEFFERSON AVENUE,Brooklyn,11216.0,BROOKLYN ,"(40.682663, -73.955338)",40.682663,-73.955338,3.0,36.0,227.0,3057406.0,3019980001.0,Clinton Hill                                                               
52,I.S. 14 - BROOKLYN,K,22,WATER PENETRATION/PLANYC BOILER/PLANYC CLIMATE,8218900.0,CIP,K014,2424 BATCHELDER STREET,Brooklyn,11235.0,BROOKLYN ,"(40.593521, -73.937672)",40.593521,-73.937672,15.0,48.0,596.0,3203617.0,3074240001.0,Sheepshead Bay-Gerritsen Beach-Manhattan Beach                             
55,P.S. 25 - BROOKLYN,K,16,ROOFS/PARAPETS/EXT MASONRY/EXT DOORS,6297397.0,CIP,K025,787 LAFAYETTE AVENUE,Brooklyn,11221.0,BROOKLYN ,"(40.691037, -73.941342)",40.691037,-73.941342,3.0,36.0,281.0,3049858.0,3017870014.0,Stuyvesant Heights                                                         
56,I.S. 393 - BROOKLYN,K,16,FULL PROGRAM ACCESSIBILITY/LOW VOLTAGE ELECTRICAL,6750000.0,CIP,K026,1014 LAFAYETTE AVENUE,Brooklyn,11221.0,BROOKLYN ,"(40.692126, -73.931731)",40.692126,-73.931731,3.0,36.0,291.0,3393805.0,3016160001.0,Stuyvesant Heights                                                         
58,P.S. 31 - BROOKLYN,K,14,EXTERIOR MASONRY/PARAPETS,3879237.0,CIP,K031,75 MESEROLE AVENUE,Brooklyn,11222.0,BROOKLYN ,"(40.726587, -73.95427)",40.726587,-73.95427,1.0,33.0,561.0,3065299.0,3025950001.0,Greenpoint                                                                 
59,I.S. 330 - BROOKLYN,K,14,KITCHEN FLOORING/FLOOD/ANSUL SYSTEM,1348916.0,CIP,K033,70 TOMPKINS AVENUE,Brooklyn,11206.0,BROOKLYN ,"(40.697152, -73.946641)",40.697152,-73.946641,3.0,36.0,257.0,3048517.0,3017430018.0,Bedford                                                                    
60,P.S. 34 - BROOKLYN,K,14,PLANYC BOILER CNVRSN/PLANYC CLIMATE CTRL,4448000.0,CIP,K034,131 NORMAN AVENUE,Brooklyn,11222.0,BROOKLYN ,"(40.726135, -73.949649)",40.726135,-73.949649,1.0,33.0,573.0,3065733.0,3026220028.0,Greenpoint                                                                 
61,P.S. 44 - BROOKLYN,K,13,PLANYC BOILER/PLANYC CLIMATE CTRL/FIRE ALARM,5862800.0,CIP,K044,432 MONROE STREET,Brooklyn,11221.0,BROOKLYN ,"(40.686592, -73.940747)",40.686592,-73.940747,3.0,36.0,277.0,3051540.0,3018210001.0,Stuyvesant Heights                                                         
63,LYONS COMMUNITY SCHOOL - K,K,14,PARAPETS/FLOOD ELIMINATION/ROOFS/MASONRY/GYM UPG,8853000.0,CIP,K049,223 GRAHAM AVENUE,Brooklyn,11206.0,BROOKLYN ,"(40.709941, -73.943641)",40.709941,-73.943641,1.0,34.0,505.0,3070825.0,3030250001.0,East Williamsburg                                                          
65,P.S. 73 - BROOKLYN,K,23,EXT MASONRY/FLOOD ELIMINATION/PARAPETS/ROOFS,10789000.0,CIP,K073,251 MACDOUGAL STREET,Brooklyn,11233.0,BROOKLYN ,"(40.680318, -73.910644)",40.680318,-73.910644,16.0,37.0,369.0,3041561.0,3015280001.0,Ocean Hill                                                                 
67,I.S. 88 - BROOKLYN,K,15,PLAYNYC BOILER CONVERSION/CLIMATE CONTROL,5896000.0,CIP,K088,544 7TH AVENUE,Brooklyn,11215.0,BROOKLYN ,"(40.660024, -73.987637)",40.660024,-73.987637,7.0,38.0,147.0,3331276.0,3008800001.0,Sunset Park West                                                           
68,P.S. 95 - BROOKLYN,K,21,PARAPET/ROOFS/EXT MASONRY,4743000.0,CIP,K095,345 VAN SICKLEN STREET,Brooklyn,11223.0,BROOKLYN ,"(40.595698, -73.97518)",40.595698,-73.97518,15.0,47.0,398.0,3192661.0,3071230066.0,Gravesend                                                                  
69,P.S. 104 - BROOKLYN,K,20,WATER INFILTRATION/FLOOD/PARAPETS/ROOFS,10521000.0,CIP,K104,9115 5TH AVENUE,Brooklyn,11209.0,BROOKLYN ,"(40.618415, -74.028842)",40.618415,-74.028842,10.0,43.0,160.0,3154775.0,3060880001.0,Bay Ridge                                                                  
71,I.S. 349 - BROOKLYN,K,32,SCIENCE LAB UPGRADES,2039000.0,CIP,K111,35 STARR STREET,Brooklyn,11221.0,BROOKLYN ,"(40.70069, -73.927481)",40.70069,-73.927481,4.0,34.0,423.0,3072497.0,3031850001.0,Bushwick South                                                             
72,P.S. 114 - BROOKLYN,K,18,EXTERIOR MASONRY,2188000.0,CIP,K114,1077 REMSEN AVENUE,Brooklyn,11236.0,BROOKLYN ,"(40.642792, -73.908806)",40.642792,-73.908806,18.0,46.0,964.0,3229159.0,3081600022.0,Canarsie                                                                   
73,BROOKLYN COMM. HS OF COMMUNICA,K,13,EXTERIOR MASONRY/PARAPETS/ROOFS,10535000.0,CIP,K117,300 WILLOUGHBY AVENUE,Brooklyn,11205.0,BROOKLYN ,"(40.692642, -73.958794)",40.692642,-73.958794,3.0,33.0,235.0,3055165.0,3019260010.0,Clinton Hill                                                               
74,P.S. 119 - BROOKLYN,K,22,PLANYC BOILER CNVRSN/PLANYC CLIMATE CTRL,5447000.0,CIP,K119,3829 AVENUE K,Brooklyn,11210.0,BROOKLYN ,"(40.625662, -73.938265)",40.625662,-73.938265,18.0,45.0,734.0,3215816.0,3077860001.0,Flatlands                                                                  
75,P.S. 130 - BROOKLYN,K,15,WATER PENETRATION THROUGH EXTERIOR/PARAPETS/ROOFS,12025000.0,CIP,K130,70 OCEAN PARKWAY,Brooklyn,11218.0,BROOKLYN ,"(40.648884, -73.975607)",40.648884,-73.975607,7.0,39.0,500.0,3124019.0,3053190001.0,Windsor Terrace                                                            
76,I.S. 136 - BROOKLYN,K,15,RPZ VALVES/LOW VOLTAGE ELEC SYSTEM,1971000.0,CIP,K136,4004 4TH AVENUE,Brooklyn,11232.0,BROOKLYN ,"(40.651977, -74.006862)",40.651977,-74.006862,7.0,38.0,82.0,3010580.0,3007130020.0,Sunset Park West                                                           
78,P.S. 138 - BROOKLYN,K,17,LIGHTING REPLACEMENT (DCAS),1696100.0,CIP,K138,760 PROSPECT PLACE,Brooklyn,11216.0,BROOKLYN ,"(40.67438, -73.951443)",40.67438,-73.951443,8.0,36.0,31701.0,3330794.0,3012330026.0,Crown Heights North                                                        
79,P.S. 152 - BROOKLYN,K,22,TCU REMOVAL & PLAYGROUND REDEVELOPMENT,1198890.0,CIP,K152,725 EAST 23 STREET,Brooklyn,11210.0,BROOKLYN ,"(40.632562, -73.954724)",40.632562,-73.954724,14.0,45.0,772.0,3205780.0,3075510026.0,Flatbush                                                                   
80,P.S. 160 - BROOKLYN,K,20,EXTERIOR MASONRY/FLOOD ELMNTN/PARAPETS,5700400.0,CIP,K160,5105 FORT HAMILTON PARKWAY,Brooklyn,11219.0,BROOKLYN ,"(40.637322, -73.999215)",40.637322,-73.999215,12.0,44.0,220.0,3138276.0,3056530021.0,Borough Park                                                               
82,P.S. 188 - BROOKLYN,K,21,SANDY:INT/HEATING/ELEC/FLOOD/CLIMATE/VENT/FA,13757000.0,CIP,K188,3314 NEPTUNE AVENUE,Brooklyn,11224.0,BROOKLYN ,"(40.577217, -74.000194)",40.577217,-74.000194,13.0,47.0,328.0,3188726.0,3070060001.0,Seagate-Coney Island                                                       
83,P.S. 192 - BROOKLYN,K,20,DETERIORATED WINDOW WELL WALLS/FLOOD/PARAPETS/ROOF,5387000.0,CIP,K192,4715 18 AVENUE,Brooklyn,11204.0,BROOKLYN ,"(40.629303, -73.979995)",40.629303,-73.979995,12.0,44.0,476.0,3128909.0,3054450001.0,Borough Park                                                               
84,P.S. 193 - BROOKLYN,K,22,TCU REMOVAL & PLAYGROUND REDEVELOPMENT,1298835.0,CIP,K193,2515 AVENUE L,Brooklyn,11210.0,BROOKLYN ,"(40.621507, -73.950473)",40.621507,-73.950473,14.0,45.0,754.0,3208461.0,3076250001.0,Midwood                                                                    
85,P.S. 194 - BROOKLYN,K,22,MASONRY/WINDOWS/ROOFS/PARAPETS,4389000.0,CIP,K194,3117 AVENUE W,Brooklyn,11229.0,BROOKLYN ,"(40.596757, -73.933499)",40.596757,-73.933499,15.0,46.0,570.0,3201629.0,3073930001.0,Sheepshead Bay-Gerritsen Beach-Manhattan Beach                             
88,P.S. 198 - BROOKLYN,K,22,PLAYGROUND REDEVELOPMENT AND TCU,1230964.98,CIP,K198,4105 FARRAGUT ROAD,Brooklyn,11210.0,BROOKLYN ,"(40.63694, -73.937339)",40.63694,-73.937339,17.0,45.0,836.0,3113388.0,3049880066.0,East Flatbush-Farragut                                                     
89,I.S. 201 - BROOKLYN,K,20,PARAPETS/EXT MASONRY/CONCRETE/FLOOD/ROOF,20782700.0,CIP,K201,8010 12 AVENUE,Brooklyn,11228.0,BROOKLYN ,"(40.618676, -74.012722)",40.618676,-74.012722,10.0,43.0,166.0,3162973.0,3062780022.0,Dyker Heights                                                              
90,P.S. 208 - BROOKLYN,K,18,"CRACKED MASONRY, DETERIORATED MORTAR/FLOOD/WINDOWS",2117000.0,CIP,K208,4801 AVENUE D,Brooklyn,11203.0,BROOKLYN ,"(40.642031, -73.931151)",40.642031,-73.931151,17.0,45.0,840.0,3105680.0,3047690025.0,East Flatbush-Farragut                                                     
91,I.S. 211 - BROOKLYN,K,18,INTERIOR SPACES/HEATING PLT/ELEC/CLIMATE/FLOOD EL,10968000.0,CIP,K211,1001 EAST 100 STREET,Brooklyn,11236.0,BROOKLYN ,"(40.643278, -73.896212)",40.643278,-73.896212,18.0,46.0,988.0,3326732.0,3082270001.0,Canarsie                                                                   
92,P.S. 225 - BROOKLYN,K,21,FLOOD ELMNTN/ROOFS/EXTERIOR MASONRY/PARAPETS,8677000.0,CIP,K225,1075 OCEAN VIEW AVENUE,Brooklyn,11235.0,BROOKLYN ,"(40.579737, -73.956329)",40.579737,-73.956329,13.0,48.0,61004.0,3245498.0,3087120056.0,Brighton Beach                                                             
93,P.S. 235 - BROOKLYN,K,18,PLAYGROUND REDEVELOPMENT & TCU,2000000.0,CIP,K235,525 LENOX ROAD,Brooklyn,11203.0,BROOKLYN ,"(40.654704, -73.941089)",40.654704,-73.941089,17.0,41.0,814.0,3107846.0,3048440001.0,East Flatbush-Farragut                                                     
94,I.S. 239 - BROOKLYN,K,21,SANDY:INTERIOR/CONCRETE/HEAT/ELEC/FLOOD/FA,19640000.0,CIP,K239,2401 NEPTUNE AVENUE,Brooklyn,11224.0,BROOKLYN ,"(40.578188, -73.99203)",40.578188,-73.99203,13.0,47.0,330.0,3188221.0,3069650140.0,Seagate-Coney Island                                                       
96,P.S. 244 - BROOKLYN,K,18,MORTAR JOINTS DETERIOR /FLOOD/PARAPETS/ROOF/WINDOW,10147000.0,CIP,K244,5404 TILDEN AVENUE,Brooklyn,11203.0,BROOKLYN ,"(40.648423, -73.925948)",40.648423,-73.925948,17.0,45.0,946.0,3104513.0,3047390001.0,Rugby-Remsen Village                                                       
99,MIDDLE SCHOOL FOR ART & PHILOS,K,18,PLANYC BOILER CONVERSION/CLIMATE CONTROL,7375000.0,CIP,K252,1084 LENOX ROAD,Brooklyn,11212.0,BROOKLYN ,"(40.658295, -73.920109)",40.658295,-73.920109,17.0,41.0,886.0,3101840.0,3046690037.0,Rugby-Remsen Village                                                       
100,P.S. 254 - BROOKLYN,K,22,SANDY - HEATING/ELEC SYS/FLOOD ELIM/CLIMATE CONTRL,4620000.0,CIP,K254,1801 AVENUE Y,Brooklyn,11235.0,BROOKLYN ,"(40.590423, -73.951753)",40.590423,-73.951753,15.0,48.0,592.0,3203132.0,3074200026.0,Sheepshead Bay-Gerritsen Beach-Manhattan Beach                             
101,I.S. 259 - BROOKLYN,K,20,CRACKED EXTERIOR MASONRY/ROOFS/PARAPETS,10786000.0,CIP,K259,7305 FT HAMILTON PKWY,Brooklyn,11228.0,BROOKLYN ,"(40.62668, -74.01512)",40.62668,-74.01512,10.0,43.0,206.0,3148031.0,3059230001.0,Dyker Heights                                                              
102,I.S. 265 -BROOKLYN,K,13,PLANYC BOILER CNVRSN/PLANYC CLIMATE CTRL,5359400.0,CIP,K265,101 PARK AVENUE,Brooklyn,11205.0,BROOKLYN ,"(40.696324, -73.97578)",40.696324,-73.97578,2.0,35.0,211.0,3057942.0,3020280001.0,Fort Greene                                                                
103,P.S. 272 - BROOKLYN,K,18,PLAYGROUND REDEVELOPMENT AND TCU REMOVAL,1323000.0,CIP,K272,101-24 SEAVIEW AVENUE,Brooklyn,11236.0,BROOKLYN ,"(40.635916, -73.886412)",40.635916,-73.886412,18.0,46.0,1034.0,3235262.0,3083290250.0,Canarsie                                                                   
104,P.S. 279 - BROOKLYN,K,18,SANDY:INTERIOR/HEAT/ELEC/FLOOD/ELEVATOR/HVAC/FA,21599000.0,CIP,K279,1070 EAST 104 STREET,Brooklyn,11236.0,BROOKLYN ,"(40.644203, -73.892264)",40.644203,-73.892264,18.0,46.0,986.0,3326733.0,3082300001.0,Canarsie                                                                   
105,I.S. 281 - BROOKLYN,K,21,SANDY:ELEVATOR UPG/FLOOD/FIRE ALARM,2098915.0,CIP,K281,8787 24 AVENUE,Brooklyn,11214.0,BROOKLYN ,"(40.595341, -73.993457)",40.595341,-73.993457,11.0,47.0,304.0,3186626.0,3068910001.0,Bensonhurst East                                                           
106,P.S. 288 - BROOKLYN,K,21,INTERIOR SPACES/HEATING/ELEC/FLOOD/CLIMATE,12853000.0,CIP,K288,2950 WEST 25 STREET,Brooklyn,11224.0,BROOKLYN ,"(40.574411, -73.99194)",40.574411,-73.99194,13.0,47.0,342.0,3189538.0,3070540045.0,Seagate-Coney Island                                                       
108,SCHOOL FOR INT'L STUD - K,K,15,DAMAGED EXTERIOR MASONRY/PARAPETS/ROOF,12710000.0,CIP,K293,284 BALTIC STREET,Brooklyn,11201.0,BROOKLYN ,"(40.685419, -73.993351)",40.685419,-73.993351,6.0,33.0,69.0,3006401.0,3004020001.0,DUMBO-Vinegar Hill-Downtown Brooklyn-Boerum Hill                           
112,P.S. 307 - BROOKLYN,K,13,CRACKED EXT MASONRY/ROOFS/PARAPETS,6721000.0,CIP,K307,209 YORK STREET,Brooklyn,11201.0,BROOKLYN ,"(40.701343, -73.982314)",40.701343,-73.982314,2.0,33.0,21.0,3000158.0,3000560007.0,DUMBO-Vinegar Hill-Downtown Brooklyn-Boerum Hill                           
115,P.S. 375 - BROOKLYN,K,17,PLANYC BOILER CNVRSN/PLANYC CLIMATE CTRL,6238000.0,CIP,K320,46 MCKEEVER PLACE,Brooklyn,11225.0,BROOKLYN ,"(40.665035, -73.959031)",40.665035,-73.959031,9.0,35.0,325.0,3034356.0,3013010001.0,Crown Heights South                                                        
116,P.S. 321 - BROOKLYN,K,15,FULL PROGRAM ACCESSIBILITY/FIRE ALARM,5581000.0,CIP,K321,180 7TH AVENUE,Brooklyn,11215.0,BROOKLYN ,"(40.67146, -73.977783)",40.67146,-73.977783,6.0,39.0,155.0,3337516.0,3009710028.0,Park Slope-Gowanus                                                         
119,KINGSBOROUGH EARLY COLLEGE SCH,K,21,ELECTRICAL LIGHTING FIXTURES,1445999.0,CIP,K400,2630 BENSON AVENUE,Brooklyn,11214.0,BROOKLYN ,"(40.594291, -73.98577)",40.594291,-73.98577,13.0,47.0,306.0,3186454.0,3068830001.0,Gravesend                                                                  
120,KINGSBOROUGH EARLY COLLEGE SCH,K,21,SANDY:INT/HEAT/FLOOD/PIPING/NON-SANDY:PIPING/FLOOD,16343000.0,CIP,K400,2630 BENSON AVENUE,Brooklyn,11214.0,BROOKLYN ,"(40.594291, -73.98577)",40.594291,-73.98577,13.0,47.0,306.0,3186454.0,3068830001.0,Gravesend                                                                  
121,MIDWOOD HS - BROOKLYN,K,21,CRACKED CONCRETE STRUCTURE/FIELD HOUSE,18211000.0,CIP,K406,1124 EAST 17 STREET,Brooklyn,11210.0,BROOKLYN ,"(40.622641, -73.958988)",40.622641,-73.958988,14.0,44.0,768.0,3000000.0,3067260087.0,Midwood                                                                    
122,ABRAHAM LINCOLN HS - BROOKLYN,K,21,SANDY: INTERIOR/VENT/ELEC/FLOOD/ATHLETIC FIELD,38162000.0,CIP,K411,2800 OCEAN PARKWAY,Brooklyn,11235.0,BROOKLYN ,"(40.581681, -73.967308)",40.581681,-73.967308,13.0,47.0,354.0,3196293.0,3072540001.0,West Brighton                                                              
123,BROOKLYN TECH HS - K,K,13,LOW VOLT ELEC SYS/KITCHEN FIRE SUPRESSION SYS,4291000.0,CIP,K430,29 FT GREENE PLACE,Brooklyn,11217.0,BROOKLYN ,"(40.688834, -73.976905)",40.688834,-73.976905,2.0,35.0,33.0,3058752.0,3020980013.0,Fort Greene                                                                
124,PERFORMING ARTS AND TECH. HS -,K,19,FY14 RESO A GYMNASIUM UPGRADE,1032000.0,CIP,K435,400 PENNSYLVANIA AVENUE,Brooklyn,11207.0,BROOKLYN ,"(40.667456, -73.894747)",40.667456,-73.894747,5.0,42.0,1156.0,3084440.0,3037880001.0,East New York (Pennsylvania Ave)                                           
125,THE INTERNATIONAL HS - BROOKLY,K,17,MASONRY/WINDOWS/PARAPETS/ROOFS/FLOOD ELIMINAITON,20937000.0,CIP,K440,883 CLASSON AVENUE,Brooklyn,11225.0,BROOKLYN ,"(40.670349, -73.961695)",40.670349,-73.961695,9.0,35.0,213.0,3029686.0,3011870001.0,Crown Heights South                                                        
126,NEW UTRECHT HS - BROOKLYN,K,20,ATHLETIC FIELD REPAIRS,5290000.0,CIP,K446,1601 80 STREET,Brooklyn,11214.0,BROOKLYN ,"(40.613262, -74.003404)",40.613262,-74.003404,11.0,43.0,182.0,3162711.0,3062710001.0,Bensonhurst West                                                           
127,I.S. 382 - BROOKLYN,K,17,ELECTRICAL LIGHTING FIXTURES,1247000.0,CIP,K465,911 FLATBUSH AVENUE,Brooklyn,11226.0,BROOKLYN ,"(40.649787, -73.95855)",40.649787,-73.95855,14.0,40.0,794.0,3336215.0,3051030010.0,Erasmus                                                                    
129,BUSHWICK HS OF SOCIAL JUSTICE,K,32,SCHOOL BASED HEALTH CENTER,1250581.23,CIP,K480,400 IRVING AVENUE,Brooklyn,11237.0,BROOKLYN ,"(40.69697, -73.910791)",40.69697,-73.910791,4.0,37.0,435.0,3076908.0,3033650098.0,Bushwick North                                                             
131,SHEEPSHEAD BAY HS - BROOKLYN,K,22,SCHOOL BASED HEALTH CENTER,1570000.0,CIP,K495,3000 AVENUE X,Brooklyn,11235.0,BROOKLYN ,"(40.594124, -73.937696)",40.594124,-73.937696,15.0,48.0,626.0,3203631.0,3074250002.0,Sheepshead Bay-Gerritsen Beach-Manhattan Beach                             
133,GEORGE WESTINGHOUSE VOC. HS,K,13,PARAPETS/EXTERIOR MASONRY/ROOFS/FLOOD ELIMINATION,9743000.0,CIP,K580,105 JOHNSON STREET,Brooklyn,11201.0,BROOKLYN ,"(40.694926, -73.986015)",40.694926,-73.986015,2.0,33.0,13.0,3348041.0,3001310001.0,DUMBO-Vinegar Hill-Downtown Brooklyn-Boerum Hill                           
135,CLARA BARTON HS - K,K,17,FAILING COPING STONE/ROOFS,7064000.0,CIP,K600,901 CLASSON AVENUE,Brooklyn,11225.0,BROOKLYN ,"(40.669567, -73.961962)",40.669567,-73.961962,9.0,35.0,213.0,3029702.0,3011880001.0,Crown Heights South                                                        
136,AUTOMOTIVE TRADES VOC HS - K,K,14,ELECTRICAL LIGHTING FIXTURES,1231000.0,CIP,K610,50 BEDFORD AVENUE,Brooklyn,11222.0,BROOKLYN ,"(40.721981, -73.953281)",40.721981,-73.953281,1.0,33.0,517.0,3066698.0,3026700001.0,North Side-South Side                                                      
137,WIILIAMSBURG PREP- BROOKLYN,K,14,ROOFS/WINDOWS/PARAPETS/EXT MASONRY,11337000.0,CIP,K650,257 N 6TH STREET,Brooklyn,11211.0,BROOKLYN ,"(40.715073, -73.954754)",40.715073,-73.954754,1.0,33.0,519.0,3062135.0,3023300011.0,North Side-South Side                                                      
138,BROOKLYN HS OF THE ARTS - BROO,K,15,ANSUL SYS/FIRE ALARM/MECHANICAL SYS - VENTILATION,5186160.0,CIP,K655,345 DEAN STREET,Brooklyn,11217.0,BROOKLYN ,"(40.683559, -73.98027)",40.683559,-73.98027,2.0,33.0,39.0,3001190.0,3001920013.0,DUMBO-Vinegar Hill-Downtown Brooklyn-Boerum Hill                           
139,BROOKLYN HS OF THE ARTS - BROO,K,15,DAMAGED EXTERIOR WALLS/ROOFS,6577000.0,CIP,K655,345 DEAN STREET,Brooklyn,11217.0,BROOKLYN ,"(40.683559, -73.98027)",40.683559,-73.98027,2.0,33.0,39.0,3001190.0,3001920013.0,DUMBO-Vinegar Hill-Downtown Brooklyn-Boerum Hill                           
141,I.S. 266 - BROOKLYN,K,13,MASONRY/PIPING/DOOR/FLOOD/WIN/PARAPETS/ROOF/HVAC,33792000.0,CIP,K902,62 PARK PLACE,Brooklyn,11217.0,BROOKLYN ,"(40.678983, -73.976497)",40.678983,-73.976497,6.0,39.0,12902.0,3259250.0,3009410050.0,Park Slope-Gowanus                                                         
142,P.S. 1 - MANHATTAN,M,2,RPZ VALVES/LOW VOLTAGE ELECTRICAL/ANSUL SYSTEM,1616020.0,CIP,M001,8 HENRY STREET,Manhattan,10038.0,MANHATTAN,"(40.71276, -73.997489)",40.71276,-73.997489,3.0,1.0,27.0,1003375.0,1002790040.0,Chinatown                                                                  
143,P.S. 5 - MANHATTAN,M,6,FIRE ALARM SYSTEM/SMOKE DAMPERS,1543000.0,CIP,M005,3703 TENTH AVENUE,Manhattan,10034.0,MANHATTAN,"(40.85899, -73.922894)",40.85899,-73.922894,12.0,10.0,299.0,1084201.0,1021500030.0,Marble Hill-Inwood                                                         
144,P.S. 5 - MANHATTAN,M,6,PARAPETS/ROOFS/WINDOWS,10770000.0,CIP,M005,3703 TENTH AVENUE,Manhattan,10034.0,MANHATTAN,"(40.85899, -73.922894)",40.85899,-73.922894,12.0,10.0,299.0,1084201.0,1021500030.0,Marble Hill-Inwood                                                         
145,FREDERICK DOUGLAS ACADEMY - M,M,5,SCIENCE LAB ACID WASTE LINES,4523000.0,CIP,M010,2581 7TH AVENUE,Manhattan,10039.0,MANHATTAN,"(40.824319, -73.93712)",40.824319,-73.93712,10.0,9.0,236.0,1060198.0,1020160100.0,Central Harlem North-Polo Grounds                                          
147,P.P.A.S. - MANHATTAN,M,2,MASONRY/AUD UPG/WIN/FLOOD/PARAPETS/ROOFS/FA,7315000.0,CIP,M017,328 WEST 48 STREET,Manhattan,10036.0,MANHATTAN,"(40.761448, -73.988019)",40.761448,-73.988019,4.0,3.0,127.0,1025092.0,1010380014.0,Clinton                                                                    
149,J.H.S. 47 (SCH FOR THE DEAF) -,M,2,PARAPETS/WINDOWS/EXTERIOR MASONRY,2654000.0,CIP,M047,223 EAST 23 STREET,Manhattan,10010.0,MANHATTAN,"(40.738548, -73.982455)",40.738548,-73.982455,6.0,2.0,64.0,,,Gramercy                                                                   
152,P.S. 361 - MANHATTAN,M,1,RPZ VALVES/LOW VOLT/ELEC UPGRADE,2646000.0,CIP,M061,610 EAST 12 STREET,Manhattan,10009.0,MANHATTAN,"(40.727892, -73.978525)",40.727892,-73.978525,3.0,2.0,28.0,1079053.0,1003940012.0,Lower East Side                                                            
153,P.S. 63 - MANHATTAN,M,1,PARAPETS/ROOFS/FLOOD ELIMINATION/EXTERIOR MASONRY,20539600.0,CIP,M063,121 EAST 3 STREET,Manhattan,10009.0,MANHATTAN,"(40.724117, -73.986381)",40.724117,-73.986381,3.0,2.0,32.0,1005760.0,1004310014.0,East Village                                                               
154,P.S. 72 - MANHATTAN,M,4,PARAPETS/MASONRY/RM UPG/FLOOD/ROOF/PLAYGROUND,14061000.0,CIP,M072,131 EAST 104 STREET,Manhattan,10029.0,MANHATTAN,"(40.791179, -73.947776)",40.791179,-73.947776,11.0,8.0,166.0,1081340.0,1016320011.0,East Harlem South                                                          
156,P.S. 75 - MANHATTAN,M,3,PLAYNYC BOILER CONVERSION/CLIMATE CONTROL,6666000.0,CIP,M075,735 WEST END AVENUE,Manhattan,10025.0,MANHATTAN,"(40.795157, -73.973292)",40.795157,-73.973292,7.0,6.0,183.0,1034190.0,1012530065.0,Upper West Side                                                            
158,BARD COLLEGE HS - MANHATTAN,M,1,NON-SANDY:MASONRY/ROOF/PARAPET/SANDY:FLOOD/MASONRY,6913000.0,CIP,M097,525 EAST HOUSTON STREET,Manhattan,10002.0,MANHATTAN,"(40.719029, -73.975891)",40.719029,-73.975891,3.0,2.0,1002.0,1004062.0,1003250025.0,Lower East Side                                                            
159,P.S. 101 - MANHATTAN,M,4,PLANYC BOILER CNVRSN/PLANYC CLIMATE CTRL,3034000.0,CIP,M101,141 EAST 111 STREET,Manhattan,10029.0,MANHATTAN,"(40.79564, -73.94441)",40.79564,-73.94441,11.0,8.0,172.0,1081346.0,1016390003.0,East Harlem South                                                          
161,P.S. 108 - MANHATTAN,M,4,PLANYC BOILER/PLANC CLIMATE CTRL/LOW VOLT/KITCHEN,6384000.0,CIP,M108,1615 MADISON AVENUE,Manhattan,10029.0,MANHATTAN,"(40.795146, -73.948368)",40.795146,-73.948368,11.0,8.0,17401.0,1051584.0,1016140021.0,East Harlem South                                                          
162,P.S. 241 - MANHATTAN,M,3,FLOOD ELIMINATION,1337000.0,CIP,M113,240 WEST 113 STREET,Manhattan,10026.0,MANHATTAN,"(40.801689, -73.954908)",40.801689,-73.954908,10.0,9.0,216.0,1055111.0,1018280015.0,Central Harlem South                                                       
163,P.S. 241 - MANHATTAN,M,3,PLANYC BOILER CONVERSION/CIMATE CONTROL,4697000.0,CIP,M113,240 WEST 113 STREET,Manhattan,10026.0,MANHATTAN,"(40.801689, -73.954908)",40.801689,-73.954908,10.0,9.0,216.0,1055111.0,1018280015.0,Central Harlem South                                                       
164,P.S. 333 - MANHATTAN,M,3,EXTERIOR MASONRY/ROOFS/PARAPETS,11148891.0,CIP,M118,154 WEST 93 STREET,Manhattan,10025.0,MANHATTAN,"(40.791728, -73.970845)",40.791728,-73.970845,7.0,6.0,177.0,1032522.0,1012230005.0,Upper West Side                                                            
165,P.S. 123 - MANHATTAN,M,5,FLOOD ELIMINATION,4815000.0,CIP,M123,301 WEST 140 STREET,Manhattan,10030.0,MANHATTAN,"(40.819767, -73.944433)",40.819767,-73.944433,10.0,9.0,22102.0,1060726.0,1020420035.0,Central Harlem North-Polo Grounds                                          
166,P.S. 128 - MANHATTAN,M,6,PLANYC BOILER CNVSN/PLANYC CLIMATE CTRL,6790000.0,CIP,M128,560 WEST 169 STREET,Manhattan,10032.0,MANHATTAN,"(40.841321, -73.938506)",40.841321,-73.938506,12.0,10.0,251.0,1062994.0,1021250001.0,Washington Heights South                                                   
168,P.S. 130 - MANHATTAN,M,2,STRUCTURAL DEFICIENCIES,1097000.0,CIP,M130,143 BAXTER STREET,Manhattan,10013.0,MANHATTAN,"(40.718903, -73.998438)",40.718903,-73.998438,2.0,1.0,41.0,1003086.0,1002360038.0,SoHo-TriBeCa-Civic Center-Little Italy                                     
169,P.S. 145 - MANHATTAN,M,3,PLANYC BOILER CNVSN/PLANYC CLIMATE CTRL,3073000.0,CIP,M145,150 WEST 105 STREET,Manhattan,10025.0,MANHATTAN,"(40.799178, -73.964842)",40.799178,-73.964842,7.0,7.0,189.0,1076625.0,1018590001.0,Upper West Side                                                            
170,P.S. 146 - MANHATTAN,M,4,PLANYC BOILER CNVRSN/PLANYC CLIMATE CTRL,3332800.0,CIP,M146,421 EAST 106 STREET,Manhattan,10029.0,MANHATTAN,"(40.789295, -73.939262)",40.789295,-73.939262,11.0,8.0,162.0,1052999.0,1017000001.0,East Harlem South                                                          
172,P.S. 158 - MANHATTAN,M,2,MASONRY/FLOOD ELIMINATION/ROOFS/WINDOWS/PARAPETS,25859000.0,CIP,M158,1458 YORK AVENUE,Manhattan,10075.0,MANHATTAN,"(40.770419, -73.951135)",40.770419,-73.951135,8.0,5.0,132.0,1046411.0,1014890001.0,Lenox Hill-Roosevelt Island                                                
173,P.S. 165 - MANHATTAN,M,3,EXT MASONRY/ROOFS,6233477.0,CIP,M165,234 WEST 109 STREET,Manhattan,10025.0,MANHATTAN,"(40.802917, -73.965613)",40.802917,-73.965613,7.0,7.0,195.0,1056676.0,1018800013.0,Morningside Heights                                                        
174,I.S. 167 - MANHATTAN,M,2,FACADE DAMAGE/SITE WORK/FLOOD/PARAPETS/WINDOWS,6157000.0,CIP,M167,220 EAST 76 STREET,Manhattan,10021.0,MANHATTAN,"(40.77205, -73.958066)",40.77205,-73.958066,8.0,4.0,134.0,1044058.0,1014300005.0,Lenox Hill-Roosevelt Island                                                
176,P.S. 183 - MANHATTAN,M,2,EXTERIOR MASONRY/FLOOD ELIMINATION/ PARAPETS/ROOFS,11870000.0,CIP,M183,419 EAST 66 STREET,Manhattan,10065.0,MANHATTAN,"(40.763736, -73.95815)",40.763736,-73.95815,8.0,5.0,116.0,1045569.0,1014610007.0,Lenox Hill-Roosevelt Island                                                
177,HAMILTON GRANGE MIDDLE SCHOOL,M,6,SCIENCE LAB UPGRADE,1098000.0,CIP,M192,500 WEST 138 STREET,Manhattan,10031.0,MANHATTAN,"(40.820953, -73.951145)",40.820953,-73.951145,9.0,7.0,22301.0,1084132.0,1019880166.0,Manhattanville                                                             
180,BAYARD RUSTIN EDUCATIONAL COMP,M,2,SCIENCE LAB UPGRADE,4222000.0,CIP,M440,351 WEST 18 STREET,Manhattan,10011.0,MANHATTAN,"(40.742867, -74.002136)",40.742867,-74.002136,4.0,3.0,89.0,1013096.0,1007420007.0,Hudson Yards-Chelsea-Flatiron-Union Square                                 
181,SEWARD PARK H.S.,M,2,WINDOWS/PARAPETS/FLOOD/EXT MASONRY/ROOFS,18800000.0,CIP,M445,350 GRAND STREET,Manhattan,10002.0,MANHATTAN,"(40.716778, -73.989337)",40.716778,-73.989337,3.0,1.0,18.0,1005283.0,1004080030.0,Chinatown                                                                  
182,UNIVERSITY NEIGHBORHOOD HS - M,M,1,FIRE ALARM/VENTILATION,3780000.0,CIP,M446,200 MONROE STREET,Manhattan,10002.0,MANHATTAN,"(40.712399, -73.984497)",40.712399,-73.984497,3.0,1.0,202.0,1003214.0,1002590044.0,Lower East Side                                                            
183,GRAMERCY ARTS HS - MANHATTAN,M,2,ELECTRICAL SYSTEMS/PA SYSTEM,6221001.0,CIP,M460,40 IRVING PLACE,Manhattan,10003.0,MANHATTAN,"(40.735494, -73.987659)",40.735494,-73.987659,6.0,2.0,50.0,1017828.0,1008720057.0,Gramercy                                                                   
184,WASHINGTON IRVING H.S.,M,2,WATER STORAGE TANK,1189512.0,CIP,M460,40 IRVING PLACE,Manhattan,10003.0,MANHATTAN,"(40.735494, -73.987659)",40.735494,-73.987659,6.0,2.0,50.0,1017828.0,1008720057.0,Gramercy                                                                   
185,WASHINGTON IRVING HS - MANHATT,M,2,EXT. MASONRY/ROOF/PARAPET/ FLOOD ELIM./WINDOWS/GYM,43221000.0,CIP,M460,40 IRVING PLACE,Manhattan,10003.0,MANHATTAN,"(40.735494, -73.987659)",40.735494,-73.987659,6.0,2.0,50.0,1017828.0,1008720057.0,Gramercy                                                                   
187,BERGTRAUM HS - MANHATTAN,M,2,LIBRARY UPGRADE,2295000.0,CIP,M520,411 PEARL STREET,Manhattan,10038.0,MANHATTAN,"(40.711442, -74.000851)",40.711442,-74.000851,1.0,1.0,29.0,1001388.0,1001130100.0,Chinatown                                                                  
188,FOOD AND FINANCE HS - MANHATTA,M,2,FY11 RESO A ROOFS,1994000.0,CIP,M535,525 WEST 50 STREET,Manhattan,10019.0,MANHATTAN,"(40.765184, -73.992953)",40.765184,-73.992953,4.0,3.0,135.0,1083802.0,1010790029.0,Clinton                                                                    
189,PARK WEST H. S. (ECF),M,2,C OF O/C OF O VENT/WATER PLANT/BOILER/ENERGY MGMT,23313000.0,CIP,M535,525 WEST 50 STREET,Manhattan,10019.0,MANHATTAN,"(40.765184, -73.992953)",40.765184,-73.992953,4.0,3.0,135.0,1083802.0,1010790029.0,Clinton                                                                    
190,A. PHILIP RANDOLPH HS -MANHATT,M,6,LIGHTING REPLACEMENT,1151999.0,CIP,M540,443 WEST 135 STREET,Manhattan,10031.0,MANHATTAN,"(40.818188, -73.950356)",40.818188,-73.950356,9.0,9.0,21703.0,1059409.0,1019570078.0,Manhattanville                                                             
191,FASHION INDUSTRIES VOC HS - M,M,2,ACCESSIBILITY,3300000.0,CIP,M600,225 WEST 24 STREET,Manhattan,10011.0,MANHATTAN,"(40.745156, -73.996074)",40.745156,-73.996074,4.0,3.0,91.0,1014174.0,1007740019.0,Hudson Yards-Chelsea-Flatiron-Union Square                                 
192,CHELSEA VOC HS - MANHATTAN,M,2,LOW VOLTAGE ELECTRICAL SYSTEM/ANSUL SYSTEM,2314098.0,CIP,M615,131 AVE OF THE AMERICAS,Manhattan,10013.0,MANHATTAN,"(40.7244, -74.004625)",40.7244,-74.004625,2.0,3.0,37.0,1007378.0,1004910016.0,SoHo-TriBeCa-Civic Center-Little Italy                                     
193,HS OF GRAPHIC COMM. ARTS (VOC),M,2,PLANYC BOILERS CONVERSION/CLIMATE CONTROL,8627000.0,CIP,M625,439 WEST 49 STREET,Manhattan,10019.0,MANHATTAN,"(40.76337, -73.990593)",40.76337,-73.990593,4.0,3.0,127.0,1026646.0,1010590015.0,Clinton                                                                    
194,M721 SPED - MANHATTAN,M,2,REINFORCE CINDER/FLOORS/ACCESSIBLITY/ELEC UPG/FA,6142800.0,CIP,M641,16 CLARKSON STREET,Manhattan,10014.0,MANHATTAN,"(40.729412, -74.006148)",40.729412,-74.006148,2.0,3.0,67.0,1009757.0,1005810054.0,West Village                                                               
197,I.S. 5 - QUEENS,Q,24,HVAC/PUBLIC ADDRESS SYSTEM,4710000.0,CIP,Q005,50-40 JACOBUS STREET,Queens,11373.0,QUEENS   ,"(40.737718, -73.887429)",40.737718,-73.887429,4.0,25.0,489.0,4454423.0,4024500017.0,Elmhurst-Maspeth                                                           
198,P.S. 12 - QUEENS,Q,24,BOILER REPLACE/ELEC SWITCH UPG/PLANYC CLIMATE CTRL,5887000.0,CIP,Q012,42-00 72 STREET,Queens,11377.0,QUEENS   ,"(40.742633, -73.892805)",40.742633,-73.892805,2.0,26.0,483.0,4031853.0,4013490028.0,Elmhurst-Maspeth                                                           
199,P.S. 14 - QUEENS,Q,24,ROOFS/PARAPETS/EXT MASONRY,10068000.0,CIP,Q014,107-01 OTIS AVENUE,Queens,11368.0,QUEENS   ,"(40.74056, -73.854131)",40.74056,-73.854131,4.0,21.0,439.0,4437311.0,4019540037.0,Corona                                                                     
201,QUEENS ACADEMY HIGH SCHOOL - Q,Q,25,WATER PENETRATION/EXT MASONRY/ROOFS,1450000.0,CIP,Q023,138-11 35 AVENUE,Queens,11354.0,QUEENS   ,"(40.765162, -73.8288)",40.765162,-73.8288,7.0,20.0,88901.0,4112106.0,4049560055.0,Flushing                                                                   
203,P.S. 354 - QUEENS,Q,28,DEFECTIVE PARAPET WALL/ROOFS/EXT MASONRY,5977000.0,CIP,Q030,126-10 BEDELL STREET,Queens,11434.0,QUEENS   ,"(40.68031, -73.774432)",40.68031,-73.774432,12.0,28.0,33402.0,4270045.0,4124950065.0,Springfield Gardens North                                                  
205,P.S. 33 - QUEENS,Q,29,ROOF REPAIR/PARAPETS/EXTERIOR MASONRY,8860557.0,CIP,Q033,91-37 222 STREET,Queens,11428.0,QUEENS   ,"(40.727134, -73.735077)",40.727134,-73.735077,13.0,23.0,560.0,4230589.0,4107560001.0,Queens Village                                                             
206,P.S. 42 - QUEENS,Q,27,SANDY:INT/HEATING/FLOOD/CLIMATE/PIPING/HVAC/ELEC,15125767.0,CIP,Q042,488 BEACH 66 STREET,Queens,11692.0,QUEENS   ,"(40.594538, -73.795304)",40.594538,-73.795304,14.0,31.0,964.0,4302817.0,4160390014.0,Hammels-Arverne-Edgemere                                                   
208,P.S. 43 - QUEENS,Q,27,SANDY-INTERIOR/HEATING/FLOOD/SHINGLE ROOF/CLIMATE,15000000.0,CIP,Q043,160 BEACH 29TH STREET,Queens,11691.0,QUEENS   ,"(40.593834, -73.76174)",40.593834,-73.76174,14.0,31.0,99802.0,4467711.0,4158200001.0,Far Rockaway-Bayswater                                                     
213,P.S. 63 - QUEENS,Q,27,WATER PENETRATION/EXT MASONRY/PARAPETS/ROOFS,4368000.0,CIP,Q063,90-15 SUTTER AVENUE,Queens,11417.0,QUEENS   ,"(40.67641, -73.846773)",40.67641,-73.846773,10.0,32.0,54.0,4190727.0,4091550025.0,Ozone Park                                                                 
215,J.H.S. 72 - QUEENS,Q,28,FY13 RESO A PLAYGROUND REDEVELOPMENT,2277000.0,CIP,Q072,133-25 GUY R BREWER BOULEVARD,Queens,11434.0,QUEENS   ,"(40.673769, -73.775951)",40.673769,-73.775951,12.0,28.0,33402.0,4270059.0,4124950270.0,Springfield Gardens North                                                  
218,Q075 SPED - QUEENS,Q,24,PLANYC BOILER CNVRSN/PLANYC CLIMATE CTRL,4596000.0,CIP,Q075,16-66 HANCOCK STREET,Queens,11385.0,QUEENS   ,"(40.698476, -73.905556)",40.698476,-73.905556,5.0,34.0,553.0,4085584.0,4035490044.0,Ridgewood                                                                  
220,P.S. 85 - QUEENS,Q,30,RPZ VALVES/LOW VOLTAGE/ELECTRICAL UPG,1658786.0,CIP,Q085,23-70 31 STREET,Queens,11105.0,QUEENS   ,"(40.772863, -73.914708)",40.772863,-73.914708,1.0,22.0,115.0,4017485.0,4008420031.0,Steinway                                                                   
223,P.S. 102 - QUEENS,Q,24,ADA UPGRADE,2777000.0,CIP,Q102,55-24 VAN HORN STREET,Queens,11373.0,QUEENS   ,"(40.733514, -73.877857)",40.733514,-73.877857,4.0,25.0,479.0,4437597.0,4028790031.0,Elmhurst-Maspeth                                                           
224,P.S. 105 - QUEENS,Q,27,SANDY:HEATING/ELEC/FLOOD/AUD/PIPING/HVAC/INT/PAVED,21198000.0,CIP,Q105,420 BEACH 51 STREET,Queens,11691.0,QUEENS   ,"(40.595779, -73.781876)",40.595779,-73.781876,14.0,31.0,97203.0,4302397.0,4159740003.0,Hammels-Arverne-Edgemere                                                   
225,P.S. 114 - QUEENS,Q,27,SANDY:INT/HEATING/ELEC/FLOOD/CLIM/PLAYGRND/PIPING,14780000.0,CIP,Q114,134-01 CRONSTON AVE,Queens,11694.0,QUEENS   ,"(40.578261, -73.854403)",40.578261,-73.854403,14.0,32.0,928.0,4305615.0,4162570001.0,Breezy Point-Belle Harbor-Rockaway Park-Broad Channel                      
226,P.S. 115 - QUEENS,Q,26,PLANYC BOILER CNVRSN/PLANYC CLIMATE CTRL,5544000.0,CIP,Q115,80-51 261 STREET,Queens,11004.0,QUEENS   ,"(40.744099, -73.709845)",40.744099,-73.709845,13.0,23.0,157902.0,4178127.0,4087170001.0,Glen Oaks-Floral Park-New Hyde Park                                        
227,P.S. 116 - QUEENS,Q,29,EXT MASONRY/ROOFS/CONCRETE ROOF DECK/PARAPETS,8800000.0,CIP,Q116,107-25 WREN PLACE,Queens,11433.0,QUEENS   ,"(40.700606, -73.782302)",40.700606,-73.782302,12.0,27.0,414.0,4218416.0,4102500001.0,South Jamaica                                                              
229,P.S. 123 - QUEENS,Q,27,TCU REMOVAL & PLAYGROUND REDEVELOPMENT,1082000.0,CIP,Q123,145-01 119 AVENUE,Queens,11436.0,QUEENS   ,"(40.678296, -73.79562)",40.678296,-73.79562,12.0,28.0,18402.0,4260828.0,4120190010.0,Baisley Park                                                               
231,P.S. 139 - QUEENS,Q,28,WATER PENETRATION/ROOFS,1456000.0,CIP,Q139,93-06 63 DRIVE,Queens,11374.0,QUEENS   ,"(40.72814, -73.863582)",40.72814,-73.863582,6.0,29.0,693.0,4072457.0,4030950050.0,Rego Park                                                                  
233,I.S. 145 - QUEENS,Q,30,PLANYC BOILER CNVRSN/PLANYC CLIMATE CTRL,8497000.0,CIP,Q145,33-34 80 STREET,Queens,11372.0,QUEENS   ,"(40.754661, -73.887112)",40.754661,-73.887112,3.0,25.0,285.0,4442764.0,4012520001.0,Jackson Heights                                                            
234,P.S. 151 - QUEENS,Q,30,WATER INFILTRATION/ROOFS/PARAPETS/EXT MASONRY,5182000.0,CIP,Q151,50-05 31 AVENUE,Queens,11377.0,QUEENS   ,"(40.757499, -73.908898)",40.757499,-73.908898,1.0,22.0,163.0,4014094.0,4007520001.0,Astoria                                                                    
236,P.S. 160 - QUEENS,Q,28,CHIMNEY/ROOFS/PARAPETS/FLOOD,9370000.0,CIP,Q160,109-59 INWOOD STREET,Queens,11435.0,QUEENS   ,"(40.688103, -73.800415)",40.688103,-73.800415,12.0,28.0,196.0,4258143.0,4119420302.0,South Jamaica                                                              
237,P.S. 162 - QUEENS,Q,26,PARAPET/FLOOD ELIMINATION/EXT MASONRY/ROOFING,8630000.0,CIP,Q162,201-02 53 AVENUE,Queens,11364.0,QUEENS   ,"(40.749036, -73.777213)",40.749036,-73.777213,11.0,20.0,140901.0,4159363.0,4074100001.0,Bayside-Bayside Hills                                                      
240,Q177 SPED - QUEENS,Q,26,PLANYC BOILER CONVERSION/PLANYC CLIMATE CONTROL,7221000.0,CIP,Q177,56-37 188 STREET,Queens,11365.0,QUEENS   ,"(40.74391, -73.788133)",40.74391,-73.788133,11.0,20.0,1417.0,4128231.0,4056740002.0,Auburndale                                                                 
241,THE SCHOLARS ACADEMY - QUEENS,Q,27,SANDY:AC/FLOOD/ELEC/HEAT/INTER/NON-SANDY:CLIM CTRL,13563283.0,CIP,Q180,320 BEACH 104 STREET,Queens,11694.0,QUEENS   ,"(40.584109, -73.825711)",40.584109,-73.825711,14.0,32.0,938.0,4303722.0,4161590012.0,Breezy Point-Belle Harbor-Rockaway Park-Broad Channel                      
242,P.S. 181 - QUEENS,Q,29,FLOORS & WALLS/ROOFS/PARAPETS/EXT MASONRY/FLOOD,4848000.0,CIP,Q181,148-15 230 STREET,Queens,11413.0,QUEENS   ,"(40.656126, -73.753207)",40.656126,-73.753207,13.0,31.0,694.0,4291453.0,4137180001.0,Springfield Gardens South-Brookville                                       
243,P.S. 184 - QUEENS,Q,25,PLANYC BOILER CNVRSN/PLANYC CLIMATE CTRL,5631800.0,CIP,Q184,163-15 21 ROAD,Queens,11357.0,QUEENS   ,"(40.778095, -73.800163)",40.778095,-73.800163,7.0,19.0,1017.0,4129072.0,4057560001.0,Ft. Totten-Bay Terrace-Clearview                                           
249,J.H.S. 194 - QUEENS,Q,25,PLANYC BOILER CNVRSN/PLANYC CLIMATE CTRL,6795000.0,CIP,Q194,154-60 17 AVENUE,Queens,11357.0,QUEENS   ,"(40.78365, -73.807838)",40.78365,-73.807838,7.0,19.0,1029.0,4107342.0,4047290001.0,Whitestone                                                                 
251,P.S. 333 - QUEENS,Q,27,NEW A/C CHILLERS,1278870.32,CIP,Q198,3-65 BEACH 56 STREET,Queens,11692.0,QUEENS   ,"(40.593967, -73.786182)",40.593967,-73.786182,14.0,31.0,97204.0,4301929.0,4158940011.0,Hammels-Arverne-Edgemere                                                   
252,P.S. 333 - QUEENS,Q,27,REINFORCING/HEATING PLT/ELEC/FLOOD ELIM/CLIMATE CO,12990000.0,CIP,Q198,3-65 BEACH 56 STREET,Queens,11692.0,QUEENS   ,"(40.593967, -73.786182)",40.593967,-73.786182,14.0,31.0,97204.0,4301929.0,4158940011.0,Hammels-Arverne-Edgemere                                                   
254,P.S. 214 - QUEENS,Q,25,PARAPETS/FLOOD/EXT MASONRY/ROOFS,6786000.0,CIP,Q214,31-15 140 STREET,Queens,11354.0,QUEENS   ,"(40.770387, -73.828617)",40.770387,-73.828617,7.0,20.0,88901.0,4100846.0,4044130020.0,Flushing                                                                   
255,P.S. 215 - QUEENS,Q,27,FIRE ALARM,1213000.0,CIP,Q215,535 BRIAR PLACE,Queens,11691.0,QUEENS   ,"(40.5993, -73.758206)",40.5993,-73.758206,14.0,31.0,99801.0,4301194.0,4157720031.0,Far Rockaway-Bayswater                                                     
257,P.S. 223 - QUEENS,Q,27,WINDOWS/EXT MASONRY/PARAPETS,4565000.0,CIP,Q223,125-20 SUTPHIN BLVD,Queens,11434.0,QUEENS   ,"(40.674519, -73.789399)",40.674519,-73.789399,12.0,28.0,18401.0,4261713.0,4120510001.0,Baisley Park                                                               
258,P.S. 317 - QUEENS,Q,27,SANDY: HEAT/FLOOD/ELEC/INTERIOR/NON-SANDY: CLIMATE,6339000.0,CIP,Q225,1-90 BEACH 110 STREET,Queens,11694.0,QUEENS   ,"(40.580928, -73.831836)",40.580928,-73.831836,14.0,32.0,938.0,4303853.0,4161810001.0,Breezy Point-Belle Harbor-Rockaway Park-Broad Channel                      
259,I.S. 226 - QUEENS,Q,27,PUBLIC ADDRESS SYSTEM,1054000.0,CIP,Q226,121-10 ROCKAWAY BOULEVARD,Queens,11420.0,QUEENS   ,"(40.675771, -73.816938)",40.675771,-73.816938,10.0,28.0,840.0,4253607.0,4117140100.0,South Ozone Park                                                           
260,I.S. 226 - QUEENS,Q,27,TCU REMOVAL AND PLAYGROUND REDEVELOPMENT,3960000.0,CIP,Q226,121-10 ROCKAWAY BOULEVARD,Queens,11420.0,QUEENS   ,"(40.675771, -73.816938)",40.675771,-73.816938,10.0,28.0,840.0,4253607.0,4117140100.0,South Ozone Park                                                           
262,P.S. / I.S. 270 - QUEENS,Q,29,DEFECTIVE PARAPETS/EXT MASONRY/ROOFS,5347000.0,CIP,Q270,233-15 MERRICK BLVD,Queens,11422.0,QUEENS   ,"(40.674831, -73.736713)",40.674831,-73.736713,13.0,31.0,618.0,4529511.0,4129730001.0,Laurelton                                                                  
263,AUGUST MARTIN HS - QUEENS,Q,27,RENEWAL SCHOOL BASED HEALTH CENTER,1682000.0,CIP,Q400,156-10 BAISLEY BLVD,Queens,11434.0,QUEENS   ,"(40.675633, -73.783342)",40.675633,-73.783342,12.0,28.0,294.0,4265978.0,4122610001.0,Springfield Gardens North                                                  
265,BEACH CHANNEL HS - QUEENS,Q,27,SANDY FIRE ALARM/SANDY PA SYSTEM,8947000.0,CIP,Q410,100-00 BEACH CHANNEL DRIVE,Queens,11694.0,QUEENS   ,"(40.586066, -73.822624)",40.586066,-73.822624,14.0,32.0,94201.0,4303773.0,4161670099.0,Breezy Point-Belle Harbor-Rockaway Park-Broad Channel                      
266,BEACH CHANNEL HS - QUEENS,Q,27,SANDY:HEATING/ELEC/FLOOD/CLIMATE/PIPING/INT/GENERA,22190800.0,CIP,Q410,100-00 BEACH CHANNEL DRIVE,Queens,11694.0,QUEENS   ,"(40.586066, -73.822624)",40.586066,-73.822624,14.0,32.0,94201.0,4303773.0,4161670099.0,Breezy Point-Belle Harbor-Rockaway Park-Broad Channel                      
267,BEACH CHANNEL HS - QUEENS,Q,27,SANDY REPAIRS-ATHLETIC FIELD,2997608.56,CIP,Q411,100-00 BEACH CHANNEL DRIVE,Queens,11694.0,QUEENS   ,"(40.586066, -73.822624)",40.586066,-73.822624,14.0,32.0,94201.0,4303773.0,4161670099.0,Breezy Point-Belle Harbor-Rockaway Park-Broad Channel                      
268,BENJAMIN N. CARDOZO HS - QUEEN,Q,26,ATHLETIC FIELDS/TCU REMOVAL & PLAYGROUND REDEVELOP,7897628.0,CIP,Q415,57-00 223 STREET,Queens,11364.0,QUEENS   ,"(40.752333, -73.75599)",40.752333,-73.75599,11.0,23.0,138501.0,4161735.0,4075290001.0,Oakland Gardens                                                            
270,EXCELSIOR PREP HIGH SCHOOL - Q,Q,29,EXT MASONRY/ROOFS/PAVED AREA-CONCRETE,6980000.0,CIP,Q420,143-10 SPRINGFIELD BLVD,Queens,11413.0,QUEENS   ,"(40.668235, -73.756839)",40.668235,-73.756839,12.0,31.0,330.0,4280845.0,4130570056.0,Springfield Gardens North                                                  
271,PREPARATORY ACADEMY FOR WRITER,Q,29,REPAVING PARKING LOT,8743648.0,CIP,Q421,143-10 SPRINGFIELD BLVD,Queens,11413.0,QUEENS   ,"(40.668235, -73.756839)",40.668235,-73.756839,12.0,31.0,330.0,4280845.0,4130570056.0,Springfield Gardens North                                                  
272,FRANCIS LEWIS HS - QUEENS,Q,26,WATER PENETRATION,1469000.0,CIP,Q430,58-20 UTOPIA PKWY,Queens,11365.0,QUEENS   ,"(40.740724, -73.79283)",40.740724,-73.79283,11.0,20.0,1417.0,4148763.0,4068820001.0,Auburndale                                                                 
273,FOREST HILLS H.S.,Q,28,CONCRETE PAVED AREAS,3463000.0,CIP,Q440,67-01 110 STREET,Queens,11375.0,QUEENS   ,"(40.729402, -73.845637)",40.729402,-73.845637,6.0,29.0,747.0,4052143.0,4021890002.0,Forest Hills                                                               
274,FOREST HILLS HS - QUEENS,Q,28,CONCRETE RETAINING WALL,6484000.0,CIP,Q441,67-01 110 STREET,Queens,11375.0,QUEENS   ,"(40.729402, -73.845637)",40.729402,-73.845637,6.0,29.0,747.0,4052143.0,4021890002.0,Forest Hills                                                               
275,WILLIAM C. BRYANT HS - QUEENS,Q,30,TCU REMOVAL & PLAYGROUND REDEVELOPMENT,2499000.0,CIP,Q445,48-10 31 AVENUE,Queens,11103.0,QUEENS   ,"(40.75823, -73.910514)",40.75823,-73.910514,1.0,26.0,163.0,4013655.0,4007380002.0,Astoria                                                                    
276,LONG ISLAND CITY HS - Q,Q,30,FIRE ALARM SYSTEM/BUILDING MGMT SYSTEM,18432800.0,CIP,Q452,14-30 BROADWAY,Queens,11106.0,QUEENS   ,"(40.765826, -73.9328)",40.765826,-73.9328,1.0,22.0,45.0,4467709.0,4005290002.0,Astoria                                                                    
278,AVIATION HS - QUEENS,Q,24,FUEL FIRE/ROOFS/PARAPETS/MASONRY/FLOOD/GYM UPG/WIN,17941252.0,CIP,Q610,45-30 36 STREET,Queens,11101.0,QUEENS   ,"(40.743509, -73.929076)",40.743509,-73.929076,2.0,26.0,179.0,4436685.0,4002260001.0,Hunters Point-Sunnyside-West Maspeth                                       
282,P.S. 106 - QUEENS,Q,27,DEMOLITION & PAVED AREA/TCU REMOVAL PLAYGROUND RED,2482000.0,CIP,Q806,180 BEACH 35 STREET,Queens,11691.0,QUEENS   ,"(40.593779, -73.767199)",40.593779,-73.767199,14.0,31.0,992.0,4441244.0,4158610035.0,Hammels-Arverne-Edgemere                                                   
285,P.S. 43 - QUEENS,Q,27,SANDY INTERIOR SPACES/SANDY FLOOD ELIMINATION,3290000.0,CIP,Q907,12 MARVIN STREET,Queens,11691.0,QUEENS   ,"(40.59359, -73.760448)",40.59359,-73.760448,14.0,31.0,99802.0,4531136.0,4158190148.0,Far Rockaway-Bayswater                                                     
286,P.S. 1 - STATEN ISLAND,R,31,EXTERIOR MASONRY/PARAPETS/ROOFS/WINDOWS,11891000.0,CIP,R001,58 SUMMIT STREET,Staten Island,10307.0,STATEN IS,"(40.509037, -74.244118)",40.509037,-74.244118,3.0,51.0,24401.0,5107854.0,5078980001.0,Charleston-Richmond Valley-Tottenville                                     
289,P.S. 19 - STATEN ISLAND,R,31,PARAPETS/FLOOD/AREAWAY WINDOWS/EXT MASONRY,4814365.81,CIP,R019,780 POST AVENUE,Staten Island,10310.0,STATEN IS,"(40.631214, -74.127101)",40.631214,-74.127101,1.0,49.0,141.0,5006175.0,5002270024.0,West New Brighton-New Brighton-St. George                                  
290,P.S. 29 - STATEN ISLAND,R,31,EXTERIOR MASONRY/ROOFS/PARAPETS,3790030.0,CIP,R029,1581 VICTORY BLVD,Staten Island,10314.0,STATEN IS,"(40.613604, -74.115988)",40.613604,-74.115988,1.0,50.0,147.0,5009028.0,5003310001.0,Westerleigh                                                                
292,I.S. 34 - STATEN ISLAND,R,31,FULL PROGRAM ACCESSIBILITY/FIRE ALARM SYSTEM,11177000.0,CIP,R034,528 ACADEMY AVE,Staten Island,10307.0,STATEN IS,"(40.508284, -74.243428)",40.508284,-74.243428,3.0,51.0,24401.0,5088090.0,5078940001.0,Charleston-Richmond Valley-Tottenville                                     
293,P.S. 35 - STATEN ISLAND,R,31,FY14 RESO A ATHLETIC FIELDS,1280000.0,CIP,R035,60 FOOTE AVENUE,Staten Island,10301.0,STATEN IS,"(40.613721, -74.099626)",40.613721,-74.099626,1.0,49.0,47.0,5015603.0,5006100127.0,Grymes Hill-Clifton-Fox Hills                                              
294,P.S. 35 - STATEN ISLAND,R,31,HEATING PLANT/CLIMATE CONTROL,3738000.0,CIP,R035,60 FOOTE AVENUE,Staten Island,10301.0,STATEN IS,"(40.613721, -74.099626)",40.613721,-74.099626,1.0,49.0,47.0,5015603.0,5006100127.0,Grymes Hill-Clifton-Fox Hills                                              
295,P.S. 41 - STATEN ISLAND,R,31,MAIN ELECTRICAL SERVICE/LOW VOLTAGE ELEC SYSTEM,1649000.0,CIP,R041,216 CLAWSON STREET,Staten Island,10306.0,STATEN IS,"(40.574044, -74.109282)",40.574044,-74.109282,2.0,50.0,122.0,5052791.0,5036450007.0,New Dorp-Midland Beach                                                     
296,CSI HS FOR INTERNATIONAL STUDI,R,31,PLAYGROUND REDEVELOPMENT,2923000.0,CIP,R043,100 ESSEX DRIVE,Staten Island,10314.0,STATEN IS,"(40.581315, -74.158589)",40.581315,-74.158589,2.0,51.0,27702.0,5149609.0,5024500320.0,Todt Hill-Emerson Hill-Heartland Village-Lighthouse Hill                   
297,P.S. 44 - STATEN ISLAND,R,31,EXTERIOR MASONRY/PARAPETS/ROOFS/WINDOWS,9777000.0,CIP,R044,80 MAPLE PARKWAY,Staten Island,10303.0,STATEN IS,"(40.63179, -74.156439)",40.63179,-74.156439,1.0,49.0,231.0,5027641.0,5012180001.0,Mariner's Harbor-Arlington-Port Ivory-Graniteville                         
298,P.S. 44 - STATEN ISLAND,R,31,REPAIR-CERTIFICATE OF OCCUPANCY,1270000.0,CIP,R044,80 MAPLE PARKWAY,Staten Island,10303.0,STATEN IS,"(40.63179, -74.156439)",40.63179,-74.156439,1.0,49.0,231.0,5027641.0,5012180001.0,Mariner's Harbor-Arlington-Port Ivory-Graniteville                         
299,P.S. 45 - STATEN ISLAND,R,31,ROOFS/PARAPETS /EXTERIOR MASONRY/FLOOD ELIMINATION,11349891.0,CIP,R045,58 LAWRENCE AVENUE,Staten Island,10310.0,STATEN IS,"(40.628558, -74.107148)",40.628558,-74.107148,1.0,49.0,121.0,5007417.0,5002760007.0,New Brighton-Silver Lake                                                   
302,P.S. 52 - STATEN ISLAND,R,31,REPAIR-C OF O/SANDY-FLOOD/SAFETY/HEAT/VENT/INT/ELE,16941000.0,CIP,R052,450 BUEL AVENUE,Staten Island,10305.0,STATEN IS,"(40.582744, -74.088509)",40.582744,-74.088509,2.0,50.0,11201.0,5053746.0,5037050001.0,Old Town-Dongan Hills-South Beach                                          
305,CURTIS HS - STATEN ISLAND,R,31,BRIDGE & REPAIR WK/PARAPETS/WASTE SYS/WINDOWS/ROOF,12443000.0,CIP,R450,105 HAMILTON AVENUE,Staten Island,10301.0,STATEN IS,"(40.644735, -74.081222)",40.644735,-74.081222,1.0,49.0,7.0,5106483.0,5000220001.0,West New Brighton-New Brighton-St. George                                  
306,TOTTENVILLE HS - STATEN ISLAND,R,31,FY 16 RESO A WIRING UPGRADE,1335000.0,CIP,R455,100 LUTEN AVENUE,Staten Island,10312.0,STATEN IS,"(40.528092, -74.192032)",40.528092,-74.192032,3.0,51.0,198.0,5082634.0,5066130001.0,Annadale-Huguenot-Prince's Bay-Eltingville                                 
309,P.S. 80 - STATEN ISLAND,R,31,PAVED AREAS,2856387.3,CIP,R885,715 OCEAN TERRACE,Staten Island,10301.0,STATEN IS,"(40.608517, -74.102078)",40.608517,-74.102078,2.0,50.0,177.0,5113169.0,5006830001.0,Todt Hill-Emerson Hill-Heartland Village-Lighthouse Hill                   
310,P.S. 9 - BRONX,X,10,PLANYC BOILER CNVSN/PLANYC CLIMATE CTRL,6542000.0,CIP,X009,230 EAST 183 STREET,Bronx,10458.0,BRONX    ,"(40.857067, -73.898936)",40.857067,-73.898936,5.0,15.0,38301.0,2013561.0,2031500010.0,Fordham South                                                              
311,P.S. 25 - BRONX,X,7,EXTERIOR MASONRY/PARAPETS/ROOFS/WINDOWS,11840000.0,CIP,X025,811 EAST 149 STREET,Bronx,10455.0,BRONX    ,"(40.812619, -73.906063)",40.812619,-73.906063,1.0,8.0,79.0,2004772.0,2026640001.0,Melrose South-Mott Haven North                                             
312,P.S. 396 - BRONX,X,10,PLANYC BOILER CNVSN/PLANYC CLIMATE CTRL,5386000.0,CIP,X026,1930 ANDREWS AVENUE,Bronx,10453.0,BRONX    ,"(40.854701, -73.913197)",40.854701,-73.913197,5.0,14.0,24502.0,2014692.0,2032160002.0,University Heights-Morris Heights                                          
313,P.S. 32 - BRONX,X,10,EXTERIOR MASONRY/WINDOWS/PARAPETS,6239400.0,CIP,X032,690 EAST 183 STREET,Bronx,10458.0,BRONX    ,"(40.852103, -73.885935)",40.852103,-73.885935,6.0,15.0,391.0,2012409.0,2030850001.0,Belmont                                                                    
314,P.S. 33 - BRONX,X,10,PLANYC BOILER CNVSN/PLANYC CLIMATE CTRL,4829000.0,CIP,X033,2424 JEROME AVENUE,Bronx,10468.0,BRONX    ,"(40.86185, -73.90176)",40.86185,-73.90176,5.0,14.0,239.0,2014099.0,2031880020.0,Fordham South                                                              
315,P.S. 36 - BRONX,X,8,EXT MASONRY/ROOFS/PARAPETS/WINDOWS/EXT DOORS/FLOOD,12843000.0,CIP,X036,1070 CASTLE HILL AVENUE,Bronx,10472.0,BRONX    ,"(40.829344, -73.850428)",40.829344,-73.850428,9.0,18.0,78.0,2026706.0,2038170001.0,Westchester-Unionport                                                      
316,P.S. 212 - BRONX,X,12,RENEWAL SBHC,1915000.0,CIP,X198,1180 TINTON AVENUE,Bronx,10456.0,BRONX    ,"(40.828419, -73.900721)",40.828419,-73.900721,3.0,17.0,135.0,2004869.0,2026720001.0,Morrisania-Melrose                                                         
317,P.S. 47 - BRONX,X,12,ROOFS/PARAPETS/MASONRY/FLOOD,9142000.0,CIP,X047,1794 EAST 172 STREET,Bronx,10472.0,BRONX    ,"(40.832902, -73.866848)",40.832902,-73.866848,9.0,18.0,76.0,2025622.0,2037860016.0,West Farms-Bronx River                                                     
318,P.S. 48 - BRONX,X,8,FULL ACCESSIBILITY,9100000.0,CIP,X048,1290 SPOFFORD AVENUE,Bronx,10474.0,BRONX    ,"(40.814425, -73.886953)",40.814425,-73.886953,2.0,17.0,93.0,2006680.0,2027660001.0,Hunts Point                                                                
319,P.S. 66 - BRONX,X,12,RENEWAL SCHOOL BASED HEALTH CENTER,1794786.0,CIP,X066,1001 JENNINGS STREET,Bronx,10460.0,BRONX    ,"(40.831165, -73.887094)",40.831165,-73.887094,3.0,17.0,157.0,2010916.0,2030080001.0,Crotona Park East                                                          
320,P.S. 70 - BRONX,X,9,EXT MASONRY/ROOFS/PARAPETS,6431300.0,CIP,X070,1691 WEEKS AVENUE,Bronx,10457.0,BRONX    ,"(40.844253, -73.907616)",40.844253,-73.907616,4.0,15.0,22902.0,2007387.0,2027930028.0,Mount Hope                                                                 
322,I.S. 80 - BRONX,X,10,ACCESSIBILITY,2583000.0,CIP,X080,149 EAST MOSHOLU PKWY N,Bronx,10467.0,BRONX    ,"(40.876299, -73.881532)",40.876299,-73.881532,7.0,11.0,419.0,2018046.0,2033360035.0,Norwood                                                                    
323,P.S. 81 - BRONX,X,10,WINDOW/ROOFS/EXT MASONRY/FLOOD,3147559.0,CIP,X081,5550 RIVERDALE AVENUE,Bronx,10471.0,BRONX    ,"(40.903553, -73.905229)",40.903553,-73.905229,8.0,11.0,337.0,2084806.0,2058501550.0,North Riverdale-Fieldston-Riverdale                                        
324,I.S. 232 - BRONX,X,9,OIL VAULT & STAIRWAY/PIPING/TOILETS/FLOOD,8819000.0,CIP,X082,1700 MACOMBS ROAD,Bronx,10453.0,BRONX    ,"(40.849623, -73.91607)",40.849623,-73.91607,5.0,14.0,21502.0,2008460.0,2028660070.0,University Heights-Morris Heights                                          
325,I.S. 113 - BRONX,X,11,FUEL OIL TANK LEAKAGE/CLIMATE CTRL,5677330.0,CIP,X113,3710 BARNES AVENUE,Bronx,10467.0,BRONX    ,"(40.880873, -73.860904)",40.880873,-73.860904,12.0,12.0,390.0,2058396.0,2046750020.0,Williamsbridge-Olinville                                                   
326,I.S. 123 - BRONX,X,8,RENEWAL SCHOOL BASED HEALTH CENTER,1950000.0,CIP,X123,1025 MORRISON AVENUE,Bronx,10472.0,BRONX    ,"(40.825403, -73.873666)",40.825403,-73.873666,9.0,18.0,48.0,2087014.0,2037180001.0,Soundview-Bruckner                                                         
327,I.S. 125 - BRONX,X,8,LIGHTING REPLACEMENT (DCAS),1300019.0,CIP,X125,1111 PUGSLEY AVENUE,Bronx,10472.0,BRONX    ,"(40.829232, -73.856734)",40.829232,-73.856734,9.0,18.0,4001.0,2025717.0,2037900040.0,Soundview-Bruckner                                                         
328,I.S. 322 - BRONX,X,11,PERMANENT REPAIRS (CEILING TILES),2787000.0,CIP,X135,2441 WALLACE AVENUE,Bronx,10467.0,BRONX    ,"(40.862109, -73.864577)",40.862109,-73.864577,11.0,13.0,330.0,2051313.0,2044320001.0,Bronxdale                                                                  
329,X186 SPED - BRONX,X,12,PARAPET/FLOOD ELIM/EXT MASONRY/ROOFS,11642000.0,CIP,X136,750 JENNINGS STREET,Bronx,10459.0,BRONX    ,"(40.83182, -73.898075)",40.83182,-73.898075,3.0,16.0,151.0,2010344.0,2029690001.0,Morrisania-Melrose                                                         
330,I.S. 391 - BRONX,X,10,RENEWAL SBHC,2068500.0,CIP,X137,2225 WEBSTER AVENUE,Bronx,10457.0,BRONX    ,"(40.854493, -73.896717)",40.854493,-73.896717,5.0,15.0,379.0,2013307.0,2031430043.0,Mount Hope                                                                 
331,I.S. 244 - BRONX,X,10,ACCESS RAMP & WALL/FLOOD/ROOFS/PARAPETS,4745900.0,CIP,X143,120 WEST 231 STREET,Bronx,10463.0,BRONX    ,"(40.875911, -73.901099)",40.875911,-73.901099,8.0,14.0,273.0,2015547.0,2032530141.0,Van Cortlandt Village                                                      
332,I.S. 144 - BRONX,X,11,PLANYC BOILER CONVERSION/CLIMATE CONTROL,5423000.0,CIP,X144,2545 GUNTHER AVENUE,Bronx,10469.0,BRONX    ,"(40.863735, -73.83607)",40.863735,-73.83607,11.0,13.0,310.0,2053518.0,2044930001.0,Allerton-Pelham Gardens                                                    
334,I.S. 339 - BRONX,X,9,RENEWAL SCHOOL BASED HEALTH CENTER,1920000.0,CIP,X147,1600 WEBSTER AVENUE,Bronx,10457.0,BRONX    ,"(40.840878, -73.904754)",40.840878,-73.904754,3.0,16.0,167.0,2009400.0,2028970005.0,Claremont-Bathgate                                                         
335,BRONX EARLY COLLEGE ACADEMY,X,9,SCIENCE LAB UPGRADE,2889000.0,CIP,X166,250 EAST 164 STREET,Bronx,10456.0,BRONX    ,"(40.828696, -73.917668)",40.828696,-73.917668,4.0,16.0,18302.0,2002497.0,2024460043.0,East Concourse-Concourse Village                                           
336,P.S. 236 - BRONX,X,9,FALLING COPING STONES/EXT MASONRY,2589000.0,CIP,X173,1871 WALTON AVENUE,Bronx,10453.0,BRONX    ,"(40.848899, -73.909528)",40.848899,-73.909528,5.0,14.0,23301.0,2098479.0,2028510021.0,Mount Hope                                                                 
338,P.S. 230 - BRONX,X,9,SEWAGE LEAK/FIRE SYS SPRINKLER/CRACKED CONCRETE/FA,14230000.0,CIP,X229,275 HARLEM RIVER PARK BRIDGE,Bronx,10453.0,BRONX    ,"(40.852536, -73.921467)",40.852536,-73.921467,5.0,16.0,53.0,2009253.0,2028820130.0,University Heights-Morris Heights                                          
339,I.S. 254 - BRONX,X,10,FACADE/ROOFS,3600000.0,CIP,X254,2452 WASHINGTON AVENUE,Bronx,10458.0,BRONX    ,"(40.858815, -73.890232)",40.858815,-73.890232,6.0,15.0,387.0,2103863.0,2030580003.0,Belmont                                                                    
340,MORRIS H.S.,X,9,CERTIFICATE OF OCCUPANCY,5229000.0,CIP,X400,1110 BOSTON RD,Bronx,10456.0,BRONX    ,"(40.827642, -73.904473)",40.827642,-73.904473,3.0,16.0,135.0,2004526.0,2026340001.0,Morrisania-Melrose                                                         
341,HERBERT H. LEHMAN HS - X,X,11,SANDY ELEC/HEAT/FLOOD/CLIM/SINK HOLES/PLUMBING,29723000.0,CIP,X405,3000 EAST TREMONT AVENUE,Bronx,10461.0,BRONX    ,"(40.840702, -73.838545)",40.840702,-73.838545,10.0,13.0,194.0,2074045.0,2053680001.0,Schuylerville-Throgs Neck-Edgewater Park                                   
342,CHRISTOPHER COLUMBUS HS - X,X,11,PARAPETS/ROOFS/EXT MASONRY,5577000.0,CIP,X415,925 ASTOR AVENUE,Bronx,10469.0,BRONX    ,"(40.859665, -73.861006)",40.859665,-73.861006,11.0,13.0,324.0,2050179.0,2043580001.0,Bronxdale                                                                  
343,MONROE ACAD FOR VISUAL ARTS -,X,12,BOILER/CLIMATE CONTROL/WATER INFILTRATION,8511800.0,CIP,X420,1300 BOYNTON AVENUE,Bronx,10472.0,BRONX    ,"(40.831601, -73.878912)",40.831601,-73.878912,9.0,18.0,56.0,2027459.0,2038640001.0,West Farms-Bronx River                                                     
345,M.S./H.S. 342 - BRONX,X,10,BOILER FOR SWIMMING,2152000.0,CIP,X430,2780 RESERVOIR AVENUE,Bronx,10468.0,BRONX    ,"(40.870293, -73.898309)",40.870293,-73.898309,7.0,11.0,409.0,2015241.0,2032470070.0,Van Cortlandt Village                                                      
346,I.S. 243 - BRONX,X,10,ROOFS/PARAPETS/EXT MASONRY/WINDOWS,50553000.0,CIP,X435,500 EAST FORDHAM ROAD,Bronx,10458.0,BRONX    ,"(40.860043, -73.888267)",40.860043,-73.888267,6.0,15.0,387.0,2011810.0,2030590001.0,Belmont                                                                    
347,DEWITT CLINTON HS - X,X,10,EXTERIOR MASONRY/FLOOD ELIMINATION/PARAPETS/ROOF,27189000.0,CIP,X440,100 W MOSHOLU PKWY S,Bronx,10468.0,BRONX    ,"(40.882178, -73.88691)",40.882178,-73.88691,7.0,11.0,409.0,2095215.0,2032510201.0,Van Cortlandt Village                                                      
348,BRONX HS OF SCIENCE - X,X,10,ROOF REPLACEMENT/PARAPETS,8985000.0,CIP,X445,75 W 205 STREET,Bronx,10468.0,BRONX    ,"(40.87759, -73.89104)",40.87759,-73.89104,7.0,11.0,409.0,2094706.0,2032510201.0,Van Cortlandt Village                                                      
349,JOHN F. KENNEDY HS - BRONX,X,10,SCIENCE LAB UPGRADE,5547000.0,CIP,X475,99 TERRACE VIEW AVENUE,Bronx,10463.0,BRONX    ,"(40.877105, -73.912256)",40.877105,-73.912256,8.0,10.0,309.0,1064532.0,1022150080.0,Marble Hill-Inwood                                                         
350,MARBLE HILL INTERNATIONAL HS -,X,10,EXT MASONRY/SCIENCE LAB UPG/INTERIOR SPACES,10711000.0,CIP,X475,99 TERRACE VIEW AVENUE,Bronx,10463.0,BRONX    ,"(40.877105, -73.912256)",40.877105,-73.912256,8.0,10.0,309.0,1064532.0,1022150080.0,Marble Hill-Inwood                                                         
352,X721 SPED - BRONX,X,11,PLANYC BOILER CNVRSN/PLANYC CLIMATE CTRL,5390630.0,CIP,X722,2697 WESTCHESTER AVENUE,Bronx,10461.0,BRONX    ,"(40.842289, -73.838949)",40.842289,-73.838949,11.0,13.0,284.0,2045725.0,2041330200.0,Van Nest-Morris Park-Westchester Square                                    
353,P.S. 226 - BRONX,X,10,DEFECTIVE MASONRY/ROOFS/FLOOD ELIMINATION,2787000.0,CIP,X826,1950 SEDGWICK AVENUE,Bronx,10453.0,BRONX    ,"(40.856586, -73.916198)",40.856586,-73.916198,5.0,14.0,249.0,2096465.0,2032220100.0,University Heights-Morris Heights                                          
354,P.S. 226 - BRONX,X,10,FY08 RESO A GYM UPGRADE,4800000.0,CIP,X827,1910 SEDGWICK AVENUE,Bronx,10453.0,BRONX    ,"(40.855944, -73.916358)",40.855944,-73.916358,5.0,14.0,249.0,2096465.0,2032220100.0,University Heights-Morris Heights                                          
355,P.S. 246 - BRONX,X,10,ELEVATOR/EXT MASONRY/FLOOD/PARAPETS/ROOFS/WALL,11448000.0,CIP,X843,2641 GRAND CONCOURSE,Bronx,10468.0,BRONX    ,"(40.865593, -73.894758)",40.865593,-73.894758,7.0,14.0,401.0,2013830.0,2031680027.0,Bedford Park-Fordham North                                                 
356,P.S. 32 ADDITION - BROOKLYN,K,15,Addition,74426000.0,CAP,K032,317 HOYT STREET,Brooklyn,11231.0,BROOKLYN ,"(40.680445, -73.991949)",40.680445,-73.991949,6.0,39.0,75.0,3395587.0,3004370001.0,Carroll Gardens-Columbia Street-Red Hook                                   
357,P.S. 101 - BROOKLYN,K,21,Addition,65999000.0,CAP,K101,2360 BENSON AVENUE,Brooklyn,11214.0,BROOKLYN ,"(40.597863, -73.991693)",40.597863,-73.991693,11.0,47.0,302.0,3185973.0,3068750032.0,Bensonhurst East                                                           
358,EDUCATIONAL CAMPUS @ 500 19TH STREET - BROOKLYN,K,15,Lease,15400000.0,CAP,K280,500 19TH STREET,Brooklyn,11215.0,BROOKLYN ,"(40.656944, -73.983115)",40.656944,-73.983115,7.0,38.0,1502.0,3017307.0,3008890001.0,Windsor Terrace                                                            
360,P.S./I.S. 338 - BROOKLYN,K,22,New,67683691.0,CAP,K338,21 HINCKLEY PLACE,Brooklyn,11218.0,BROOKLYN ,"(40.644469, -73.971032)",40.644469,-73.971032,12.0,40.0,492.0,3124801.0,3053420006.0,Kensington-Ocean Parkway                                                   
362,PRE-K CENTER @ 369 93RD STREET - BROOKLYN,K,20,New,27637000.0,CAP,K613,369 93RD STREET,Brooklyn,11209.0,BROOKLYN ,"(40.618041, -74.031381)",40.618041,-74.031381,10.0,43.0,58.0,3155119.0,3061030042.0,Bay Ridge                                                                  
363,P.S./I.S. @ 3269 ATLANTIC AVENUE - BROOKLYN,K,19,New,14968000.0,CAP,K667,3269 ATLANTIC AVENEUE,Brooklyn,11218.0,,,,,,,,,,
365,P.S. 746 - BROOKLYN,K,20,New,92747000.0,CAP,K746,256 59TH STREET,Brooklyn,11220.0,BROOKLYN ,"(40.643337, -74.021011)",40.643337,-74.021011,7.0,38.0,22.0,3016235.0,3008610029.0,Sunset Park West                                                           
368,P.S. 884 - BROOKLYN,K,84,Lease,2162000.0,CAP,K884,15 SNYDER AVENUE,Brooklyn,11226.0,BROOKLYN ,"(40.648568, -73.957639)",40.648568,-73.957639,14.0,40.0,794.0,3117232.0,3051030101.0,Erasmus                                                                    
369,I.S. 323 - MANHATTAN,M,2,New,98820000.0,CAP,M323,75 MORTON STREET,Manhattan,10014.0,MANHATTAN,"(40.730999, -74.007191)",40.730999,-74.007191,2.0,3.0,69.0,1010407.0,1006030049.0,West Village                                                               
370,P.S. 342 (RIVERSIDE CENTER) - MANHATTAN,M,3,New,74425721.0,CAP,M342,300 WEST 61ST STREET,Manhattan,10023.0,MANHATTAN,"(40.772883, -73.989609)",40.772883,-73.989609,7.0,6.0,151.0,1088870.0,1011717510.0,Lincoln Square                                                             
372,ISHS @ M837,M,78,Lease,13694000.0,CAP,M837,227-243 WEST 61 STREET,Manhattan,10023.0,MANHATTAN,"(40.772007, -73.987479)",40.772007,-73.987479,7.0,6.0,151.0,1030328.0,1011540108.0,Lincoln Square                                                             
373,P.S. 303 - QUEENS,Q,28,Addition,65987000.0,CAP,Q003,108-55 69TH AVENUE,Queens,11375.0,QUEENS   ,"(40.725098, -73.845091)",40.725098,-73.845091,6.0,29.0,739.0,4052265.0,4022180021.0,Forest Hills                                                               
374,P.S. 303 - QUEENS,Q,28,Demo,5183000.0,CAP,Q003,108-55 69TH AVENUE,Queens,11375.0,QUEENS   ,"(40.725098, -73.845091)",40.725098,-73.845091,6.0,29.0,739.0,4052265.0,4022180021.0,Forest Hills                                                               
375,P.S. 11 - QUEENS,Q,30,Addition,91875000.0,CAP,Q011,54-25 SKILLMAN AVENUE,Queens,11377.0,QUEENS   ,"(40.745244, -73.90872)",40.745244,-73.90872,2.0,26.0,251.0,4552510.0,4012390001.0,Woodside                                                                   
376,P.S. 19 - QUEENS,Q,24,Addition,95491911.0,CAP,Q019,98-02 ROOSEVELT AVENUE,Queens,11368.0,QUEENS   ,"(40.749381, -73.867354)",40.749381,-73.867354,4.0,21.0,409.0,4437176.0,4016070001.0,North Corona                                                               
377,P.S. 24 ADDITION - QUEENS,Q,25,Addition,82451000.0,CAP,Q024,141-11 HOLLY AVENUE,Queens,11355.0,QUEENS   ,"(40.75146, -73.817849)",40.75146,-73.817849,7.0,20.0,1205.0,4117403.0,4052010021.0,East Flushing                                                              
378,P.S. 49 - QUEENS,Q,24,Addition,31534000.0,CAP,Q049,63-60 80TH STREET,Queens,11379.0,QUEENS   ,"(40.719867, -73.875093)",40.719867,-73.875093,5.0,30.0,663.0,4069253.0,4029900045.0,Middle Village                                                             
379,P.S. 50 - QUEENS,Q,28,Addition,55182000.0,CAP,Q050,143-26 101 AVENUE,Queens,11435.0,QUEENS   ,"(40.695238, -73.807364)",40.695238,-73.807364,12.0,28.0,206.0,4214461.0,4100240012.0,Jamaica                                                                    
380,P.S. 66 - QUEENS,Q,27,Addition,27737773.0,CAP,Q066,85-11 102 STREET,Queens,11418.0,QUEENS   ,"(40.697836, -73.846558)",40.697836,-73.846558,9.0,32.0,24.0,4191497.0,4091830001.0,Richmond Hill                                                              
381,I.S. 125 ADDITION - QUEENS,Q,24,Addition,83800000.0,CAP,Q125,46-02 47 AVENUE,Queens,11377.0,QUEENS   ,"(40.741131, -73.918945)",40.741131,-73.918945,2.0,26.0,235.0,4052874.0,4022840006.0,Hunters Point-Sunnyside-West Maspeth                                       
383,P.S. 143 - QUEENS,Q,24,Demo,2688000.0,CAP,Q143,34-74 113 STREET,Queens,11368.0,QUEENS   ,"(40.755451, -73.855192)",40.755451,-73.855192,3.0,21.0,381.0,4043827.0,4017560025.0,North Corona                                                               
384,P.S. 143 ADDITION - QUEENS,Q,24,Addition,87980000.0,CAP,Q143,34-74 113 STREET,Queens,11368.0,QUEENS   ,"(40.755451, -73.855192)",40.755451,-73.855192,3.0,21.0,381.0,4043827.0,4017560025.0,North Corona                                                               
385,P.S. 144 - QUEENS,Q,28,Addition,52373773.0,CAP,Q144,93-02 69 AVENUE,Queens,11375.0,QUEENS   ,"(40.714978, -73.853372)",40.714978,-73.853372,6.0,29.0,729.0,4076870.0,4032120001.0,Forest Hills                                                               
386,P.S. 163 - QUEENS,Q,25,Addition,43834000.0,CAP,Q163,159-01 59 AVENUE,Queens,11365.0,QUEENS   ,"(40.740565, -73.809131)",40.740565,-73.809131,7.0,20.0,1215.0,4146042.0,4067260070.0,Queensboro Hill                                                            
387,P.S. 176 - QUEENS,Q,29,Addition,50247000.0,CAP,Q176,120-45 235 STREET,Queens,11411.0,QUEENS   ,"(40.685492, -73.729982)",40.685492,-73.729982,13.0,27.0,614.0,4276382.0,4128200001.0,Cambria Heights                                                            
388,P.S. 128 ADDITION - QUEENS,Q,24,Addition,31821000.0,CAP,Q247,69-10 65TH DRIVE,Queens,11379.0,QUEENS   ,"(40.715344, -73.886215)",40.715344,-73.886215,5.0,30.0,659.0,4070445.0,4030270037.0,Middle Village                                                             
389,P.S. 92 - QUEENS,Q,30,Addition,42410002.0,CAP,Q292,99-01 34TH AVENUE,Queens,11368.0,QUEENS   ,"(40.755418, -73.869017)",40.755418,-73.869017,3.0,21.0,377.0,4042496.0,4017140018.0,North Corona                                                               
390,P.S. 298 - QUEENS,Q,24,New,76850000.0,CAP,Q298,50-51 98TH STREET,Queens,11368.0,QUEENS   ,"(40.742167, -73.864109)",40.742167,-73.864109,4.0,21.0,44302.0,4046832.0,4018910001.0,Corona                                                                     
391,P.S. 335 - QUEENS,Q,27,New,70885000.0,CAP,Q335,150-15 RALEIGH STREET,Queens,11418.0,QUEENS   ,"(40.668127, -73.837189)",40.668127,-73.837189,10.0,32.0,88.0,4000000.0,4115600001.0,Ozone Park                                                                 
392,IS/HS 336 - QUEENS,Q,78,Lease,19987000.0,CAP,Q336,124-06 14TH AVENUE,Queens,11356.0,QUEENS   ,"(40.785327, -73.843749)",40.785327,-73.843749,7.0,19.0,925.0,4098406.0,4040890045.0,College Point                                                              
393,P.S. 398 - QUEENS,Q,30,New,62139000.0,CAP,Q398,69-01 34TH AVENUE,Queens,11377.0,QUEENS   ,"(40.752493, -73.896922)",40.752493,-73.896922,3.0,25.0,291.0,4028492.0,4012420032.0,Jackson Heights                                                            
394,I.S. 419 - QUEENS,Q,24,Demo,6224000.0,CAP,Q419,111-10 ASTORIA BOULEVARD,Queens,11369.0,QUEENS   ,"(40.7599, -73.859218)",40.7599,-73.859218,3.0,21.0,373.0,4000000.0,4017050005.0,East Elmhurst                                                              
395,P.S. 143 ANNEX - QUEENS,Q,24,Lease,5972300.0,CAP,Q908,98-07 38TH AVENUE,Queens,11368.0,QUEENS   ,"(40.750246, -73.867825)",40.750246,-73.867825,3.0,21.0,409.0,4043936.0,4017610035.0,North Corona                                                               
396,D75 REPLACEMENT @ 15 FAIRFIELD STREET - STATEN ISLAND,R,75,Demo,4767365.0,CAP,R089,15 FAIRFIELD STREET,Staten Is,10308.0,STATEN IS,"(40.56397, -74.150885)",40.56397,-74.150885,3.0,51.0,14605.0,5061911.0,5045860001.0,Great Kills                                                                
397,CURTIS HIGH SCHOOL ANNEX - STATEN ISLAND,R,78,Addition,69360558.0,CAP,R453,105B HAMILTON AVENUE,Staten Is,10301.0,STATEN IS,"(40.644735, -74.081222)",40.644735,-74.081222,1.0,49.0,7.0,,,West New Brighton-New Brighton-St. George                                  
398,SUSAN E. WAGNER HS ANNEX - STATEN ISLAND,R,78,Addition,24981900.0,CAP,R462,1220 MANOR ROAD,Staten Is,10314.0,STATEN IS,"(40.596624, -74.124334)",40.596624,-74.124334,2.0,50.0,181.0,5164530.0,5009550100.0,Todt Hill-Emerson Hill-Heartland Village-Lighthouse Hill                   
399,P.S. 14 ADDITION - BRONX,X,8,Addition,50850000.0,CAP,X014,3041 BRUCKNER BLVD,Bronx,10461.0,BRONX    ,"(40.835779, -73.825735)",40.835779,-73.825735,10.0,13.0,184.0,2072754.0,2053130092.0,Schuylerville-Throgs Neck-Edgewater Park                                   
400,P.S. 19 - BRONX,X,11,Addition,50877000.0,CAP,X019,4318 KATONAH AVENUE,Bronx,10470.0,BRONX    ,"(40.899295, -73.8675)",40.899295,-73.8675,12.0,11.0,45102.0,2019463.0,2033860001.0,Woodlawn-Wakefield                                                         
401,P.S. 46 ADDITION - BRONX,X,10,Addition,84478000.0,CAP,X046,279 EAST 196 STREET,Bronx,10458.0,BRONX    ,"(40.866827, -73.890725)",40.866827,-73.890725,7.0,15.0,40501.0,2094729.0,2032950001.0,Bedford Park-Fordham North                                                 
402,P.S. 56 - BRONX,X,10,Addition,49723000.0,CAP,X056,341 EAST 207 STREET,Bronx,10467.0,BRONX    ,"(40.875156, -73.875217)",40.875156,-73.875217,7.0,11.0,42902.0,2018457.0,2033510001.0,Norwood                                                                    
403,I.S. 14 - BROOKLYN,K,22,WATER PENETRATION/PLANYC BOILER/PLANYC CLIMATE,8219000.0,CIP,K014,2424 BATCHELDER STREET,Brooklyn,11235.0,BROOKLYN ,"(40.593521, -73.937672)",40.593521,-73.937672,15.0,48.0,596.0,3203617.0,3074240001.0,Sheepshead Bay-Gerritsen Beach-Manhattan Beach                             
404,P.S. 21 - BROOKLYN,K,16,LOW VOLTAGE ELECTRICAL SYSTEMS,1037000.0,CIP,K021,180 CHAUNCEY STREET,Brooklyn,11233.0,BROOKLYN ,"(40.680727, -73.926597)",40.680727,-73.926597,3.0,36.0,381.0,3047914.0,3016920017.0,Crown Heights North                                                        
405,P.S. 25 - BROOKLYN,K,16,ROOFS/PARAPETS/EXT MASONRY/EXT DOORS,6297397.0,CIP,K025,787 LAFAYETTE AVENUE,Brooklyn,11221.0,BROOKLYN ,"(40.691037, -73.941342)",40.691037,-73.941342,3.0,36.0,281.0,3049858.0,3017870014.0,Stuyvesant Heights                                                         
406,FREDERICK DOUGLASS ACADEMY IV,K,16,FULL PROGRAM ACCESSIBILITY/LOW VOLTAGE ELECTRICAL,6750000.0,CIP,K026,1014 LAFAYETTE AVENUE,Brooklyn,11221.0,BROOKLYN ,"(40.692126, -73.931731)",40.692126,-73.931731,3.0,36.0,291.0,3393805.0,3016160001.0,Stuyvesant Heights                                                         
407,P.S. 31 - BROOKLYN,K,14,EXTERIOR MASONRY/PARAPETS,3879237.0,CIP,K031,75 MESEROLE AVENUE,Brooklyn,11222.0,BROOKLYN ,"(40.726587, -73.95427)",40.726587,-73.95427,1.0,33.0,561.0,3065299.0,3025950001.0,Greenpoint                                                                 
408,P.S. 34 - BROOKLYN,K,14,PLANYC BOILER CNVRSN/PLANYC CLIMATE CTRL,4448000.0,CIP,K034,131 NORMAN AVENUE,Brooklyn,11222.0,BROOKLYN ,"(40.726135, -73.949649)",40.726135,-73.949649,1.0,33.0,573.0,3065733.0,3026220028.0,Greenpoint                                                                 
409,I.S. 35 - BROOKLYN,K,16,FULL PROGRAM ACCESSIBILITY,8275000.0,CIP,K035,272 MACDONOUGH STREET,Brooklyn,11233.0,BROOKLYN ,"(40.681896, -73.935963)",40.681896,-73.935963,3.0,36.0,273.0,3047054.0,3016740011.0,Stuyvesant Heights                                                         
411,P.S. 44 - BROOKLYN,K,13,PLANYC BOILER/PLANYC CLIMATE CTRL/FIRE ALARM,5862800.0,CIP,K044,432 MONROE STREET,Brooklyn,11221.0,BROOKLYN ,"(40.686592, -73.940747)",40.686592,-73.940747,3.0,36.0,277.0,3051540.0,3018210001.0,Stuyvesant Heights                                                         
412,P.S. 48 - BROOKLYN,K,20,FLOOD ELIMINATION/EXTERIOR MASONRY/WINDOWS,10800000.0,CIP,K048,6015 18 AVENUE,Brooklyn,11204.0,BROOKLYN ,"(40.621871, -73.987396)",40.621871,-73.987396,12.0,44.0,244.0,3132140.0,3055190001.0,Borough Park                                                               
416,K753 SPED - BROOKLYN,K,13,PLANYC BOILER CNVRSN/PLANYC CLIMATE CTRL,4827000.0,CIP,K085,510 CLERMONT AVENUE,Brooklyn,11238.0,BROOKLYN ,"(40.682533, -73.968769)",40.682533,-73.968769,2.0,35.0,179.0,3057521.0,3020080001.0,Fort Greene                                                                
417,I.S. 88 - BROOKLYN,K,15,PLANYC BOILER REPLACEMENT/PLANYC CLIMATE CONTROL,5896000.0,CIP,K088,544 7TH AVENUE,Brooklyn,11215.0,BROOKLYN ,"(40.660024, -73.987637)",40.660024,-73.987637,7.0,38.0,147.0,3331276.0,3008800001.0,Sunset Park West                                                           
418,P.S. 95 - BROOKLYN,K,21,PARAPET/ROOFS/EXT MASONRY,4743000.0,CIP,K095,345 VAN SICKLEN STREET,Brooklyn,11223.0,BROOKLYN ,"(40.595698, -73.97518)",40.595698,-73.97518,15.0,47.0,398.0,3192661.0,3071230066.0,Gravesend                                                                  
420,P.S. 102 - BROOKLYN,K,20,WATER INFILTRATION/ROOFS/EXT MASONRY,11467000.0,CIP,K102,211 72 STREET,Brooklyn,11209.0,BROOKLYN ,"(40.63402, -74.029036)",40.63402,-74.029036,10.0,43.0,68.0,3146491.0,3058900001.0,Bay Ridge                                                                  
421,P.S. 104 - BROOKLYN,K,20,WATER INFILTRATION/FLOOD/PARAPETS/ROOFS,10521000.0,CIP,K104,9115 5TH AVENUE,Brooklyn,11209.0,BROOKLYN ,"(40.618415, -74.028842)",40.618415,-74.028842,10.0,43.0,160.0,3154775.0,3060880001.0,Bay Ridge                                                                  
422,P.S. 105 - BROOKLYN,K,20,EXT MASONRY/FLOOD ELIMINATION/ROOFS,6510000.0,CIP,K105,1031 59 STREET,Brooklyn,11219.0,BROOKLYN ,"(40.632936, -74.00374)",40.632936,-74.00374,12.0,38.0,214.0,3140612.0,3057020001.0,Borough Park                                                               
423,I.S. 349 - BROOKLYN,K,32,SCIENCE LAB UPGRADES/SCIENCE LAB UPGRADES,2039000.0,CIP,K111,35 STARR STREET,Brooklyn,11221.0,BROOKLYN ,"(40.70069, -73.927481)",40.70069,-73.927481,4.0,34.0,423.0,3072497.0,3031850001.0,Bushwick South                                                             
424,P.S. 112 - BROOKLYN,K,20,TCU REMOVAL - PLAYGROUND REDEVELOPMENT,1578914.0,CIP,K112,7115 15 AVENUE,Brooklyn,11228.0,BROOKLYN ,"(40.61978, -74.000792)",40.61978,-74.000792,11.0,43.0,190.0,3157760.0,3061800001.0,Bensonhurst West                                                           
425,P.S. 114 - BROOKLYN,K,18,EXTERIOR MASONRY,2188000.0,CIP,K114,1077 REMSEN AVENUE,Brooklyn,11236.0,BROOKLYN ,"(40.642792, -73.908806)",40.642792,-73.908806,18.0,46.0,964.0,3229159.0,3081600022.0,Canarsie                                                                   
427,P.S. 119 - BROOKLYN,K,22,PLANYC BOILER CNVRSN/PLANYC CLIMATE CTRL,5447000.0,CIP,K119,3829 AVENUE K,Brooklyn,11210.0,BROOKLYN ,"(40.625662, -73.938265)",40.625662,-73.938265,18.0,45.0,734.0,3215816.0,3077860001.0,Flatlands                                                                  
428,P.S. 124 - BROOKLYN,K,15,FLOOD/ROOFS/PARAPETS/EXT MASONRY,3571475.0,CIP,K124,515 4TH AVENUE,Brooklyn,11215.0,BROOKLYN ,"(40.667545, -73.991046)",40.667545,-73.991046,6.0,39.0,141.0,3023391.0,3010340001.0,Park Slope-Gowanus                                                         
429,P.S. 130 - BROOKLYN,K,15,WATER PENETRATION THROUGH EXTERIOR/PARAPETS/ROOFS,12025000.0,CIP,K130,70 OCEAN PARKWAY,Brooklyn,11218.0,BROOKLYN ,"(40.648884, -73.975607)",40.648884,-73.975607,7.0,39.0,500.0,3124019.0,3053190001.0,Windsor Terrace                                                            
430,P.S. 131 - BROOKLYN,K,15,WATER PENETRATION/FLOOD/PARAPETS/ROOFS,12900000.0,CIP,K131,4305 FT HAMILTON PKWY,Brooklyn,11219.0,BROOKLYN ,"(40.641157, -73.993482)",40.641157,-73.993482,12.0,39.0,224.0,3136085.0,3056030001.0,Borough Park                                                               
433,P.S. 137 - BROOKLYN,K,23,EXTERIOR MASONRY/ROOFS,4274979.0,CIP,K137,121 SARATOGA AVENUE,Brooklyn,11233.0,BROOKLYN ,"(40.682458, -73.917088)",40.682458,-73.917088,16.0,41.0,373.0,3040878.0,3015100001.0,Ocean Hill                                                                 
434,P.S. 150 - BROOKLYN,K,23,EXTERIOR MASONRY DEFECTS/FLOOD ELIMINATION/PARAPET,4415000.0,CIP,K150,364 SACKMAN STREET,Brooklyn,11212.0,BROOKLYN ,"(40.66896, -73.904726)",40.66896,-73.904726,16.0,41.0,908.0,3084012.0,3037440009.0,Brownsville                                                                
437,P.S. 160 - BROOKLYN,K,20,EXTERIOR MASONRY/FLOOD ELMNTN/PARAPETS,5700400.0,CIP,K160,5105 FORT HAMILTON PARKWAY,Brooklyn,11219.0,BROOKLYN ,"(40.637322, -73.999215)",40.637322,-73.999215,12.0,44.0,220.0,3138276.0,3056530021.0,Borough Park                                                               
438,P.S. 161 - BROOKLYN,K,17,FLOOD ELIMINATION,2198000.0,CIP,K161,330 CROWN STREET,Brooklyn,11225.0,BROOKLYN ,"(40.666181, -73.949013)",40.666181,-73.949013,9.0,35.0,319.0,3034181.0,3012970026.0,Crown Heights South                                                        
439,P.S. 164 - BROOKLYN,K,20,EXT MASONRY/ROOFS/CLIMATE CTRL/PARAPETS,6597000.0,CIP,K164,4211 14TH AVENUE,Brooklyn,11219.0,BROOKLYN ,"(40.637486, -73.985955)",40.637486,-73.985955,12.0,44.0,232.0,3135976.0,3056000001.0,Borough Park                                                               
440,P.S. 167 - BROOKLYN,K,17,EXT MASONRY - WATER PENETRATION/PARAPETS/ROOFS,10104000.0,CIP,K167,1025 EASTERN PARKWAY,Brooklyn,11213.0,BROOKLYN ,"(40.669001, -73.934635)",40.669001,-73.934635,8.0,35.0,353.0,3037303.0,3013890035.0,Crown Heights North                                                        
441,P.S. 170 - BROOKLYN,K,20,CRACKED EXTERIOR MASONRY,2449037.0,CIP,K170,619 72ND STREET,Brooklyn,11209.0,BROOKLYN ,"(40.630031, -74.018878)",40.630031,-74.018878,10.0,43.0,134.0,3146921.0,3058990001.0,Bay Ridge                                                                  
442,I.S. 171 - BROOKLYN,K,19,WINDOWS/FLOOD ELMNTN/ROOFS/FIRE ALARM/HVAC VTLTN,13290000.0,CIP,K171,528 RIDGEWOOD AVENUE,Brooklyn,11208.0,BROOKLYN ,"(40.68618, -73.869625)",40.68618,-73.869625,5.0,37.0,1184.0,3092456.0,3041340020.0,Cypress Hills-City Line                                                    
443,K077 SPED - BROOKLYN,K,23,ROOFS/FLOOD/PARAPETS/EXT MASONRY/WINDOWS/LEAD SVC,6927000.0,CIP,K178,2163 DEAN STREET,Brooklyn,11233.0,BROOKLYN ,"(40.675024, -73.915778)",40.675024,-73.915778,16.0,41.0,303.0,3038718.0,3014400056.0,Ocean Hill                                                                 
444,P.S. 188 - BROOKLYN,K,21,SANDY:INT/HEATING/ELEC/FLOOD/CLIMATE/VENT/FA,13757000.0,CIP,K188,3314 NEPTUNE AVENUE,Brooklyn,11224.0,BROOKLYN ,"(40.577217, -74.000194)",40.577217,-74.000194,13.0,47.0,328.0,3188726.0,3070060001.0,Seagate-Coney Island                                                       
445,P.S. 191 - BROOKLYN,K,17,EXTERIOR MASONRY/PARAPETS/ROOFS,3497000.0,CIP,K191,1600 PARK PLACE,Brooklyn,11233.0,BROOKLYN ,"(40.672005, -73.924329)",40.672005,-73.924329,8.0,41.0,359.0,3036635.0,3013750012.0,Crown Heights North                                                        
446,P.S. 192 - BROOKLYN,K,20,DETERIORATED WINDOW WELL WALLS/FLOOD/PARAPETS/ROOF,5387000.0,CIP,K192,4715 18 AVENUE,Brooklyn,11204.0,BROOKLYN ,"(40.629303, -73.979995)",40.629303,-73.979995,12.0,44.0,476.0,3128909.0,3054450001.0,Borough Park                                                               
447,I.S. 201 - BROOKLYN,K,20,PARAPETS/EXT MASONRY/CONCRETE/FLOOD/ROOF,20782700.0,CIP,K201,8010 12 AVENUE,Brooklyn,11228.0,BROOKLYN ,"(40.618676, -74.012722)",40.618676,-74.012722,10.0,43.0,166.0,3162973.0,3062780022.0,Dyker Heights                                                              
448,P.S. 208 - BROOKLYN,K,18,CRACKED MASONRY/FLOOD/WINDOWS/ROOFS,2951643.0,CIP,K208,4801 AVENUE D,Brooklyn,11203.0,BROOKLYN ,"(40.642031, -73.931151)",40.642031,-73.931151,17.0,45.0,840.0,3105680.0,3047690025.0,East Flatbush-Farragut                                                     
451,P.S. 212 - BROOKLYN,K,21,EXT MASONRY - WATER PENETRATION/PARAPETS/ROOFS/WIN,12527000.0,CIP,K212,87 BAY 49 STREET,Brooklyn,11214.0,BROOKLYN ,"(40.587616, -73.985948)",40.587616,-73.985948,13.0,47.0,314.0,3187407.0,3069170001.0,Gravesend                                                                  
452,P.S. 214 - BROOKLYN,K,19,TCU REMOVAL AND PLAYGROUND REDEVELOPMENT,2931500.0,CIP,K214,2944 PITKIN AVENUE,Brooklyn,11208.0,BROOKLYN ,"(40.676513, -73.863151)",40.676513,-73.863151,5.0,37.0,1202.0,3095254.0,3042430001.0,Cypress Hills-City Line                                                    
453,P.S. 217 - BROOKLYN,K,22,EXT MASONRY/FLOOD/WINDOWS/PARAPETS,10807450.0,CIP,K217,1100 NEWKIRK AVENUE,Brooklyn,11230.0,BROOKLYN ,"(40.63398, -73.966558)",40.63398,-73.966558,14.0,40.0,526.0,3121072.0,3052320001.0,Flatbush                                                                   
454,I.S. 218 - BROOKLYN,K,19,WATER PENETRATION/EXT MASONRY,2606000.0,CIP,K218,370 FOUNTAIN AVENUE,Brooklyn,11208.0,BROOKLYN ,"(40.670724, -73.874208)",40.670724,-73.874208,5.0,42.0,1118.0,3095977.0,3042780001.0,East New York                                                              
455,P.S. 219 - BROOKLYN,K,18,WATER INFILTRATION/ROOFS/EXT MASONRY/PARAPETS,18388000.0,CIP,K219,1060 CLARKSON AVENUE,Brooklyn,11212.0,BROOKLYN ,"(40.659288, -73.922919)",40.659288,-73.922919,17.0,41.0,886.0,3101168.0,3046480001.0,Rugby-Remsen Village                                                       
456,URBN ASSY SCHL CRIM JUSTICE -,K,20,SCIENCE LAB UPGRADE,1218000.0,CIP,K223,4200 16 AVENUE,Brooklyn,11204.0,BROOKLYN ,"(40.634875, -73.981528)",40.634875,-73.981528,12.0,44.0,230.0,3125676.0,3053620021.0,Borough Park                                                               
457,P.S. 225 - BROOKLYN,K,21,FLOOD ELMNTN/ROOFS/EXTERIOR MASONRY/PARAPETS,8677000.0,CIP,K225,1075 OCEAN VIEW AVENUE,Brooklyn,11235.0,BROOKLYN ,"(40.579737, -73.956329)",40.579737,-73.956329,13.0,48.0,61004.0,3245498.0,3087120056.0,Brighton Beach                                                             
458,P.S. 233 - BROOKLYN,K,18,MASONRY/CORRODED BEAMS/ROOFS/PARAPETS,6285000.0,CIP,K233,9301 AVENUE B,Brooklyn,11236.0,BROOKLYN ,"(40.651022, -73.91402)",40.651022,-73.91402,17.0,42.0,930.0,3104990.0,3047530001.0,Rugby-Remsen Village                                                       
459,P.S. 235 - BROOKLYN,K,18,TCU REMOVAL AND PLAYGROUND,2000000.0,CIP,K235,525 LENOX ROAD,Brooklyn,11203.0,BROOKLYN ,"(40.654704, -73.941089)",40.654704,-73.941089,17.0,41.0,814.0,3107846.0,3048440001.0,East Flatbush-Farragut                                                     
461,P.S. 238 - BROOKLYN,K,21,EXTERIOR MASONRY/PARAPETS,6960000.0,CIP,K238,1633 EAST 8 STREET,Brooklyn,11223.0,BROOKLYN ,"(40.608862, -73.965058)",40.608862,-73.965058,15.0,44.0,420.0,3176229.0,3066400013.0,Homecrest                                                                  
462,P.S. 249 - BROOKLYN,K,17,LOW VOLT/PLANYC CLIMATE CTRL/PLANYC BOILER CONV,7867000.0,CIP,K249,18 MARLBOROUGH ROAD,Brooklyn,11226.0,BROOKLYN ,"(40.64971, -73.966046)",40.64971,-73.966046,14.0,40.0,506.0,3116438.0,3050750001.0,Flatbush                                                                   
463,MIDDLE SCHOOL FOR ART & PHILOS,K,18,PLANYC BOILER CONVERSION/CLIMATE CONTROL,7375000.0,CIP,K252,1084 LENOX ROAD,Brooklyn,11212.0,BROOKLYN ,"(40.658295, -73.920109)",40.658295,-73.920109,17.0,41.0,886.0,3101840.0,3046690037.0,Rugby-Remsen Village                                                       
466,I.S. 259 - BROOKLYN,K,20,CRACKED EXTERIOR MASONRY/ROOFS/PARAPETS,10786000.0,CIP,K259,7305 FT HAMILTON PKWY,Brooklyn,11228.0,BROOKLYN ,"(40.62668, -74.01512)",40.62668,-74.01512,10.0,43.0,206.0,3148031.0,3059230001.0,Dyker Heights                                                              
467,I.S. 259 - BROOKLYN,K,20,PLANYC BOILER CONVERSION/CLIMATE CTRL,6758000.0,CIP,K259,7305 FT HAMILTON PKWY,Brooklyn,11228.0,BROOKLYN ,"(40.62668, -74.01512)",40.62668,-74.01512,10.0,43.0,206.0,3148031.0,3059230001.0,Dyker Heights                                                              
468,I.S. 265 - BROOKLYN,K,13,PLANYC BOILER CNVRSN/PLANYC CLIMATE CTRL,5359400.0,CIP,K265,101 PARK AVENUE,Brooklyn,11205.0,BROOKLYN ,"(40.696324, -73.97578)",40.696324,-73.97578,2.0,35.0,211.0,3057942.0,3020280001.0,Fort Greene                                                                
469,P.S. 279 - BROOKLYN,K,18,SANDY:INTERIOR/HEAT/ELEC/FLOOD/ELEVATOR/HVAC/FA,21599000.0,CIP,K279,1070 EAST 104 STREET,Brooklyn,11236.0,BROOKLYN ,"(40.644203, -73.892264)",40.644203,-73.892264,18.0,46.0,986.0,3326733.0,3082300001.0,Canarsie                                                                   
470,P.S. 290 - BROOKLYN,K,19,ROOFS/WINDOWS/PARAPETS,2880000.0,CIP,K290,135 SCHENCK AVENUE,Brooklyn,11207.0,BROOKLYN ,"(40.67789, -73.889758)",40.67789,-73.889758,5.0,37.0,1198.0,3087821.0,3039490018.0,East New York                                                              
471,I.S. 291 - BROOKLYN,K,32,RENEWAL SBHC,2016400.0,CIP,K291,231 PALMETTO STREET,Brooklyn,11221.0,BROOKLYN ,"(40.695362, -73.915142)",40.695362,-73.915142,4.0,37.0,433.0,3076460.0,3033430001.0,Bushwick North                                                             
477,YOUNG SCHOLAR'S ACADEMY - BROO,K,16,STRUCTURAL DEFECTS/EXT MASONRY,3777000.0,CIP,K304,280 HART STREET,Brooklyn,11206.0,BROOKLYN ,"(40.694086, -73.940744)",40.694086,-73.940744,3.0,36.0,281.0,3049420.0,3017730014.0,Stuyvesant Heights                                                         
481,P.S. 503 - BROOKLYN,K,20,EXTERIOR MASONRY/PARAPETS/ROOFS,4970000.0,CIP,K314,330 59 STREET,Brooklyn,11220.0,BROOKLYN ,"(40.642121, -74.018997)",40.642121,-74.018997,7.0,38.0,74.0,3016258.0,3008620012.0,Sunset Park West                                                           
482,P.S. 375 - BROOKLYN,K,17,PLANYC BOILER CNVRSN/PLANYC CLIMATE CTRL,6238000.0,CIP,K320,46 MCKEEVER PLACE,Brooklyn,11225.0,BROOKLYN ,"(40.665035, -73.959031)",40.665035,-73.959031,9.0,35.0,325.0,3034356.0,3013010001.0,Crown Heights South                                                        
483,P.S. 321 - BROOKLYN,K,15,FULL PROGRAM ACCESSIBILITY/FIRE ALARM,5581000.0,CIP,K321,180 7TH AVENUE,Brooklyn,11215.0,BROOKLYN ,"(40.67146, -73.977783)",40.67146,-73.977783,6.0,39.0,155.0,3337516.0,3009710028.0,Park Slope-Gowanus                                                         
487,M.S. 354 - BROOKLYN,K,17,PLANYC BOILER CONVERSION/PLANYC CLIMATE CONTROL,6409024.0,CIP,K390,1224 PARK PLACE,Brooklyn,11213.0,BROOKLYN ,"(40.672713, -73.936924)",40.672713,-73.936924,8.0,36.0,343.0,3036405.0,3013700029.0,Crown Heights North                                                        
488,P.S. 109 - BROOKLYN,K,22,DEFECTIVE GYMNASIUM WALLS/ROOFS/PARAPETS,3783000.0,CIP,K395,1001 EAST 45 STREET,Brooklyn,11203.0,BROOKLYN ,"(40.636455, -73.933582)",40.636455,-73.933582,17.0,45.0,836.0,3114526.0,3050220002.0,East Flatbush-Farragut                                                     
490,MIDWOOD HS - BROOKLYN,K,21,CRACKED CONCRETE STRUCTURE/FIELD HOUSE,18211000.0,CIP,K406,1124 EAST 17 STREET,Brooklyn,11210.0,BROOKLYN ,"(40.622641, -73.958988)",40.622641,-73.958988,14.0,44.0,768.0,3000000.0,3067260087.0,Midwood                                                                    
491,ABRAHAM LINCOLN HS - BROOKLYN,K,21,SANDY: INTERIOR/VENT/ELEC/FLOOD/ATHLETIC FIELD,39842974.0,CIP,K411,2800 OCEAN PARKWAY,Brooklyn,11235.0,BROOKLYN ,"(40.581681, -73.967308)",40.581681,-73.967308,13.0,47.0,354.0,3196293.0,3072540001.0,West Brighton                                                              
493,JAMES MADISON HS - BROOKLYN,K,22,SWIMMING POOL,5779000.0,CIP,K425,3787 BEDFORD AVENUE,Brooklyn,11229.0,BROOKLYN ,"(40.609912, -73.948512)",40.609912,-73.948512,15.0,48.0,642.0,3182721.0,3067880001.0,Madison                                                                    
494,BROOKLYN TECH HS - K,K,13,LOW VOLT ELEC SYS/KITCHEN FIRE SUPRESSION SYS,4291000.0,CIP,K430,29 FT GREENE PLACE,Brooklyn,11217.0,BROOKLYN ,"(40.688834, -73.976905)",40.688834,-73.976905,2.0,35.0,33.0,3058752.0,3020980013.0,Fort Greene                                                                
495,PERFORMING ARTS AND TECH. HS -,K,19,FY14 RESO A GYMNASIUM UPGRADE,1032000.0,CIP,K435,400 PENNSYLVANIA AVENUE,Brooklyn,11207.0,BROOKLYN ,"(40.667456, -73.894747)",40.667456,-73.894747,5.0,42.0,1156.0,3084440.0,3037880001.0,East New York (Pennsylvania Ave)                                           
496,THE INTERNATIONAL HS - BROOKLY,K,17,MASONRY/WINDOWS/PARAPETS/ROOFS/FLOOD ELIMINAITON,20937000.0,CIP,K440,883 CLASSON AVENUE,Brooklyn,11225.0,BROOKLYN ,"(40.670349, -73.961695)",40.670349,-73.961695,9.0,35.0,213.0,3029686.0,3011870001.0,Crown Heights South                                                        
497,NEW UTRECHT HS - BROOKLYN,K,20,WATER PENETRATION INTO BASEMENT/NATATORIUM RECONST,8803000.0,CIP,K445,1601 80 STREET,Brooklyn,11214.0,BROOKLYN ,"(40.613262, -74.003404)",40.613262,-74.003404,11.0,43.0,182.0,3162711.0,3062710001.0,Bensonhurst West                                                           
498,NEW UTRECHT HS - BROOKLYN,K,20,ATHLETIC FIELD REPAIRS,5290000.0,CIP,K446,1601 80 STREET,Brooklyn,11214.0,BROOKLYN ,"(40.613262, -74.003404)",40.613262,-74.003404,11.0,43.0,182.0,3162711.0,3062710001.0,Bensonhurst West                                                           
499,BROOKLYN ACADEMY HS - BROOKLYN,K,13,WORK REQUIRED TO OBTAIN A C OF O,9436400.0,CIP,K458,832 MARCY AVENUE,Brooklyn,11216.0,BROOKLYN ,"(40.685004, -73.947152)",40.685004,-73.947152,3.0,36.0,249.0,3051641.0,3018230038.0,Bedford                                                                    
500,SECONDARY SCHOOL FOR LAW - K,K,15,DETERIORATED LEADER AND DRAIN LINES,8985000.0,CIP,K460,237 7TH AVENUE,Brooklyn,11215.0,BROOKLYN ,"(40.669629, -73.979287)",40.669629,-73.979287,6.0,39.0,155.0,3025510.0,3010820001.0,Park Slope-Gowanus                                                         
501,THE BROOKLYN SCHOOL FOR SOCIAL,K,32,SCHOOL BASED HEALTH CENTER,1250581.23,CIP,K480,400 IRVING AVENUE,Brooklyn,11237.0,BROOKLYN ,"(40.69697, -73.910791)",40.69697,-73.910791,4.0,37.0,435.0,3076908.0,3033650098.0,Bushwick North                                                             
502,FORT HAMILTON HS - K,K,20,POOL BOILER,4395000.0,CIP,K490,8301 SHORE ROAD,Brooklyn,11209.0,BROOKLYN ,"(40.627835, -74.040046)",40.627835,-74.040046,10.0,43.0,46.0,3152318.0,3060130001.0,Bay Ridge                                                                  
503,SHEEPSHEAD BAY HS - BROOKLYN,K,22,SCHOOL BASED HEALTH CENTER,1570000.0,CIP,K495,3000 AVENUE X,Brooklyn,11235.0,BROOKLYN ,"(40.594124, -73.937696)",40.594124,-73.937696,15.0,48.0,626.0,3203631.0,3074250002.0,Sheepshead Bay-Gerritsen Beach-Manhattan Beach                             
504,BROOKLYN GENERATION SCHOOL - K,K,18,ATHLETIC FIELD - TRACK,1618000.0,CIP,K516,6565 FLATLANDS AVENUE,Brooklyn,11236.0,BROOKLYN ,"(40.633285, -73.916735)",40.633285,-73.916735,18.0,46.0,950.0,3224139.0,3079980005.0,Canarsie                                                                   
505,GEORGE WESTINGHOUSE VOC. HS,K,13,PARAPETS/EXTERIOR MASONRY/ROOFS/FLOOD ELIMINATION,9743000.0,CIP,K580,105 JOHNSON STREET,Brooklyn,11201.0,BROOKLYN ,"(40.694926, -73.986015)",40.694926,-73.986015,2.0,33.0,13.0,3348041.0,3001310001.0,DUMBO-Vinegar Hill-Downtown Brooklyn-Boerum Hill                           
506,CLARA BARTON HS - K,K,17,EXTERIOR MASONRY/ROOFS,7064000.0,CIP,K600,901 CLASSON AVENUE,Brooklyn,11225.0,BROOKLYN ,"(40.669567, -73.961962)",40.669567,-73.961962,9.0,35.0,213.0,3029702.0,3011880001.0,Crown Heights South                                                        
509,WILLIAM E. GRADY VOC HS - K,K,21,FY16 RESO A CULINARY ARTS ROOM,1692000.0,CIP,K620,25 BRIGHTON 4TH ROAD,Brooklyn,11235.0,BROOKLYN ,"(40.582585, -73.963477)",40.582585,-73.963477,13.0,48.0,366.0,3196378.0,3072610201.0,Brighton Beach                                                             
510,WIILIAMSBURG PREP- BROOKLYN,K,14,ROOFS/WINDOWS/PARAPETS/EXT MASONRY,11337000.0,CIP,K650,257 N 6TH STREET,Brooklyn,11211.0,BROOKLYN ,"(40.715073, -73.954754)",40.715073,-73.954754,1.0,33.0,519.0,3062135.0,3023300011.0,North Side-South Side                                                      
511,BROOKLYN HS OF THE ARTS - BROO,K,15,ANSUL SYS/FIRE ALARM/MECHANICAL SYS - VENTILATION,5186160.0,CIP,K655,345 DEAN STREET,Brooklyn,11217.0,BROOKLYN ,"(40.683559, -73.98027)",40.683559,-73.98027,2.0,33.0,39.0,3001190.0,3001920013.0,DUMBO-Vinegar Hill-Downtown Brooklyn-Boerum Hill                           
512,BROOKLYN HS OF THE ARTS - BROO,K,15,DAMAGED EXTERIOR WALLS/ROOFS,6577000.0,CIP,K655,345 DEAN STREET,Brooklyn,11217.0,BROOKLYN ,"(40.683559, -73.98027)",40.683559,-73.98027,2.0,33.0,39.0,3001190.0,3001920013.0,DUMBO-Vinegar Hill-Downtown Brooklyn-Boerum Hill                           
513,BKLYN STUDIO SEC. SCL - BROOKL,K,21,EXT MASONRY/ROOFS/WINDOWS,6137000.0,CIP,K721,8310 21ST AVE,Brooklyn,11214.0,BROOKLYN ,"(40.604879, -73.994404)",40.604879,-73.994404,11.0,47.0,288.0,3165232.0,3063290032.0,Bensonhurst West                                                           
514,EL PUENTE ACADEMY - BROOKLYN,K,14,MASONRY/WINDOWS/PARAPETS/ROOFS,4212649.0,CIP,K778,250 HOOPER STREET,Brooklyn,11211.0,BROOKLYN ,"(40.705898, -73.955611)",40.705898,-73.955611,1.0,33.0,529.0,3379706.0,3022070002.0,Williamsburg                                                               
516,P.S. 295 - BROOKLYN,K,15,GYM & CAFE FLOOR/FLOOD/FLOOR/PARAPETS/MASONRY/ROOF,9114000.0,CIP,K845,330 18 STREET,Brooklyn,11215.0,BROOKLYN ,"(40.660976, -73.988297)",40.660976,-73.988297,7.0,38.0,147.0,3331274.0,3008800001.0,Sunset Park West                                                           
517,I.S. 340 - BROOKLYN,K,13,EXTERIOR MASONRY/FLOOD ELIMINATION,1748000.0,CIP,K874,227 STERLING PLACE,Brooklyn,11238.0,BROOKLYN ,"(40.676094, -73.97038)",40.676094,-73.97038,8.0,35.0,163.0,3029060.0,3011640057.0,Prospect Heights                                                           
518,P.S. 5 - MANHATTAN,M,6,PARAPETS/ROOFS/WINDOWS,10770000.0,CIP,M005,3703 TENTH AVENUE,Manhattan,10034.0,MANHATTAN,"(40.85899, -73.922894)",40.85899,-73.922894,12.0,10.0,299.0,1084201.0,1021500030.0,Marble Hill-Inwood                                                         
521,P.P.A.S. - MANHATTAN,M,2,MASONRY/AUD UPG/WIN/FLOOD/PARAPETS/ROOFS/FA,7315000.0,CIP,M017,328 WEST 48 STREET,Manhattan,10036.0,MANHATTAN,"(40.761448, -73.988019)",40.761448,-73.988019,4.0,3.0,127.0,1025092.0,1010380014.0,Clinton                                                                    
523,J.H.S. 47 (SCH FOR THE DEAF) -,M,2,PARAPETS/WINDOWS/EXTERIOR MASONRY,2654000.0,CIP,M047,223 EAST 23 STREET,Manhattan,10010.0,MANHATTAN,"(40.738548, -73.982455)",40.738548,-73.982455,6.0,2.0,64.0,,,Gramercy                                                                   
524,P.S. 48 - MANHATTAN,M,6,TCU REMOVAL / PLAYGROUND REDEVELOPMENT,1528000.0,CIP,M048,4360-78 BROADWAY,Manhattan,10033.0,MANHATTAN,"(40.853466, -73.934048)",40.853466,-73.934048,12.0,10.0,271.0,1076752.0,1021670029.0,Washington Heights North                                                   
525,P.S. 50 - MANHATTAN,M,4,EXTERIOR MASONRY/ROOFS/PARAPETS/SITE WALLS,15829000.0,CIP,M050,433 EAST 100 STREET,Manhattan,10029.0,MANHATTAN,"(40.785258, -73.941526)",40.785258,-73.941526,11.0,8.0,162.0,1083933.0,1016940001.0,East Harlem South                                                          
526,J.H.S. 52 - MANHATTAN,M,6,FLOOD ELIMINATION/EXTERIOR MASONRY,2559000.0,CIP,M052,650 ACADEMY STREET,Manhattan,10034.0,MANHATTAN,"(40.866053, -73.924835)",40.866053,-73.924835,12.0,10.0,291.0,1076776.0,1022330020.0,Marble Hill-Inwood                                                         
530,P.S. 75 - MANHATTAN,M,3,PLAYNYC BOILER CONVERSION/CLIMATE CONTROL,6666000.0,CIP,M075,735 WEST END AVENUE,Manhattan,10025.0,MANHATTAN,"(40.795157, -73.973292)",40.795157,-73.973292,7.0,6.0,183.0,1034190.0,1012530065.0,Upper West Side                                                            
533,P.S. 83 - MANHATTAN,M,4,FULL PROGRAM ACCESSIBILITY,8585000.0,CIP,M083,219 EAST 109 STREET,Manhattan,10029.0,MANHATTAN,"(40.793194, -73.942548)",40.793194,-73.942548,11.0,8.0,180.0,1052436.0,1016590012.0,East Harlem North                                                          
534,J.H.S. 860 - MANHATTAN,M,3,SCIENCE LAB UPGRADE,1275000.0,CIP,M088,215 WEST 114 STREET,Manhattan,10026.0,MANHATTAN,"(40.802207, -73.954142)",40.802207,-73.954142,10.0,9.0,218.0,1055204.0,1018300019.0,Central Harlem South                                                       
535,BARD COLLEGE HS - MANHATTAN,M,1,NON-SANDY:MASONRY/ROOF/PARAPET/SANDY FLOOD/MSNRY,6913000.0,CIP,M097,525 EAST HOUSTON STREET,Manhattan,10002.0,MANHATTAN,"(40.719029, -73.975891)",40.719029,-73.975891,3.0,2.0,1002.0,1004062.0,1003250025.0,Lower East Side                                                            
536,SUCCESS ACADEMY CHARTER SCHOOL,M,4,INTERIOR STAIRS,2045000.0,CIP,M099,410 EAST 100 STREET,Manhattan,10029.0,MANHATTAN,"(40.785671, -73.942548)",40.785671,-73.942548,11.0,8.0,162.0,1052998.0,1016930001.0,East Harlem South                                                          
537,P.S. 108 - MANHATTAN,M,4,PLANYC BOILER/PLANC CLIMATE CTRL/LOW VOLT/KITCHEN,6384000.0,CIP,M108,1615 MADISON AVENUE,Manhattan,10029.0,MANHATTAN,"(40.795146, -73.948368)",40.795146,-73.948368,11.0,8.0,17401.0,1051584.0,1016140021.0,East Harlem South                                                          
538,P.S. 241 - MANHATTAN,M,3,FLOOD ELIMINATION,1337000.0,CIP,M113,240 WEST 113 STREET,Manhattan,10026.0,MANHATTAN,"(40.801689, -73.954908)",40.801689,-73.954908,10.0,9.0,216.0,1055111.0,1018280015.0,Central Harlem South                                                       
539,P.S. 241 - MANHATTAN,M,3,PLANYC BOILER CONVERSION/CIMATE CONTROL,4697000.0,CIP,M113,240 WEST 113 STREET,Manhattan,10026.0,MANHATTAN,"(40.801689, -73.954908)",40.801689,-73.954908,10.0,9.0,216.0,1055111.0,1018280015.0,Central Harlem South                                                       
540,I.S. 372 - MANHATTAN,M,4,SCIENCE LAB UPGRADE,1116000.0,CIP,M117,240 EAST 109 STREET,Manhattan,10029.0,MANHATTAN,"(40.79307, -73.942303)",40.79307,-73.942303,11.0,8.0,170.0,1052433.0,1016560100.0,East Harlem South                                                          
541,P.S. 333 - MANHATTAN,M,3,EXTERIOR MASONRY/ROOFS/PARAPETS,11148891.0,CIP,M118,154 WEST 93 STREET,Manhattan,10025.0,MANHATTAN,"(40.791728, -73.970845)",40.791728,-73.970845,7.0,6.0,177.0,1032522.0,1012230005.0,Upper West Side                                                            
542,P.S. 123 - MANHATTAN,M,5,FLOOD ELIMINATION,4815000.0,CIP,M123,301 WEST 140 STREET,Manhattan,10030.0,MANHATTAN,"(40.819767, -73.944433)",40.819767,-73.944433,10.0,9.0,22102.0,1060726.0,1020420035.0,Central Harlem North-Polo Grounds                                          
543,P.S. 128 - MANHATTAN,M,6,PLANYC BOILER CNVSN/PLANYC CLIMATE CTRL,6790000.0,CIP,M128,560 WEST 169 STREET,Manhattan,10032.0,MANHATTAN,"(40.841321, -73.938506)",40.841321,-73.938506,12.0,10.0,251.0,1062994.0,1021250001.0,Washington Heights South                                                   
544,P.S. 142 - MANHATTAN,M,1,PLAY YARD SINKHOLE,2688000.0,CIP,M142,100 ATTORNEY STREET,Manhattan,10002.0,MANHATTAN,"(40.718383, -73.984452)",40.718383,-73.984452,3.0,1.0,1402.0,1004080.0,1003430001.0,Lower East Side                                                            
545,P.S. 145 - MANHATTAN,M,3,PLANYC BOILER CNVSN/PLANYC CLIMATE CTRL,3073000.0,CIP,M145,150 WEST 105 STREET,Manhattan,10025.0,MANHATTAN,"(40.799178, -73.964842)",40.799178,-73.964842,7.0,7.0,189.0,1076625.0,1018590001.0,Upper West Side                                                            
547,P.S. 152 - MANHATTAN,M,6,WATER INFILTRATION,2238000.0,CIP,M152,93 NAGLE AVENUE,Manhattan,10040.0,MANHATTAN,"(40.860412, -73.927936)",40.860412,-73.927936,12.0,10.0,283.0,1064149.0,1021730001.0,Washington Heights North                                                   
548,P.S. 163 - MANHATTAN,M,3,TCU REMOVAL & PLAYGROUND REDEVELOPMENT,2442564.0,CIP,M163,163 WEST 97 STREET,Manhattan,10025.0,MANHATTAN,"(40.794264, -73.968706)",40.794264,-73.968706,7.0,7.0,185.0,1055908.0,1018520099.0,Upper West Side                                                            
549,P.S. 165 - MANHATTAN,M,3,EXT MASONRY/ROOFS,6233477.0,CIP,M165,234 WEST 109 STREET,Manhattan,10025.0,MANHATTAN,"(40.802917, -73.965613)",40.802917,-73.965613,7.0,7.0,195.0,1056676.0,1018800013.0,Morningside Heights                                                        
550,I.S. 167 - MANHATTAN,M,2,FACADE DAMAGE/SITE WORK/FLOOD/PARAPET/WINDOWS/ROOF,7547888.0,CIP,M167,220 EAST 76 STREET,Manhattan,10021.0,MANHATTAN,"(40.77205, -73.958066)",40.77205,-73.958066,8.0,4.0,134.0,1044058.0,1014300005.0,Lenox Hill-Roosevelt Island                                                
551,P.S. 183 - MANHATTAN,M,2,EXTERIOR MASONRY/FLOOD ELIMINATION/ PARAPETS/ROOFS,11870000.0,CIP,M183,419 EAST 66 STREET,Manhattan,10065.0,MANHATTAN,"(40.763736, -73.95815)",40.763736,-73.95815,8.0,5.0,116.0,1045569.0,1014610007.0,Lenox Hill-Roosevelt Island                                                
552,P.S. 185 - MANHATTAN,M,3,PLAY YARD SURFACE DEFECTS,2330000.0,CIP,M185,20 WEST 112 STREET,Manhattan,10026.0,MANHATTAN,"(40.798511, -73.949251)",40.798511,-73.949251,10.0,9.0,186.0,1051410.0,1015950015.0,Central Harlem South                                                       
554,HAMILTON GRANGE MIDDLE SCHOOL,M,6,SCIENCE LAB UPGRADE,1098000.0,CIP,M192,500 WEST 138 STREET,Manhattan,10031.0,MANHATTAN,"(40.820953, -73.951145)",40.820953,-73.951145,9.0,7.0,22301.0,1084132.0,1019880166.0,Manhattanville                                                             
555,P.S. 198 - MANHATTAN,M,2,WINDOWS/ROOFS/PARAPETS,7852000.0,CIP,M198,1700 3RD AVENUE,Manhattan,10128.0,MANHATTAN,"(40.784826, -73.949611)",40.784826,-73.949611,8.0,5.0,15801.0,1048492.0,1015240023.0,Upper East Side-Carnegie Hill                                              
557,GRAMERCY ARTS HS - MANHATTAN,M,2,ELECTRICAL SYSTEMS/PA SYSTEM,6221000.0,CIP,M460,40 IRVING PLACE,Manhattan,10003.0,MANHATTAN,"(40.735494, -73.987659)",40.735494,-73.987659,6.0,2.0,50.0,1017828.0,1008720057.0,Gramercy                                                                   
558,WASHINGTON IRVING H.S.,M,2,WATER STORAGE TANK,1189512.0,CIP,M460,40 IRVING PLACE,Manhattan,10003.0,MANHATTAN,"(40.735494, -73.987659)",40.735494,-73.987659,6.0,2.0,50.0,1017828.0,1008720057.0,Gramercy                                                                   
559,WASHINGTON IRVING HS - MANHATT,M,2,EXT. MASONRY/ROOF/PARAPET/ FLOOD ELIM./WINDOWS/GYM,43221000.0,CIP,M460,40 IRVING PLACE,Manhattan,10003.0,MANHATTAN,"(40.735494, -73.987659)",40.735494,-73.987659,6.0,2.0,50.0,1017828.0,1008720057.0,Gramercy                                                                   
562,BERGTRAUM HS - MANHATTAN,M,2,LIBRARY UPGRADE,2295000.0,CIP,M520,411 PEARL STREET,Manhattan,10038.0,MANHATTAN,"(40.711442, -74.000851)",40.711442,-74.000851,1.0,1.0,29.0,1001388.0,1001130100.0,Chinatown                                                                  
563,BERGTRAUM HS - MANHATTAN,M,2,SCIENCE LAB UPGRADE/FIRE ALARM SYSTEMS,8097230.0,CIP,M520,411 PEARL STREET,Manhattan,10038.0,MANHATTAN,"(40.711442, -74.000851)",40.711442,-74.000851,1.0,1.0,29.0,1001388.0,1001130100.0,Chinatown                                                                  
564,PARK WEST H. S. (ECF),M,2,C OF O/C OF O VENT/WATER PLANT/BOILER/ENERGY MGMT,23313000.0,CIP,M535,525 WEST 50 STREET,Manhattan,10019.0,MANHATTAN,"(40.765184, -73.992953)",40.765184,-73.992953,4.0,3.0,135.0,1083802.0,1010790029.0,Clinton                                                                    
565,A. PHILIP RANDOLPH HS -MANHATT,M,6,EXT MASONRY/FLOOD ELMNTN/PARAPETS/ROOFS,64898000.0,CIP,M540,443 WEST 135 STREET,Manhattan,10031.0,MANHATTAN,"(40.818188, -73.950356)",40.818188,-73.950356,9.0,9.0,21703.0,1059409.0,1019570078.0,Manhattanville                                                             
566,FASHION INDUSTRIES VOC HS - M,M,2,ACCESSIBILITY,3300000.0,CIP,M600,225 WEST 24 STREET,Manhattan,10011.0,MANHATTAN,"(40.745156, -73.996074)",40.745156,-73.996074,4.0,3.0,91.0,1014174.0,1007740019.0,Hudson Yards-Chelsea-Flatiron-Union Square                                 
567,CHELSEA VOC HS - MANHATTAN,M,2,LOW VOLTAGE ELECTRICAL SYSTEM/ANSUL SYSTEM,2314098.0,CIP,M615,131 AVE OF THE AMERICAS,Manhattan,10013.0,MANHATTAN,"(40.7244, -74.004625)",40.7244,-74.004625,2.0,3.0,37.0,1007378.0,1004910016.0,SoHo-TriBeCa-Civic Center-Little Italy                                     
568,NORMAN THOMAS HS - MANHATTAN,M,2,SCIENCE LAB,1359000.0,CIP,M620,111 EAST 33 STREET,Manhattan,10016.0,MANHATTAN,"(40.746176, -73.981241)",40.746176,-73.981241,5.0,2.0,72.0,1087537.0,1008897501.0,Murray Hill-Kips Bay                                                       
569,HS OF GRAPHIC COMM. ARTS (VOC),M,2,EXT MASONRY/ROOFS/PARAPETS,7649000.0,CIP,M625,439 WEST 49 STREET,Manhattan,10019.0,MANHATTAN,"(40.76337, -73.990593)",40.76337,-73.990593,4.0,3.0,127.0,1026646.0,1010590015.0,Clinton                                                                    
570,HS OF GRAPHIC COMM. ARTS (VOC),M,2,PLANYC BOILERS CONVERSION/CLIMATE CONTROL,8627000.0,CIP,M625,439 WEST 49 STREET,Manhattan,10019.0,MANHATTAN,"(40.76337, -73.990593)",40.76337,-73.990593,4.0,3.0,127.0,1026646.0,1010590015.0,Clinton                                                                    
571,M721 SPED - MANHATTAN,M,2,REINFORCE CINDER/FLOORS/ACCESSIBLITY/ELEC UPG/FA,6142800.0,CIP,M641,16 CLARKSON STREET,Manhattan,10014.0,MANHATTAN,"(40.729412, -74.006148)",40.729412,-74.006148,2.0,3.0,67.0,1009757.0,1005810054.0,West Village                                                               
573,HS FOR ENVIRONMENTAL STUDIES -,M,2,6TH FLOOR EGRESS/FIRE ALARM,3621000.0,CIP,M834,444 WEST 56 STREET,Manhattan,10019.0,MANHATTAN,"(40.767791, -73.987531)",40.767791,-73.987531,4.0,3.0,139.0,1026841.0,1010650001.0,Clinton                                                                    
577,I.S. 5 - QUEENS,Q,24,HVAC/PUBLIC ADDRESS SYSTEM,4710000.0,CIP,Q005,50-40 JACOBUS STREET,Queens,11373.0,QUEENS   ,"(40.737718, -73.887429)",40.737718,-73.887429,4.0,25.0,489.0,4454423.0,4024500017.0,Elmhurst-Maspeth                                                           
578,Q009 SPED - QUEENS,Q,24,EXT MSNRY/PARAPET/FLOOD/ ACCESSIBILITY/FIRE ALARM,10840000.0,CIP,Q009,58-74 57 STREET,Queens,11378.0,QUEENS   ,"(40.718935, -73.912208)",40.718935,-73.912208,5.0,30.0,535.0,4059130.0,4026310106.0,Maspeth                                                                    
579,P.S. 12 - QUEENS,Q,24,BOILER REPLACE/ELEC SWITCH UPG/PLANYC CLIMATE CTRL,5887000.0,CIP,Q012,42-00 72 STREET,Queens,11377.0,QUEENS   ,"(40.742633, -73.892805)",40.742633,-73.892805,2.0,26.0,483.0,4031853.0,4013490028.0,Elmhurst-Maspeth                                                           
581,P.S. 354 - QUEENS,Q,28,DEFECTIVE PARAPET WALL/ROOFS/EXT MASONRY,5977000.0,CIP,Q030,126-10 BEDELL STREET,Queens,11434.0,QUEENS   ,"(40.68031, -73.774432)",40.68031,-73.774432,12.0,28.0,33402.0,4270045.0,4124950065.0,Springfield Gardens North                                                  
582,P.S. 31 - QUEENS,Q,26,CHIMNEY LINER REPLAC/PLANYC BOILER/CLIMATE/MASONRY,14330000.0,CIP,Q031,211-45 46 ROAD,Queens,11361.0,QUEENS   ,"(40.757064, -73.770122)",40.757064,-73.770122,11.0,19.0,1447.0,4156949.0,4073160018.0,Bayside-Bayside Hills                                                      
583,P.S. 33 - QUEENS,Q,29,ROOF REPAIR/PARAPETS/EXTERIOR MASONRY,8860557.0,CIP,Q033,91-37 222 STREET,Queens,11428.0,QUEENS   ,"(40.727134, -73.735077)",40.727134,-73.735077,13.0,23.0,560.0,4230589.0,4107560001.0,Queens Village                                                             
584,P.S. 37 - QUEENS,Q,29,FLOOD/FA/EXT MASONRY/ELEVATOR/PARAPETS/FLOOD,14990000.0,CIP,Q037,179-37 137 AVENUE,Queens,11434.0,QUEENS   ,"(40.67588, -73.758505)",40.67588,-73.758505,12.0,27.0,352.0,4279864.0,4129930118.0,St. Albans                                                                 
585,P.S. 40 - QUEENS,Q,28,EXTERIOR MASONRY/TCU REMOVAL & PLAYGROUND/FLOOD,9947450.0,CIP,Q040,109-20 UNION HALL STREET,Queens,11433.0,QUEENS   ,"(40.694125, -73.790675)",40.694125,-73.790675,12.0,28.0,260.0,4263341.0,4121510001.0,South Jamaica                                                              
586,P.S. 42 - QUEENS,Q,27,SANDY:INT/HEATING/FLOOD/CLIMATE/PIPING/HVAC/ELEC,15125767.0,CIP,Q042,488 BEACH 66 STREET,Queens,11692.0,QUEENS   ,"(40.594538, -73.795304)",40.594538,-73.795304,14.0,31.0,964.0,4302817.0,4160390014.0,Hammels-Arverne-Edgemere                                                   
588,P.S. 43 - QUEENS,Q,27,SANDY-INTERIOR/HEATING/FLOOD/ SHINGLE ROOF/CLIMATE,15000000.0,CIP,Q043,160 BEACH 29TH STREET,Queens,11691.0,QUEENS   ,"(40.593834, -73.76174)",40.593834,-73.76174,14.0,31.0,99802.0,4467711.0,4158200001.0,Far Rockaway-Bayswater                                                     
590,Q075 SPED - QUEENS,Q,28,FLOOD ELIMINATION/REINFORCING SUPPORT ELEMENTS,2167000.0,CIP,Q048,155-02 108 AVENUE,Queens,11433.0,QUEENS   ,"(40.694119, -73.797003)",40.694119,-73.797003,12.0,28.0,254.0,4216099.0,4101440042.0,South Jamaica                                                              
592,P.S. 52 - QUEENS,Q,29,WATER PENETRATION/PARAPETS,1718000.0,CIP,Q052,178-37 146 TERRACE,Queens,11434.0,QUEENS   ,"(40.661122, -73.766733)",40.661122,-73.766733,13.0,31.0,320.0,4285972.0,4133530020.0,Springfield Gardens South-Brookville                                       
593,I.S. 53 - QUEENS,Q,27,CONCRETE/FLOOD/PARAPETS/ ROOFS/WINDOWS/C OF O,17300000.0,CIP,Q053,10-45 NAMEOKE STREET,Queens,11691.0,QUEENS   ,"(40.603622, -73.749097)",40.603622,-73.749097,14.0,31.0,103202.0,4298234.0,4155570025.0,Far Rockaway-Bayswater                                                     
594,I.S. 61 - QUEENS,Q,24,MASONRY/ROOFS/PARAPETS,5890000.0,CIP,Q061,98-50 50 AVENUE,Queens,11368.0,QUEENS   ,"(40.742668, -73.863307)",40.742668,-73.863307,4.0,21.0,44302.0,4046834.0,4018910032.0,Corona                                                                     
595,P.S. 63 - QUEENS,Q,27,WATER PENETRATION/EXT MASONRY/PARAPETS/ROOFS,4368000.0,CIP,Q063,90-15 SUTTER AVENUE,Queens,11417.0,QUEENS   ,"(40.67641, -73.846773)",40.67641,-73.846773,10.0,32.0,54.0,4190727.0,4091550025.0,Ozone Park                                                                 
599,P.S. 100 - QUEENS,Q,27,C OF O,1124600.0,CIP,Q100,111-11 118 STREET,Queens,11420.0,QUEENS   ,"(40.679984, -73.822078)",40.679984,-73.822078,10.0,28.0,102.0,4250416.0,4116230001.0,South Ozone Park                                                           
600,P.S. 102 - QUEENS,Q,24,ADA UPGRADE,2777000.0,CIP,Q102,55-24 VAN HORN STREET,Queens,11373.0,QUEENS   ,"(40.733514, -73.877857)",40.733514,-73.877857,4.0,25.0,479.0,4437597.0,4028790031.0,Elmhurst-Maspeth                                                           
601,P.S. 105 - QUEENS,Q,27,SANDY:HEATING/ELEC/FLD/AUD/ PIPING/HVAC/INT/PAVED,21198000.0,CIP,Q105,420 BEACH 51 STREET,Queens,11691.0,QUEENS   ,"(40.595779, -73.781876)",40.595779,-73.781876,14.0,31.0,97203.0,4302397.0,4159740003.0,Hammels-Arverne-Edgemere                                                   
603,P.S. 111 - QUEENS,Q,30,KITCHEN UPGRADE,2302171.0,CIP,Q111,37-15 13 STREET,Queens,11101.0,QUEENS   ,"(40.758831, -73.93938)",40.758831,-73.93938,1.0,26.0,43.0,4004419.0,4003630001.0,Queensbridge-Ravenswood-Long Island City                                   
604,P.S. 112 - QUEENS,Q,30,FY17 RESO A PLAYGROUND REDEVELOPMENT,1067000.0,CIP,Q112,25-05 37 AVENUE,Queens,11101.0,QUEENS   ,"(40.756891, -73.934523)",40.756891,-73.934523,1.0,26.0,33.0,4004170.0,4003440001.0,Queensbridge-Ravenswood-Long Island City                                   
605,P.S. 114 - QUEENS,Q,27,SANDY:INT/HEATING/ELEC/FLOOD/CLIM/PLAYGRND/PIPING,14780000.0,CIP,Q114,134-01 CRONSTON AVE,Queens,11694.0,QUEENS   ,"(40.578261, -73.854403)",40.578261,-73.854403,14.0,32.0,928.0,4305615.0,4162570001.0,Breezy Point-Belle Harbor-Rockaway Park-Broad Channel                      
606,P.S. 115 - QUEENS,Q,26,PARAPETS/EXT MASONRY,4950000.0,CIP,Q115,80-51 261 STREET,Queens,11004.0,QUEENS   ,"(40.744099, -73.709845)",40.744099,-73.709845,13.0,23.0,157902.0,4178127.0,4087170001.0,Glen Oaks-Floral Park-New Hyde Park                                        
607,P.S. 115 - QUEENS,Q,26,PLANYC BOILER CNVRSN/PLANYC CLIMATE CTRL,5544000.0,CIP,Q115,80-51 261 STREET,Queens,11004.0,QUEENS   ,"(40.744099, -73.709845)",40.744099,-73.709845,13.0,23.0,157902.0,4178127.0,4087170001.0,Glen Oaks-Floral Park-New Hyde Park                                        
608,P.S. 116 - QUEENS,Q,29,EXT MASONRY/ROOFS/CONCRETE ROOF DECK/PARAPETS,8800000.0,CIP,Q116,107-25 WREN PLACE,Queens,11433.0,QUEENS   ,"(40.700606, -73.782302)",40.700606,-73.782302,12.0,27.0,414.0,4218416.0,4102500001.0,South Jamaica                                                              
609,P.S. 123 - QUEENS,Q,27,TCU REMOVAL & PLAYGROUND REDEVELOPMENT,1082000.0,CIP,Q123,145-01 119 AVENUE,Queens,11436.0,QUEENS   ,"(40.678296, -73.79562)",40.678296,-73.79562,12.0,28.0,18402.0,4260828.0,4120190010.0,Baisley Park                                                               
610,P.S. 131 - QUEENS,Q,29,ROOFS/EXT MASONRY/PARAPETS,5688000.0,CIP,Q131,170-45 84TH AVENUE,Queens,11432.0,QUEENS   ,"(40.716617, -73.794637)",40.716617,-73.794637,8.0,24.0,456.0,4211112.0,4098750001.0,Briarwood-Jamaica Hills                                                    
612,P.S. 139 - QUEENS,Q,28,WATER PENETRATION/ROOFS,1456000.0,CIP,Q139,93-06 63 DRIVE,Queens,11374.0,QUEENS   ,"(40.72814, -73.863582)",40.72814,-73.863582,6.0,29.0,693.0,4072457.0,4030950050.0,Rego Park                                                                  
613,I.S. 145 - QUEENS,Q,30,PLANYC BOILER CNVRSN/PLANYC CLIMATE CTRL,8497000.0,CIP,Q145,33-34 80 STREET,Queens,11372.0,QUEENS   ,"(40.754661, -73.887112)",40.754661,-73.887112,3.0,25.0,285.0,4442764.0,4012520001.0,Jackson Heights                                                            
614,P.S. 151 - QUEENS,Q,30,WATER INFILTRATION/ROOFS/PARAPETS/EXT MASONRY,5182000.0,CIP,Q151,50-05 31 AVENUE,Queens,11377.0,QUEENS   ,"(40.757499, -73.908898)",40.757499,-73.908898,1.0,22.0,163.0,4014094.0,4007520001.0,Astoria                                                                    
615,P.S. 155 - QUEENS,Q,27,TCU REMOVAL - PLAYGROUND REDEVELOPMENT,1411569.0,CIP,Q155,130-02 115 AVENUE,Queens,11420.0,QUEENS   ,"(40.67956, -73.8106)",40.67956,-73.8106,10.0,28.0,176.0,4252357.0,4116730001.0,South Ozone Park                                                           
616,P.S. 156 - QUEENS,Q,29,TCU REMOVAL/PLAYGROUND REDEVELOPMENT,3275000.0,CIP,Q156,229-02 137 AVENUE,Queens,11413.0,QUEENS   ,"(40.673069, -73.743173)",40.673069,-73.743173,13.0,31.0,646.0,4283015.0,4131700012.0,Laurelton                                                                  
618,P.S. 160 - QUEENS,Q,28,CHIMNEY/ROOFS/PARAPETS/FLOOD,9370000.0,CIP,Q160,109-59 INWOOD STREET,Queens,11435.0,QUEENS   ,"(40.688103, -73.800415)",40.688103,-73.800415,12.0,28.0,196.0,4258143.0,4119420302.0,South Jamaica                                                              
620,P.S. 162 - QUEENS,Q,26,PARAPET/FLOOD ELIMINATION/EXT MASONRY/ROOFING,8630000.0,CIP,Q162,201-02 53 AVENUE,Queens,11364.0,QUEENS   ,"(40.749036, -73.777213)",40.749036,-73.777213,11.0,20.0,140901.0,4159363.0,4074100001.0,Bayside-Bayside Hills                                                      
623,Q177 SPED - QUEENS,Q,26,PLANYC BOILER CONVERSION/PLANYC CLIMATE CONTROL,7221000.0,CIP,Q177,56-37 188 STREET,Queens,11365.0,QUEENS   ,"(40.74391, -73.788133)",40.74391,-73.788133,11.0,20.0,1417.0,4128231.0,4056740002.0,Auburndale                                                                 
624,THE SCHOLARS ACADEMY - QUEENS,Q,27,SANDY:AC/FLOOD/ELEC/HEAT/INTER/NON-SANDY:CLIM CTRL,13563283.0,CIP,Q180,320 BEACH 104 STREET,Queens,11694.0,QUEENS   ,"(40.584109, -73.825711)",40.584109,-73.825711,14.0,32.0,938.0,4303722.0,4161590012.0,Breezy Point-Belle Harbor-Rockaway Park-Broad Channel                      
625,P.S. 181 - QUEENS,Q,29,FLOORS & WALLS/ROOFS/PARAPETS/EXT MASONRY/FLOOD,4848000.0,CIP,Q181,148-15 230 STREET,Queens,11413.0,QUEENS   ,"(40.656126, -73.753207)",40.656126,-73.753207,13.0,31.0,694.0,4291453.0,4137180001.0,Springfield Gardens South-Brookville                                       
626,P.S. 184 - QUEENS,Q,25,PLANYC BOILER CNVRSN/PLANYC CLIMATE CTRL,5631800.0,CIP,Q184,163-15 21 ROAD,Queens,11357.0,QUEENS   ,"(40.778095, -73.800163)",40.778095,-73.800163,7.0,19.0,1017.0,4129072.0,4057560001.0,Ft. Totten-Bay Terrace-Clearview                                           
629,J.H.S. 194 - QUEENS,Q,25,PLANYC BOILER CNVRSN/PLANYC CLIMATE CTRL,6795000.0,CIP,Q194,154-60 17 AVENUE,Queens,11357.0,QUEENS   ,"(40.78365, -73.807838)",40.78365,-73.807838,7.0,19.0,1029.0,4107342.0,4047290001.0,Whitestone                                                                 
630,P.S. 333 - QUEENS,Q,27,REINF SLAB/HEATING PLT/ELEC/FLOOD ELIM/CLIM CTRL,12990000.0,CIP,Q198,3-65 BEACH 56 STREET,Queens,11692.0,QUEENS   ,"(40.593967, -73.786182)",40.593967,-73.786182,14.0,31.0,97204.0,4301929.0,4158940011.0,Hammels-Arverne-Edgemere                                                   
631,P.S. 333 - QUEENS,Q,27,SANDY NEW A/C CHILLERS,1278870.32,CIP,Q198,3-65 BEACH 56 STREET,Queens,11692.0,QUEENS   ,"(40.593967, -73.786182)",40.593967,-73.786182,14.0,31.0,97204.0,4301929.0,4158940011.0,Hammels-Arverne-Edgemere                                                   
632,P.S. 205 - QUEENS,Q,26,BOILER/CLIMATE CTRL/FLOOD/MASONRY/ ROOFS/PARAPETS,15560000.0,CIP,Q205,75-25 BELL BLVD,Queens,11364.0,QUEENS   ,"(40.737678, -73.756791)",40.737678,-73.756791,11.0,23.0,129103.0,4164007.0,4077530001.0,Oakland Gardens                                                            
633,P.S. 214 - QUEENS,Q,25,PARAPETS/FLOOD/EXT MASONRY/ROOFS,6786000.0,CIP,Q214,31-15 140 STREET,Queens,11354.0,QUEENS   ,"(40.770387, -73.828617)",40.770387,-73.828617,7.0,20.0,88901.0,4100846.0,4044130020.0,Flushing                                                                   
634,P.S. 215 - QUEENS,Q,27,LOW VOLTAGE ELECTRICAL SYSTEM,1213000.0,CIP,Q215,535 BRIAR PLACE,Queens,11691.0,QUEENS   ,"(40.5993, -73.758206)",40.5993,-73.758206,14.0,31.0,99801.0,4301194.0,4157720031.0,Far Rockaway-Bayswater                                                     
635,P.S. 215 - QUEENS,Q,27,SOLAR PANEL,2104380.0,CIP,Q215,535 BRIAR PLACE,Queens,11691.0,QUEENS   ,"(40.5993, -73.758206)",40.5993,-73.758206,14.0,31.0,99801.0,4301194.0,4157720031.0,Far Rockaway-Bayswater                                                     
636,J.H.S. 216 - QUEENS,Q,26,PLANYC BOILER CNVRSN/PLANYC CLIMATE CTRL,6000761.0,CIP,Q216,64-20 175 STREET,Queens,11365.0,QUEENS   ,"(40.737517, -73.794031)",40.737517,-73.794031,8.0,24.0,1341.0,4149078.0,4069030001.0,Fresh Meadows-Utopia                                                       
637,P.S. 219 - QUEENS,Q,25,LOW VOLTAGE ELECTRICAL/KITCHEN UPGRADE,1843000.0,CIP,Q219,144-39 GRAVETT ROAD,Queens,11367.0,QUEENS   ,"(40.735275, -73.823778)",40.735275,-73.823778,8.0,24.0,809.0,4448708.0,4065070001.0,Kew Gardens Hills                                                          
638,P.S. 223 - QUEENS,Q,27,WINDOWS/EXT MASONRY/PARAPETS,4565000.0,CIP,Q223,125-20 SUTPHIN BLVD,Queens,11434.0,QUEENS   ,"(40.674519, -73.789399)",40.674519,-73.789399,12.0,28.0,18401.0,4261713.0,4120510001.0,Baisley Park                                                               
639,P.S. 317 - QUEENS,Q,27,SANDY: HEAT/FLOOD/ELEC/ INTERIOR/NON-SANDY:CLIMATE,6339000.0,CIP,Q225,1-90 BEACH 110 STREET,Queens,11694.0,QUEENS   ,"(40.580928, -73.831836)",40.580928,-73.831836,14.0,32.0,938.0,4303853.0,4161810001.0,Breezy Point-Belle Harbor-Rockaway Park-Broad Channel                      
640,I.S. 226 - QUEENS,Q,27,TCU REMOVAL AND PLAYGROUND REDEVELOPMENT,3960000.0,CIP,Q226,121-10 ROCKAWAY BOULEVARD,Queens,11420.0,QUEENS   ,"(40.675771, -73.816938)",40.675771,-73.816938,10.0,28.0,840.0,4253607.0,4117140100.0,South Ozone Park                                                           
643,P.S. 254 - QUEENS,Q,27,ROOF/PARAPETS/EXT MASONRY/PAVED AREA CONCRETE,7286400.0,CIP,Q254,84-40 101ST STREET,Queens,11418.0,QUEENS   ,"(40.697961, -73.84796)",40.697961,-73.84796,9.0,32.0,24.0,4191296.0,4091770023.0,Richmond Hill                                                              
644,P.S. / I.S. 270 - QUEENS,Q,29,DEFECTIVE PARAPETS/EXT MASONRY/ROOFS,5347000.0,CIP,Q270,233-15 MERRICK BLVD,Queens,11422.0,QUEENS   ,"(40.674831, -73.736713)",40.674831,-73.736713,13.0,31.0,618.0,4529511.0,4129730001.0,Laurelton                                                                  
645,AUGUST MARTIN HS - QUEENS,Q,27,LIBRARY UPGRADE,1644000.0,CIP,Q400,156-10 BAISLEY BLVD,Queens,11434.0,QUEENS   ,"(40.675633, -73.783342)",40.675633,-73.783342,12.0,28.0,294.0,4265978.0,4122610001.0,Springfield Gardens North                                                  
648,BEACH CHANNEL HS - QUEENS,Q,27,SANDY FIRE ALARM/NON SANDY PA SYSTEM,8947000.0,CIP,Q410,100-00 BEACH CHANNEL DRIVE,Queens,11694.0,QUEENS   ,"(40.586066, -73.822624)",40.586066,-73.822624,14.0,32.0,94201.0,4303773.0,4161670099.0,Breezy Point-Belle Harbor-Rockaway Park-Broad Channel                      
649,BEACH CHANNEL HS - QUEENS,Q,27,SANDY:HTNG/ELEC/FLD/CLIMATE/ PIPING/INT/GENERATOR,22190800.0,CIP,Q410,100-00 BEACH CHANNEL DRIVE,Queens,11694.0,QUEENS   ,"(40.586066, -73.822624)",40.586066,-73.822624,14.0,32.0,94201.0,4303773.0,4161670099.0,Breezy Point-Belle Harbor-Rockaway Park-Broad Channel                      
650,BEACH CHANNEL HS - QUEENS,Q,27,SANDY REPAIRS-ATHLETIC FIELD,3087911.79,CIP,Q411,100-00 BEACH CHANNEL DRIVE,Queens,11694.0,QUEENS   ,"(40.586066, -73.822624)",40.586066,-73.822624,14.0,32.0,94201.0,4303773.0,4161670099.0,Breezy Point-Belle Harbor-Rockaway Park-Broad Channel                      
651,BENJAMIN N. CARDOZO HS - QUEEN,Q,26,ATHLETIC FIELDS/TCU REMOVAL & PLAYGROUND REDEVELOP,7897628.0,CIP,Q415,57-00 223 STREET,Queens,11364.0,QUEENS   ,"(40.752333, -73.75599)",40.752333,-73.75599,11.0,23.0,138501.0,4161735.0,4075290001.0,Oakland Gardens                                                            
652,EXCELSIOR PREP HIGH SCHOOL - Q,Q,29,EXT MASONRY/ROOFS/PAVED AREA-CONCRETE,6980000.0,CIP,Q420,143-10 SPRINGFIELD BLVD,Queens,11413.0,QUEENS   ,"(40.668235, -73.756839)",40.668235,-73.756839,12.0,31.0,330.0,4280845.0,4130570056.0,Springfield Gardens North                                                  
654,FRANCIS LEWIS HS - QUEENS,Q,26,WATER PENETRATION,1469000.0,CIP,Q430,58-20 UTOPIA PKWY,Queens,11365.0,QUEENS   ,"(40.740724, -73.79283)",40.740724,-73.79283,11.0,20.0,1417.0,4148763.0,4068820001.0,Auburndale                                                                 
655,MARTIN VAN BUREN HS - QUEENS,Q,26,RENEWAL SCHOOL BASED HEALTH CENTER,1829000.0,CIP,Q435,230-17 HILLSIDE AVENUE,Queens,11427.0,QUEENS   ,"(40.733066, -73.738756)",40.733066,-73.738756,13.0,23.0,1301.0,4166101.0,4079300002.0,Bellerose                                                                  
656,FOREST HILLS H.S.,Q,28,CONCRETE PAVED AREAS,3463000.0,CIP,Q440,67-01 110 STREET,Queens,11375.0,QUEENS   ,"(40.729402, -73.845637)",40.729402,-73.845637,6.0,29.0,747.0,4052143.0,4021890002.0,Forest Hills                                                               
657,WILLIAM C. BRYANT HS - QUEENS,Q,30,TCU REMOVAL & PLAYGROUND REDEVELOPMENT,2499000.0,CIP,Q445,48-10 31 AVENUE,Queens,11103.0,QUEENS   ,"(40.75823, -73.910514)",40.75823,-73.910514,1.0,26.0,163.0,4013655.0,4007380002.0,Astoria                                                                    
659,LONG ISLAND CITY HS - Q,Q,30,FIRE ALARM SYSTEM/BUILDING MGMT SYSTEM,18432800.0,CIP,Q452,14-30 BROADWAY,Queens,11106.0,QUEENS   ,"(40.765826, -73.9328)",40.765826,-73.9328,1.0,22.0,45.0,4467709.0,4005290002.0,Astoria                                                                    
660,FREDERICK DOUGLASS ACADEMY VI,Q,27,MSNRY/ROOFS/WINDOWS/PARAPETS/NATATORIUM STRUC REPR,21377000.0,CIP,Q465,8-21 BAY 25 STREET,Queens,11691.0,QUEENS   ,"(40.60201, -73.762795)",40.60201,-73.762795,14.0,31.0,100802.0,4300730.0,4157360001.0,Far Rockaway-Bayswater                                                     
661,RICHMOND HILL HS - QUEENS,Q,27,STEEL DETERIORATED COLUMS & COLUMN,1064400.0,CIP,Q475,89-30 114 STREET,Queens,11418.0,QUEENS   ,"(40.695888, -73.833681)",40.695888,-73.833681,9.0,28.0,124.0,4195688.0,4093210001.0,Richmond Hill                                                              
662,AVIATION HS - QUEENS,Q,24,FUEL FIRE/ROOFS/PARAPETS/MSNRY/ FLOOD/GYM UPG/WIN,17941252.0,CIP,Q610,45-30 36 STREET,Queens,11101.0,QUEENS   ,"(40.743509, -73.929076)",40.743509,-73.929076,2.0,26.0,179.0,4436685.0,4002260001.0,Hunters Point-Sunnyside-West Maspeth                                       
664,YOUNG WOMENS' LEADERSHIP SCHOO,Q,28,ROOF STRUCTURAL DAMAGE/EXTERIOR MASONRY,1545000.0,CIP,Q680,150-91 87 ROAD,Queens,11432.0,QUEENS   ,"(40.707527, -73.806412)",40.707527,-73.806412,8.0,24.0,236.0,4207510.0,4097070048.0,Briarwood-Jamaica Hills                                                    
665,P.S. 16 - QUEENS,Q,24,EXTERIOR MASONRY,1855000.0,CIP,Q721,41-15 104 STREET,Queens,11368.0,QUEENS   ,"(40.748987, -73.86123)",40.748987,-73.86123,4.0,21.0,403.0,4048820.0,4019850001.0,North Corona                                                               
666,Q721 SPED - QUEENS,Q,24,EXTERIOR MASONRY/ROOFS,4300000.0,CIP,Q722,57-12 94TH STREET,Queens,11373.0,QUEENS   ,"(40.736003, -73.867478)",40.736003,-73.867478,4.0,25.0,683.0,4462647.0,4018730050.0,Elmhurst                                                                   
667,P.S. 106 - QUEENS,Q,27,DEMOLITION & PAVED AREA/TCU REMOVAL PLAYGROUND RED,2482000.0,CIP,Q806,180 BEACH 35 STREET,Queens,11691.0,QUEENS   ,"(40.593779, -73.767199)",40.593779,-73.767199,14.0,31.0,992.0,4441244.0,4158610035.0,Hammels-Arverne-Edgemere                                                   
669,Q811 SPED - QUEENS,Q,26,PLANYC BOILER CNVRSN/PLANYC CLIMATE CTRL,5680000.0,CIP,Q811,61-25 MARATHON PKWY,Queens,11362.0,QUEENS   ,"(40.756778, -73.729487)",40.756778,-73.729487,11.0,23.0,152902.0,4173060.0,4083610001.0,Douglas Manor-Douglaston-Little Neck                                       
671,P.S. 43 - QUEENS,Q,27,SANDY INTERIOR SPACES/SANDY FLOOD ELIMINATION,3290000.0,CIP,Q907,12 MARVIN STREET,Queens,11691.0,QUEENS   ,"(40.59359, -73.760448)",40.59359,-73.760448,14.0,31.0,99802.0,4531136.0,4158190148.0,Far Rockaway-Bayswater                                                     
672,P.S. 1 - STATEN ISLAND,R,31,EXTERIOR MASONRY/PARAPETS/ROOFS/WINDOWS,11891000.0,CIP,R001,58 SUMMIT STREET,Staten Island,10307.0,STATEN IS,"(40.509037, -74.244118)",40.509037,-74.244118,3.0,51.0,24401.0,5107854.0,5078980001.0,Charleston-Richmond Valley-Tottenville                                     
676,P.S. 19 - STATEN ISLAND,R,31,PARAPETS/FLOOD/AREAWAY WINDOWS/EXT MASONRY/ROOFS,4814365.81,CIP,R019,780 POST AVENUE,Staten Island,10310.0,STATEN IS,"(40.631214, -74.127101)",40.631214,-74.127101,1.0,49.0,141.0,5006175.0,5002270024.0,West New Brighton-New Brighton-St. George                                  
678,P.S. 29 - STATEN ISLAND,R,31,EXTERIOR MASONRY/ROOFS/PARAPETS,3790000.0,CIP,R029,1581 VICTORY BLVD,Staten Island,10314.0,STATEN IS,"(40.613604, -74.115988)",40.613604,-74.115988,1.0,50.0,147.0,5009028.0,5003310001.0,Westerleigh                                                                
680,P.S. 32 - STATEN ISLAND,R,31,WATER INFILTRATION/EXT MASONRY/GYM ROOF,2088000.0,CIP,R032,232 BARLOW AVENUE,Staten Island,10308.0,STATEN IS,"(40.558966, -74.155517)",40.558966,-74.155517,3.0,51.0,14608.0,5070651.0,5054440012.0,Great Kills                                                                
681,I.S. 34 - STATEN ISLAND,R,31,FULL PROGRAM ACCESSIBILITY/FIRE ALARM SYSTEM,11177000.0,CIP,R034,528 ACADEMY AVE,Staten Island,10307.0,STATEN IS,"(40.508284, -74.243428)",40.508284,-74.243428,3.0,51.0,24401.0,5088090.0,5078940001.0,Charleston-Richmond Valley-Tottenville                                     
682,P.S. 35 - STATEN ISLAND,R,31,HEATING PLANT/CLIMATE CONTROL,3738000.0,CIP,R035,60 FOOTE AVENUE,Staten Island,10301.0,STATEN IS,"(40.613721, -74.099626)",40.613721,-74.099626,1.0,49.0,47.0,5015603.0,5006100127.0,Grymes Hill-Clifton-Fox Hills                                              
684,P.S. 41 - STATEN ISLAND,R,31,MAIN ELECTRICAL SERVICE/LOW VOLTAGE ELEC SYSTEM,1649000.0,CIP,R041,216 CLAWSON STREET,Staten Island,10306.0,STATEN IS,"(40.574044, -74.109282)",40.574044,-74.109282,2.0,50.0,122.0,5052791.0,5036450007.0,New Dorp-Midland Beach                                                     
685,CSI HS FOR INTERNATIONAL STUDI,R,31,PLAYGROUND REDEVELOPMENT,2923000.0,CIP,R043,100 ESSEX DRIVE,Staten Island,10314.0,STATEN IS,"(40.581315, -74.158589)",40.581315,-74.158589,2.0,51.0,27702.0,5149609.0,5024500320.0,Todt Hill-Emerson Hill-Heartland Village-Lighthouse Hill                   
690,NEW DORP HS - STATEN ISLAND,R,31,FY16 RESO A CAFETERIA/MULTIPURPOSE,1472983.08,CIP,R435,465 NEW DORP LANE,Staten Island,10306.0,STATEN IS,"(40.569393, -74.107737)",40.569393,-74.107737,2.0,50.0,11202.0,5055367.0,5039300010.0,New Dorp-Midland Beach                                                     
692,NEW DORP HS - STATEN ISLAND,R,31,ATHLETIC FIELDS,7825000.0,CIP,R436,465 NEW DORP LANE,Staten Island,10306.0,STATEN IS,"(40.569393, -74.107737)",40.569393,-74.107737,2.0,50.0,11202.0,5055367.0,5039300010.0,New Dorp-Midland Beach                                                     
693,CURTIS HS - STATEN ISLAND,R,31,BRIDGE & REPAIR WK/PARAPETS/WASTE SYS/WINDOWS/ROOF,12443000.0,CIP,R450,105 HAMILTON AVENUE,Staten Island,10301.0,STATEN IS,"(40.644735, -74.081222)",40.644735,-74.081222,1.0,49.0,7.0,5106483.0,5000220001.0,West New Brighton-New Brighton-St. George                                  
694,TOTTENVILLE HS - STATEN ISLAND,R,31,FY 16 RESO A WIRING UPGRADE,1335000.0,CIP,R455,100 LUTEN AVENUE,Staten Island,10312.0,STATEN IS,"(40.528092, -74.192032)",40.528092,-74.192032,3.0,51.0,198.0,5082634.0,5066130001.0,Annadale-Huguenot-Prince's Bay-Eltingville                                 
695,SUSAN E. WAGNER HS - STATEN IS,R,31,EXT DOORS/EXT MASONRY/WINDOWS/PARAPETS/ROOFS,28898919.0,CIP,R460,1200 MANOR ROAD,Staten Island,10314.0,STATEN IS,"(40.596803, -74.124227)",40.596803,-74.124227,2.0,50.0,181.0,5146639.0,5009550100.0,Todt Hill-Emerson Hill-Heartland Village-Lighthouse Hill                   
696,SUSAN E. WAGNER HS - STATEN IS,R,31,STH SBHC,1999000.0,CIP,R460,1200 MANOR ROAD,Staten Island,10314.0,STATEN IS,"(40.596803, -74.124227)",40.596803,-74.124227,2.0,50.0,181.0,5146639.0,5009550100.0,Todt Hill-Emerson Hill-Heartland Village-Lighthouse Hill                   
701,BRONX CNTR FOR SCIENCE & MATH,X,9,PLANYC BOILER CONVERSION/PLANYC CLIMATE CTRL,5747000.0,CIP,X002,1365 FULTON AVENUE,Bronx,10456.0,BRONX    ,"(40.833696, -73.902477)",40.833696,-73.902477,3.0,16.0,14701.0,2009617.0,2029250056.0,Claremont-Bathgate                                                         
702,P.S. 3 - BRONX,X,10,DTERIORATED COPING STONES/PAVED AREA CONCRETE/ROOF,3292540.0,CIP,X003,2100 LAFONTAINE AVE,Bronx,10457.0,BRONX    ,"(40.849897, -73.892289)",40.849897,-73.892289,6.0,15.0,37504.0,2099356.0,2030620043.0,East Tremont                                                               
703,P.S. 3 - BRONX,X,10,HVAC CONTROLS/VENTILATION,5388000.0,CIP,X003,2100 LAFONTAINE AVE,Bronx,10457.0,BRONX    ,"(40.849897, -73.892289)",40.849897,-73.892289,6.0,15.0,37504.0,2099356.0,2030620043.0,East Tremont                                                               
705,P.S. 9 - BRONX,X,10,PLANYC BOILER CNVSN/PLANYC CLIMATE CTRL,6542000.0,CIP,X009,230 EAST 183 STREET,Bronx,10458.0,BRONX    ,"(40.857067, -73.898936)",40.857067,-73.898936,5.0,15.0,38301.0,2013561.0,2031500010.0,Fordham South                                                              
706,P.S. 11 - BRONX,X,9,DEFECTIVE RETAINING WALL & PAVEMENTS,2500000.0,CIP,X011,1257 OGDEN AVENUE,Bronx,10452.0,BRONX    ,"(40.839378, -73.925714)",40.839378,-73.925714,4.0,16.0,201.0,2003519.0,2025290081.0,Highbridge                                                                 
709,P.S. 25 - BRONX,X,7,EXTERIOR MASONRY/PARAPETS/ROOFS/WINDOWS,11840000.0,CIP,X025,811 EAST 149 STREET,Bronx,10455.0,BRONX    ,"(40.812619, -73.906063)",40.812619,-73.906063,1.0,8.0,79.0,2004772.0,2026640001.0,Melrose South-Mott Haven North                                             
710,P.S. 32 - BRONX,X,10,EXTERIOR MASONRY/WINDOWS/PARAPETS,6239400.0,CIP,X032,690 EAST 183 STREET,Bronx,10458.0,BRONX    ,"(40.852103, -73.885935)",40.852103,-73.885935,6.0,15.0,391.0,2012409.0,2030850001.0,Belmont                                                                    
711,P.S. 33 - BRONX,X,10,PLANYC BOILER CNVSN/PLANYC CLIMATE CTRL,4829000.0,CIP,X033,2424 JEROME AVENUE,Bronx,10468.0,BRONX    ,"(40.86185, -73.90176)",40.86185,-73.90176,5.0,14.0,239.0,2014099.0,2031880020.0,Fordham South                                                              
712,P.S. 36 - BRONX,X,8,EXT MASONRY/ROOFS/PARAPETS/WINDOWS/EXT DOORS/FLOOD,12843000.0,CIP,X036,1070 CASTLE HILL AVENUE,Bronx,10472.0,BRONX    ,"(40.829344, -73.850428)",40.829344,-73.850428,9.0,18.0,78.0,2026706.0,2038170001.0,Westchester-Unionport                                                      
713,P.S. 36 - BRONX,X,8,FULL PROGRAM ACCESSIBILITY,6900000.0,CIP,X036,1070 CASTLE HILL AVENUE,Bronx,10472.0,BRONX    ,"(40.829344, -73.850428)",40.829344,-73.850428,9.0,18.0,78.0,2026706.0,2038170001.0,Westchester-Unionport                                                      
714,P.S. 41 - BRONX,X,11,PLANYC BOILER CONVERSION/CLIMATE CONTROL,5484000.0,CIP,X041,3352 OLINVILLE AVENUE,Bronx,10467.0,BRONX    ,"(40.874313, -73.868157)",40.874313,-73.868157,12.0,12.0,374.0,2056898.0,2046240015.0,Williamsbridge-Olinville                                                   
715,P.S. 44 - BRONX,X,12,EXTERIOR MASONRY/PARAPETS/ROOFS,9115000.0,CIP,X044,1825 PROSPECT AVENUE,Bronx,10457.0,BRONX    ,"(40.842084, -73.891116)",40.842084,-73.891116,6.0,17.0,36902.0,2009957.0,2029490064.0,East Tremont                                                               
716,P.S. 48 - BRONX,X,8,FULL PROGRAM ACCESSIBILITY,9100000.0,CIP,X048,1290 SPOFFORD AVENUE,Bronx,10474.0,BRONX    ,"(40.814425, -73.886953)",40.814425,-73.886953,2.0,17.0,93.0,2006680.0,2027660001.0,Hunts Point                                                                
717,P.S. 50 - BRONX,X,12,SWITCH GEAR REPLACEMENT,1560000.0,CIP,X050,1550 VYSE AVENUE,Bronx,10460.0,BRONX    ,"(40.834157, -73.887512)",40.834157,-73.887512,3.0,17.0,157.0,2010786.0,2029960010.0,Crotona Park East                                                          
718,P.S. 55 - BRONX,X,9,MASONRY/WINDOWS/ROOFS/PARAPETS,15821492.0,CIP,X055,450 ST PAULS PLACE,Bronx,10456.0,BRONX    ,"(40.836404, -73.905014)",40.836404,-73.905014,3.0,16.0,14702.0,2009463.0,2029020001.0,Claremont-Bathgate                                                         
719,P.S. 62 - BRONX,X,8,EXT MASONRY/PARAPETS,8142000.0,CIP,X062,660 FOX STREET,Bronx,10455.0,BRONX    ,"(40.814031, -73.900609)",40.814031,-73.900609,2.0,8.0,83.0,2005089.0,2026830065.0,Longwood                                                                   
720,P.S. 66 - BRONX,X,12,RENEWAL SCHOOL BASED HEALTH CENTER,1794786.0,CIP,X066,1001 JENNINGS STREET,Bronx,10460.0,BRONX    ,"(40.831165, -73.887094)",40.831165,-73.887094,3.0,17.0,157.0,2010916.0,2030080001.0,Crotona Park East                                                          
721,P.S. 68 - BRONX,X,11,WATER INFILTRATION/EXT MASONRY/PAVED AREA-BLACKTOP,2227000.0,CIP,X068,4011 MONTICELLO AVENUE,Bronx,10466.0,BRONX    ,"(40.891732, -73.838471)",40.891732,-73.838471,12.0,12.0,426.0,2067852.0,2049860081.0,Woodlawn-Wakefield                                                         
722,P.S. 70 - BRONX,X,9,EXT MASONRY/ROOFS/PARAPETS,6431300.0,CIP,X070,1691 WEEKS AVENUE,Bronx,10457.0,BRONX    ,"(40.844253, -73.907616)",40.844253,-73.907616,4.0,15.0,22902.0,2007387.0,2027930028.0,Mount Hope                                                                 
724,P.S. 196 - BRONX,X,12,EXTERIOR MASONRY/FLOOD ELIMINATION/PARAPETS/ROOFS,8481000.0,CIP,X077,1250 WARD AVENUE,Bronx,10472.0,BRONX    ,"(40.830691, -73.877743)",40.830691,-73.877743,9.0,18.0,54.0,2088553.0,2037750025.0,West Farms-Bronx River                                                     
725,P.S. 81 - BRONX,X,10,WINDOW/ROOFS/EXT MASONRY/FLOOD,3147559.0,CIP,X081,5550 RIVERDALE AVENUE,Bronx,10471.0,BRONX    ,"(40.903553, -73.905229)",40.903553,-73.905229,8.0,11.0,337.0,2084806.0,2058501550.0,North Riverdale-Fieldston-Riverdale                                        
726,I.S. 232 - BRONX,X,9,OIL VAULT & STAIRWAY/PIPING/TOILETS/FLOOD,8819000.0,CIP,X082,1700 MACOMBS ROAD,Bronx,10453.0,BRONX    ,"(40.849623, -73.91607)",40.849623,-73.91607,5.0,14.0,21502.0,2008460.0,2028660070.0,University Heights-Morris Heights                                          
727,X811 SPED - BRONX,X,12,PROBES-REPAIRS/PARAPETS/ ROOFS/WINDOWS,6474000.0,CIP,X084,1434 LONGFELLOW AVENUE,Bronx,10459.0,BRONX    ,"(40.830589, -73.887587)",40.830589,-73.887587,3.0,17.0,123.0,2010910.0,2030070008.0,Crotona Park East                                                          
728,P.S. 85 - BRONX,X,10,EXT MASONRY/PARAPETS/ROOFS/SECURITY LIGHTING/FLOOD,9489919.0,CIP,X085,2400 MARION AVENUE,Bronx,10458.0,BRONX    ,"(40.8591, -73.894946)",40.8591,-73.894946,5.0,15.0,38302.0,2011054.0,2030240021.0,Fordham South                                                              
729,THE FAMILY SCHOOL - BRONX,X,9,EXTERIOR MASONRY/ROOFS,4391000.0,CIP,X090,1116 SHERIDAN AVENUE,Bronx,10456.0,BRONX    ,"(40.831992, -73.91796)",40.831992,-73.91796,4.0,16.0,18102.0,2002745.0,2024560100.0,East Concourse-Concourse Village                                           
730,P.S. 95 - BRONX,X,10,DEFECTIVE MASONRY/PARAPETS,7609000.0,CIP,X095,3961 HILLMAN AVENUE,Bronx,10463.0,BRONX    ,"(40.882898, -73.891256)",40.882898,-73.891256,8.0,11.0,281.0,2015472.0,2032520182.0,Van Cortlandt Village                                                      
731,I.S. 98 - BRONX,X,12,STH SBHC,2177000.0,CIP,X098,1619 BOSTON RD,Bronx,10460.0,BRONX    ,"(40.8359, -73.890458)",40.8359,-73.890458,3.0,17.0,155.0,2009867.0,2029390093.0,Crotona Park East                                                          
732,ARCHER ELEMENTARY SCHOOL - BRO,X,12,FLOOD ELIMINATION/ROOFS,4100000.0,CIP,X102,1827 ARCHER STREET,Bronx,10460.0,BRONX    ,"(40.837631, -73.866036)",40.837631,-73.866036,9.0,18.0,21601.0,2028640.0,2039210030.0,West Farms-Bronx River                                                     
733,P.S. 199 - BRONX,X,9,5TH SBHC,2247300.0,CIP,X104,1449 SHAKESPEARE AVENUE,Bronx,10452.0,BRONX    ,"(40.842943, -73.920563)",40.842943,-73.920563,4.0,16.0,21302.0,2088263.0,2028730027.0,Highbridge                                                                 
734,P.S. 105 - BRONX,X,11,WATER INFILTRATION/PARAPETS,4228000.0,CIP,X105,725 BRADY AVENUE,Bronx,10462.0,BRONX    ,"(40.852398, -73.866617)",40.852398,-73.866617,11.0,13.0,22404.0,2048794.0,2042880001.0,Pelham Parkway                                                             
735,P.S. 109 - BRONX,X,9,WATER PENETRATION/ROOF/ PARAPET/MASONRY,3968466.0,CIP,X109,1771 POPHAM AVENUE,Bronx,10453.0,BRONX    ,"(40.851414, -73.918533)",40.851414,-73.918533,5.0,14.0,20502.0,2094549.0,2028770393.0,University Heights-Morris Heights                                          
737,P.S. 112 - BRONX,X,11,PLANYC BOILER CNVRSN/PLANYC CLIMATE CTRL,5722000.0,CIP,X112,1925 SCHIEFFELIN AVENUE,Bronx,10466.0,BRONX    ,"(40.885008, -73.843193)",40.885008,-73.843193,12.0,12.0,458.0,2065991.0,2049050500.0,Eastchester-Edenwald-Baychester                                            
739,I.S. 459 - BRONX,X,10,REPAIR STEPS & VPS/ROOFS/PARTIAL ACCESSIBILITY,1775000.0,CIP,X115,120 EAST 184 STREET,Bronx,10468.0,BRONX    ,"(40.859752, -73.900161)",40.859752,-73.900161,5.0,14.0,23703.0,2013899.0,2031720046.0,Fordham South                                                              
740,I.S. 123 - BRONX,X,8,RENEWAL SCHOOL BASED HEALTH CENTER,1950000.0,CIP,X123,1025 MORRISON AVENUE,Bronx,10472.0,BRONX    ,"(40.825403, -73.873666)",40.825403,-73.873666,9.0,18.0,48.0,2087014.0,2037180001.0,Soundview-Bruckner                                                         
741,I.S. 125 - BRONX,X,8,LIGHTING REPLACEMENT (DCAS),1300019.0,CIP,X125,1111 PUGSLEY AVENUE,Bronx,10472.0,BRONX    ,"(40.829232, -73.856734)",40.829232,-73.856734,9.0,18.0,4001.0,2025717.0,2037900040.0,Soundview-Bruckner                                                         
742,I.S. 322 - BRONX,X,11,CEILING TILE REPLACEMENT,2787000.0,CIP,X135,2441 WALLACE AVENUE,Bronx,10467.0,BRONX    ,"(40.862109, -73.864577)",40.862109,-73.864577,11.0,13.0,330.0,2051313.0,2044320001.0,Bronxdale                                                                  
743,I.S. 244 - BRONX,X,10,PLANYC BOILER/PLANYC CLIMATE CTRL,6969000.0,CIP,X143,120 WEST 231 STREET,Bronx,10463.0,BRONX    ,"(40.875911, -73.901099)",40.875911,-73.901099,8.0,14.0,273.0,2015547.0,2032530141.0,Van Cortlandt Village                                                      
744,I.S. 144 - BRONX,X,11,PLANYC BOILER CONVERSION/CLIMATE CONTROL,5423000.0,CIP,X144,2545 GUNTHER AVENUE,Bronx,10469.0,BRONX    ,"(40.863735, -73.83607)",40.863735,-73.83607,11.0,13.0,310.0,2053518.0,2044930001.0,Allerton-Pelham Gardens                                                    
745,I.S. 339 - BRONX,X,9,RENEWAL SCHOOL BASED HEALTH CENTER,1920000.0,CIP,X147,1600 WEBSTER AVENUE,Bronx,10457.0,BRONX    ,"(40.840878, -73.904754)",40.840878,-73.904754,3.0,16.0,167.0,2009400.0,2028970005.0,Claremont-Bathgate                                                         
746,I.S. 151 - BRONX,X,7,STH SBHC,2137000.0,CIP,X151,250 EAST 156 STREET,Bronx,10451.0,BRONX    ,"(40.82316, -73.921631)",40.82316,-73.921631,4.0,17.0,61.0,2002458.0,2024430190.0,East Concourse-Concourse Village                                           
747,P.S. 152 - BRONX,X,8,WINDOWS,3777000.0,CIP,X152,1007 EVERGREEN AVENUE,Bronx,10472.0,BRONX    ,"(40.824054, -73.880039)",40.824054,-73.880039,9.0,17.0,52.0,2023336.0,2037110001.0,Soundview-Bruckner                                                         
749,P.S. 160 - BRONX,X,11,FY17 RESO A PLAYGROUND REDEVELOPMENT,1575000.0,CIP,X160,4140 HUTCHINSON RIVER PARKWAY EAST,Bronx,10475.0,BRONX    ,"(40.864676, -73.824303)",40.864676,-73.824303,10.0,12.0,302.0,2072352.0,2051350200.0,Co-op City                                                                 
750,P.S. 236 - BRONX,X,9,FALLING COPING STONES/EXT MASONRY,2589000.0,CIP,X173,1871 WALTON AVENUE,Bronx,10453.0,BRONX    ,"(40.848899, -73.909528)",40.848899,-73.909528,5.0,14.0,23301.0,2098479.0,2028510021.0,Mount Hope                                                                 
752,P.S. 212 - BRONX,X,12,RENEWAL SBHC,1915000.0,CIP,X198,1180 TINTON AVENUE,Bronx,10456.0,BRONX    ,"(40.828419, -73.900721)",40.828419,-73.900721,3.0,17.0,135.0,2004869.0,2026720001.0,Morrisania-Melrose                                                         
753,P.S. 230 - BRONX,X,9,SEWAGE LEAK/FIRE SYS SPRINKLER/CRACKED CONCRETE/FA,14230000.0,CIP,X229,275 HARLEM RIVER PARK BRIDGE,Bronx,10453.0,BRONX    ,"(40.852536, -73.921467)",40.852536,-73.921467,5.0,16.0,53.0,2009253.0,2028820130.0,University Heights-Morris Heights                                          
754,I.S. 254 - BRONX,X,10,FACADE/ROOFS,3600000.0,CIP,X254,2452 WASHINGTON AVENUE,Bronx,10458.0,BRONX    ,"(40.858815, -73.890232)",40.858815,-73.890232,6.0,15.0,387.0,2103863.0,2030580003.0,Belmont                                                                    
756,BRONX INTERNATIONAL - BRONX,X,9,TERRA COTTA REPL/FLOOD/ROOFS/WINDOW/INTERIOR SPACE,37337000.0,CIP,X400,1110 BOSTON RD,Bronx,10456.0,BRONX    ,"(40.827642, -73.904473)",40.827642,-73.904473,3.0,16.0,135.0,2004526.0,2026340001.0,Morrisania-Melrose                                                         
757,HERBERT H. LEHMAN HS - X,X,8,SANDY ELEC/HEAT/FLOOD/CLIM/SINK HOLES/PLUMBING,29723000.0,CIP,X405,3000 EAST TREMONT AVENUE,Bronx,10461.0,BRONX    ,"(40.840702, -73.838545)",40.840702,-73.838545,10.0,13.0,194.0,2074045.0,2053680001.0,Schuylerville-Throgs Neck-Edgewater Park                                   
758,MONROE ACAD FOR VISUAL ARTS -,X,12,BOILER/CLIMATE CONTROL/WATER INFILTRATION,8511800.0,CIP,X420,1300 BOYNTON AVENUE,Bronx,10472.0,BRONX    ,"(40.831601, -73.878912)",40.831601,-73.878912,9.0,18.0,56.0,2027459.0,2038640001.0,West Farms-Bronx River                                                     
759,M.S./H.S. 342 - BRONX,X,10,BOILER FOR SWIMMING,2152000.0,CIP,X430,2780 RESERVOIR AVENUE,Bronx,10468.0,BRONX    ,"(40.870293, -73.898309)",40.870293,-73.898309,7.0,11.0,409.0,2015241.0,2032470070.0,Van Cortlandt Village                                                      
760,FORDHAM HS FOR THE ARTS - BRON,X,10,FY16 RESO A LIBRARY UPGRADE,1760601.0,CIP,X435,500 EAST FORDHAM ROAD,Bronx,10458.0,BRONX    ,"(40.860043, -73.888267)",40.860043,-73.888267,6.0,15.0,387.0,2011810.0,2030590001.0,Belmont                                                                    
761,I.S. 243 - BRONX,X,10,ROOFS/PARAPETS/EXT MASONRY/WINDOWS,50553000.0,CIP,X435,500 EAST FORDHAM ROAD,Bronx,10458.0,BRONX    ,"(40.860043, -73.888267)",40.860043,-73.888267,6.0,15.0,387.0,2011810.0,2030590001.0,Belmont                                                                    
762,DEWITT CLINTON HS - X,X,10,EXTERIOR MASONRY/FLOOD ELIMINATION/PARAPETS/ROOF,27189000.0,CIP,X440,100 W MOSHOLU PKWY S,Bronx,10468.0,BRONX    ,"(40.882178, -73.88691)",40.882178,-73.88691,7.0,11.0,409.0,2095215.0,2032510201.0,Van Cortlandt Village                                                      
763,BRONX HS OF SCIENCE - X,X,10,ROOF REPLACEMENT/PARAPETS,8985000.0,CIP,X445,75 W 205 STREET,Bronx,10468.0,BRONX    ,"(40.87759, -73.89104)",40.87759,-73.89104,7.0,11.0,409.0,2094706.0,2032510201.0,Van Cortlandt Village                                                      
764,HARRY S. TRUMAN HS - X,X,11,EXT MASONRY/PARAPETS,3715000.0,CIP,X455,750 BAYCHESTER AVENUE,Bronx,10475.0,BRONX    ,"(40.874091, -73.833904)",40.874091,-73.833904,10.0,12.0,46201.0,2116159.0,2051410150.0,Co-op City                                                                 
765,UNIVERSITY HEIGHTS HS - BRONX,X,7,ATHLETIC FIELDS,7421000.0,CIP,X471,701 ST ANNS AVENUE,Bronx,10455.0,BRONX    ,"(40.81825, -73.91103)",40.81825,-73.91103,1.0,17.0,71.0,2001153.0,2023590240.0,Melrose South-Mott Haven North                                             
766,JOHN F. KENNEDY HS - BRONX,X,10,PARKING AREA LIGHTING/TCU REMOVAL AND PLAYGROUND,2138000.0,CIP,X475,99 TERRACE VIEW AVENUE,Bronx,10463.0,BRONX    ,"(40.877105, -73.912256)",40.877105,-73.912256,8.0,10.0,309.0,1064532.0,1022150080.0,Marble Hill-Inwood                                                         
767,JOHN F. KENNEDY HS - BRONX,X,10,SCIENCE LAB UPGRADE,5547000.0,CIP,X475,99 TERRACE VIEW AVENUE,Bronx,10463.0,BRONX    ,"(40.877105, -73.912256)",40.877105,-73.912256,8.0,10.0,309.0,1064532.0,1022150080.0,Marble Hill-Inwood                                                         
768,MARBLE HILL INTERNATIONAL HS -,X,10,EXT MASONRY/FLOOD/PARAPETS/ROOFS,10490000.0,CIP,X475,99 TERRACE VIEW AVENUE,Bronx,10463.0,BRONX    ,"(40.877105, -73.912256)",40.877105,-73.912256,8.0,10.0,309.0,1064532.0,1022150080.0,Marble Hill-Inwood                                                         
770,X721 SPED - BRONX,X,11,PLANYC BOILER CNVRSN/PLANYC CLIMATE CTRL,5390630.0,CIP,X722,2697 WESTCHESTER AVENUE,Bronx,10461.0,BRONX    ,"(40.842289, -73.838949)",40.842289,-73.838949,11.0,13.0,284.0,2045725.0,2041330200.0,Van Nest-Morris Park-Westchester Square                                    
772,P.S. 246 - BRONX,X,10,ELEVATOR/EXT MSNRY/FLOOD/ PARAPETS/ROOFS/WALL,11448000.0,CIP,X843,2641 GRAND CONCOURSE,Bronx,10468.0,BRONX    ,"(40.865593, -73.894758)",40.865593,-73.894758,7.0,14.0,401.0,2013830.0,2031680027.0,Bedford Park-Fordham North                                                 
